<?xml version="1.0" encoding="UTF-8" standalone="no" ?>
<gpx xmlns="http://www.topografix.com/GPX/1/1" creator="CompeGPS" version="1.1" xmlns:xsi="http://www.w3.org/2001/XMLSchema-instance" xsi:schemaLocation="http://www.topografix.com/GPX/1/1 http://www.topografix.com/GPX/1/1/gpx.xsd http://www.garmin.com/xmlschemas/GpxExtensions/v3 http://www.garmin.com/xmlschemas/GpxExtensionsv3.xsd http://www.garmin.com/xmlschemas/TrackPointExtension/v1 http://www.garmin.com/xmlschemas/TrackPointExtensionv1.xsd" xmlns:gpxtpx="http://www.garmin.com/xmlschemas/TrackPointExtension/v1">
  <metadata>
    <link href="http://www.compegps.com">
      <text>CompeGPS TEAM, SL</text>
    </link>
    <time>2026-09-20T09:54:22Z</time>
    <bounds maxlat="42.331132" maxlon="-3.067646" minlat="42.318139" minlon="-3.087216"/>
  </metadata>
  <trk>
    <name>valga</name>
    <trkseg>
      <trkpt lat="42.318252" lon="-3.077972">
        <ele>967.7</ele>
      </trkpt>
      <trkpt lat="42.318503" lon="-3.077247">
        <ele>965.6</ele>
      </trkpt>
      <trkpt lat="42.318736" lon="-3.076475">
        <ele>961.3</ele>
      </trkpt>
      <trkpt lat="42.318934" lon="-3.075558">
        <ele>957.1</ele>
      </trkpt>
      <trkpt lat="42.319061" lon="-3.074824">
        <ele>952.8</ele>
      </trkpt>
      <trkpt lat="42.319201" lon="-3.075165">
        <ele>957.9</ele>
      </trkpt>
      <trkpt lat="42.319400" lon="-3.075400">
        <ele>966.0</ele>
      </trkpt>
      <trkpt lat="42.319502" lon="-3.075832">
        <ele>975.2</ele>
      </trkpt>
      <trkpt lat="42.319633" lon="-3.076356">
        <ele>985.3</ele>
      </trkpt>
      <trkpt lat="42.319715" lon="-3.076847">
        <ele>994.4</ele>
      </trkpt>
      <trkpt lat="42.319842" lon="-3.077076">
        <ele>1000.4</ele>
      </trkpt>
      <trkpt lat="42.320098" lon="-3.077142">
        <ele>1001.6</ele>
      </trkpt>
      <trkpt lat="42.320171" lon="-3.077351">
        <ele>1002.8</ele>
      </trkpt>
      <trkpt lat="42.320128" lon="-3.077731">
        <ele>1008.8</ele>
      </trkpt>
      <trkpt lat="42.320138" lon="-3.077875">
        <ele>1012.0</ele>
      </trkpt>
      <trkpt lat="42.320337" lon="-3.078039">
        <ele>1012.6</ele>
      </trkpt>
      <trkpt lat="42.320472" lon="-3.078327">
        <ele>1016.0</ele>
      </trkpt>
      <trkpt lat="42.320623" lon="-3.078634">
        <ele>1021.8</ele>
      </trkpt>
      <trkpt lat="42.320846" lon="-3.078798">
        <ele>1023.0</ele>
      </trkpt>
      <trkpt lat="42.321049" lon="-3.079007">
        <ele>1026.7</ele>
      </trkpt>
      <trkpt lat="42.321185" lon="-3.079354">
        <ele>1033.9</ele>
      </trkpt>
      <trkpt lat="42.321364" lon="-3.079721">
        <ele>1040.6</ele>
      </trkpt>
      <trkpt lat="42.321563" lon="-3.080107">
        <ele>1043.1</ele>
      </trkpt>
      <trkpt lat="42.321786" lon="-3.080487">
        <ele>1039.5</ele>
      </trkpt>
      <trkpt lat="42.322043" lon="-3.080697">
        <ele>1039.4</ele>
      </trkpt>
      <trkpt lat="42.322280" lon="-3.080886">
        <ele>1043.9</ele>
      </trkpt>
      <trkpt lat="42.322658" lon="-3.080873">
        <ele>1048.4</ele>
      </trkpt>
      <trkpt lat="42.322992" lon="-3.080840">
        <ele>1057.0</ele>
      </trkpt>
      <trkpt lat="42.323317" lon="-3.080938">
        <ele>1065.9</ele>
      </trkpt>
      <trkpt lat="42.323646" lon="-3.081272">
        <ele>1073.6</ele>
      </trkpt>
      <trkpt lat="42.324010" lon="-3.081626">
        <ele>1082.5</ele>
      </trkpt>
      <trkpt lat="42.324348" lon="-3.081835">
        <ele>1097.7</ele>
      </trkpt>
      <trkpt lat="42.324567" lon="-3.082221">
        <ele>1107.7</ele>
      </trkpt>
      <trkpt lat="42.324809" lon="-3.082568">
        <ele>1118.8</ele>
      </trkpt>
      <trkpt lat="42.325051" lon="-3.082981">
        <ele>1128.2</ele>
      </trkpt>
      <trkpt lat="42.325211" lon="-3.083380">
        <ele>1138.4</ele>
      </trkpt>
      <trkpt lat="42.325337" lon="-3.083720">
        <ele>1142.8</ele>
      </trkpt>
      <trkpt lat="42.325536" lon="-3.083937">
        <ele>1151.9</ele>
      </trkpt>
      <trkpt lat="42.325802" lon="-3.084113">
        <ele>1160.8</ele>
      </trkpt>
      <trkpt lat="42.326142" lon="-3.084080">
        <ele>1167.9</ele>
      </trkpt>
      <trkpt lat="42.326466" lon="-3.084028">
        <ele>1176.2</ele>
      </trkpt>
      <trkpt lat="42.326737" lon="-3.084087">
        <ele>1182.5</ele>
      </trkpt>
      <trkpt lat="42.326965" lon="-3.084244">
        <ele>1191.4</ele>
      </trkpt>
      <trkpt lat="42.327062" lon="-3.084552">
        <ele>1201.6</ele>
      </trkpt>
      <trkpt lat="42.327014" lon="-3.084833">
        <ele>1201.6</ele>
      </trkpt>
      <trkpt lat="42.326999" lon="-3.085101">
        <ele>1204.4</ele>
      </trkpt>
      <trkpt lat="42.327048" lon="-3.085396">
        <ele>1209.0</ele>
      </trkpt>
      <trkpt lat="42.327126" lon="-3.085795">
        <ele>1219.8</ele>
      </trkpt>
      <trkpt lat="42.327189" lon="-3.086273">
        <ele>1221.7</ele>
      </trkpt>
      <trkpt lat="42.327296" lon="-3.086646">
        <ele>1222.2</ele>
      </trkpt>
      <trkpt lat="42.327514" lon="-3.086849">
        <ele>1224.8</ele>
      </trkpt>
      <trkpt lat="42.327722" lon="-3.087111">
        <ele>1225.0</ele>
      </trkpt>
      <trkpt lat="42.327989" lon="-3.087216">
        <ele>1225.0</ele>
      </trkpt>
      <trkpt lat="42.328100" lon="-3.086849">
        <ele>1227.0</ele>
      </trkpt>
      <trkpt lat="42.328047" lon="-3.086443">
        <ele>1228.0</ele>
      </trkpt>
      <trkpt lat="42.327980" lon="-3.085925">
        <ele>1229.0</ele>
      </trkpt>
      <trkpt lat="42.328009" lon="-3.085237">
        <ele>1230.0</ele>
      </trkpt>
      <trkpt lat="42.328077" lon="-3.084471">
        <ele>1232.0</ele>
      </trkpt>
      <trkpt lat="42.328135" lon="-3.083698">
        <ele>1233.4</ele>
      </trkpt>
      <trkpt lat="42.328038" lon="-3.082827">
        <ele>1234.3</ele>
      </trkpt>
      <trkpt lat="42.328058" lon="-3.082146">
        <ele>1235.0</ele>
      </trkpt>
      <trkpt lat="42.328164" lon="-3.081406">
        <ele>1232.2</ele>
      </trkpt>
      <trkpt lat="42.328295" lon="-3.080627">
        <ele>1228.0</ele>
      </trkpt>
      <trkpt lat="42.328421" lon="-3.079854">
        <ele>1223.4</ele>
      </trkpt>
      <trkpt lat="42.328499" lon="-3.079192">
        <ele>1220.2</ele>
      </trkpt>
      <trkpt lat="42.328504" lon="-3.078596">
        <ele>1220.1</ele>
      </trkpt>
      <trkpt lat="42.328562" lon="-3.078387">
        <ele>1218.7</ele>
      </trkpt>
      <trkpt lat="42.328717" lon="-3.078197">
        <ele>1215.3</ele>
      </trkpt>
      <trkpt lat="42.328848" lon="-3.077849">
        <ele>1211.5</ele>
      </trkpt>
      <trkpt lat="42.329057" lon="-3.077502">
        <ele>1204.7</ele>
      </trkpt>
      <trkpt lat="42.329284" lon="-3.077162">
        <ele>1197.6</ele>
      </trkpt>
      <trkpt lat="42.329531" lon="-3.076821">
        <ele>1191.1</ele>
      </trkpt>
      <trkpt lat="42.329778" lon="-3.076480">
        <ele>1187.1</ele>
      </trkpt>
      <trkpt lat="42.329876" lon="-3.076670">
        <ele>1187.1</ele>
      </trkpt>
      <trkpt lat="42.329900" lon="-3.076893">
        <ele>1186.7</ele>
      </trkpt>
      <trkpt lat="42.329900" lon="-3.077128">
        <ele>1185.3</ele>
      </trkpt>
      <trkpt lat="42.329944" lon="-3.077324">
        <ele>1184.2</ele>
      </trkpt>
      <trkpt lat="42.330099" lon="-3.077292">
        <ele>1180.5</ele>
      </trkpt>
      <trkpt lat="42.330283" lon="-3.077010">
        <ele>1175.2</ele>
      </trkpt>
      <trkpt lat="42.330463" lon="-3.076368">
        <ele>1173.2</ele>
      </trkpt>
      <trkpt lat="42.330463" lon="-3.075864">
        <ele>1168.5</ele>
      </trkpt>
      <trkpt lat="42.330448" lon="-3.075307">
        <ele>1160.0</ele>
      </trkpt>
      <trkpt lat="42.330536" lon="-3.074809">
        <ele>1154.5</ele>
      </trkpt>
      <trkpt lat="42.330657" lon="-3.074357">
        <ele>1155.1</ele>
      </trkpt>
      <trkpt lat="42.330788" lon="-3.073912">
        <ele>1153.6</ele>
      </trkpt>
      <trkpt lat="42.330899" lon="-3.073525">
        <ele>1141.9</ele>
      </trkpt>
      <trkpt lat="42.331074" lon="-3.073329">
        <ele>1133.5</ele>
      </trkpt>
      <trkpt lat="42.331132" lon="-3.073132">
        <ele>1127.3</ele>
      </trkpt>
      <trkpt lat="42.330977" lon="-3.072890">
        <ele>1119.8</ele>
      </trkpt>
      <trkpt lat="42.330895" lon="-3.072686">
        <ele>1112.3</ele>
      </trkpt>
      <trkpt lat="42.330813" lon="-3.072516">
        <ele>1105.3</ele>
      </trkpt>
      <trkpt lat="42.330891" lon="-3.072280">
        <ele>1101.7</ele>
      </trkpt>
      <trkpt lat="42.330843" lon="-3.072097">
        <ele>1097.4</ele>
      </trkpt>
      <trkpt lat="42.330717" lon="-3.071972">
        <ele>1091.9</ele>
      </trkpt>
      <trkpt lat="42.330558" lon="-3.071854">
        <ele>1086.7</ele>
      </trkpt>
      <trkpt lat="42.330364" lon="-3.071684">
        <ele>1080.1</ele>
      </trkpt>
      <trkpt lat="42.330243" lon="-3.071586">
        <ele>1075.0</ele>
      </trkpt>
      <trkpt lat="42.330036" lon="-3.071494">
        <ele>1068.4</ele>
      </trkpt>
      <trkpt lat="42.329803" lon="-3.071337">
        <ele>1064.1</ele>
      </trkpt>
      <trkpt lat="42.329566" lon="-3.071127">
        <ele>1058.1</ele>
      </trkpt>
      <trkpt lat="42.329281" lon="-3.071042">
        <ele>1051.4</ele>
      </trkpt>
      <trkpt lat="42.328976" lon="-3.070937">
        <ele>1045.7</ele>
      </trkpt>
      <trkpt lat="42.328714" lon="-3.071041">
        <ele>1043.9</ele>
      </trkpt>
      <trkpt lat="42.328415" lon="-3.071113">
        <ele>1034.3</ele>
      </trkpt>
      <trkpt lat="42.328221" lon="-3.071133">
        <ele>1028.5</ele>
      </trkpt>
      <trkpt lat="42.328192" lon="-3.071506">
        <ele>1035.9</ele>
      </trkpt>
      <trkpt lat="42.328163" lon="-3.071093">
        <ele>1026.8</ele>
      </trkpt>
      <trkpt lat="42.328057" lon="-3.070949">
        <ele>1024.2</ele>
      </trkpt>
      <trkpt lat="42.327931" lon="-3.070720">
        <ele>1020.4</ele>
      </trkpt>
      <trkpt lat="42.327815" lon="-3.070438">
        <ele>1019.0</ele>
      </trkpt>
      <trkpt lat="42.327665" lon="-3.070143">
        <ele>1013.2</ele>
      </trkpt>
      <trkpt lat="42.327520" lon="-3.069803">
        <ele>1007.1</ele>
      </trkpt>
      <trkpt lat="42.327317" lon="-3.069502">
        <ele>1003.6</ele>
      </trkpt>
      <trkpt lat="42.327046" lon="-3.069240">
        <ele>1001.6</ele>
      </trkpt>
      <trkpt lat="42.326693" lon="-3.069095">
        <ele>996.1</ele>
      </trkpt>
      <trkpt lat="42.326311" lon="-3.068990">
        <ele>984.8</ele>
      </trkpt>
      <trkpt lat="42.325996" lon="-3.068905">
        <ele>980.7</ele>
      </trkpt>
      <trkpt lat="42.325628" lon="-3.068846">
        <ele>975.7</ele>
      </trkpt>
      <trkpt lat="42.325227" lon="-3.068820">
        <ele>970.0</ele>
      </trkpt>
      <trkpt lat="42.324907" lon="-3.068807">
        <ele>965.6</ele>
      </trkpt>
      <trkpt lat="42.324588" lon="-3.068695">
        <ele>961.9</ele>
      </trkpt>
      <trkpt lat="42.324259" lon="-3.068630">
        <ele>959.8</ele>
      </trkpt>
      <trkpt lat="42.323920" lon="-3.068636">
        <ele>956.2</ele>
      </trkpt>
      <trkpt lat="42.323552" lon="-3.068636">
        <ele>950.9</ele>
      </trkpt>
      <trkpt lat="42.323330" lon="-3.068774">
        <ele>950.6</ele>
      </trkpt>
      <trkpt lat="42.323049" lon="-3.068826">
        <ele>950.1</ele>
      </trkpt>
      <trkpt lat="42.322716" lon="-3.068806">
        <ele>948.9</ele>
      </trkpt>
      <trkpt lat="42.322382" lon="-3.068511">
        <ele>945.1</ele>
      </trkpt>
      <trkpt lat="42.322043" lon="-3.068262">
        <ele>942.5</ele>
      </trkpt>
      <trkpt lat="42.321670" lon="-3.068033">
        <ele>938.0</ele>
      </trkpt>
      <trkpt lat="42.321298" lon="-3.068026">
        <ele>935.5</ele>
      </trkpt>
      <trkpt lat="42.321085" lon="-3.067889">
        <ele>933.8</ele>
      </trkpt>
      <trkpt lat="42.320858" lon="-3.067731">
        <ele>930.6</ele>
      </trkpt>
      <trkpt lat="42.320635" lon="-3.067646">
        <ele>927.4</ele>
      </trkpt>
      <trkpt lat="42.320331" lon="-3.067751">
        <ele>924.9</ele>
      </trkpt>
      <trkpt lat="42.320055" lon="-3.067849">
        <ele>922.2</ele>
      </trkpt>
      <trkpt lat="42.319837" lon="-3.068091">
        <ele>921.4</ele>
      </trkpt>
      <trkpt lat="42.319557" lon="-3.067967">
        <ele>921.0</ele>
      </trkpt>
      <trkpt lat="42.319271" lon="-3.067822">
        <ele>922.2</ele>
      </trkpt>
      <trkpt lat="42.319053" lon="-3.068261">
        <ele>925.0</ele>
      </trkpt>
      <trkpt lat="42.318850" lon="-3.068856">
        <ele>926.0</ele>
      </trkpt>
      <trkpt lat="42.318657" lon="-3.069420">
        <ele>928.0</ele>
      </trkpt>
      <trkpt lat="42.318410" lon="-3.069878">
        <ele>930.0</ele>
      </trkpt>
      <trkpt lat="42.318216" lon="-3.070159">
        <ele>932.1</ele>
      </trkpt>
      <trkpt lat="42.318173" lon="-3.070657">
        <ele>932.8</ele>
      </trkpt>
      <trkpt lat="42.318139" lon="-3.070971">
        <ele>933.2</ele>
      </trkpt>
      <trkpt lat="42.318260" lon="-3.071220">
        <ele>932.0</ele>
      </trkpt>
      <trkpt lat="42.318411" lon="-3.071508">
        <ele>935.0</ele>
      </trkpt>
      <trkpt lat="42.318624" lon="-3.071829">
        <ele>936.9</ele>
      </trkpt>
      <trkpt lat="42.318832" lon="-3.072255">
        <ele>939.4</ele>
      </trkpt>
      <trkpt lat="42.318988" lon="-3.072765">
        <ele>941.9</ele>
      </trkpt>
      <trkpt lat="42.319090" lon="-3.073381">
        <ele>946.6</ele>
      </trkpt>
      <trkpt lat="42.319133" lon="-3.073904">
        <ele>950.7</ele>
      </trkpt>
      <trkpt lat="42.319129" lon="-3.074068">
        <ele>950.5</ele>
      </trkpt>
      <trkpt lat="42.319119" lon="-3.074428">
        <ele>950.5</ele>
      </trkpt>
    </trkseg>
  </trk>
</gpx>
