<?xml version="1.0" encoding="UTF-8" standalone="no" ?>
<gpx xmlns="http://www.topografix.com/GPX/1/1" creator="CompeGPS" version="1.1" xmlns:xsi="http://www.w3.org/2001/XMLSchema-instance" xsi:schemaLocation="http://www.topografix.com/GPX/1/1 http://www.topografix.com/GPX/1/1/gpx.xsd">
  <metadata>
    <time>2026-01-01T08:00:00Z</time>
    <bounds maxlat="42.094015" maxlon="-2.824995" minlat="42.051164" minlon="-2.833944"/>
  </metadata>
  <trk>
    <name>orma (ida y vuelta)</name>
    <trkseg>
      <trkpt lat="42.094015" lon="-2.831624">
        <ele>1186.7</ele>
        <time>2026-01-01T08:00:00Z</time>
      </trkpt>
      <trkpt lat="42.093134" lon="-2.830922">
        <ele>1185.0</ele>
        <time>2026-01-01T08:01:21Z</time>
      </trkpt>
      <trkpt lat="42.092954" lon="-2.830659">
        <ele>1185.5</ele>
        <time>2026-01-01T08:01:57Z</time>
      </trkpt>
      <trkpt lat="42.092699" lon="-2.830558">
        <ele>1187.2</ele>
        <time>2026-01-01T08:02:32Z</time>
      </trkpt>
      <trkpt lat="42.092294" lon="-2.830194">
        <ele>1190.0</ele>
        <time>2026-01-01T08:03:37Z</time>
      </trkpt>
      <trkpt lat="42.091890" lon="-2.829507">
        <ele>1191.0</ele>
        <time>2026-01-01T08:05:04Z</time>
      </trkpt>
      <trkpt lat="42.091485" lon="-2.828941">
        <ele>1195.0</ele>
        <time>2026-01-01T08:06:22Z</time>
      </trkpt>
      <trkpt lat="42.091170" lon="-2.828415">
        <ele>1195.0</ele>
        <time>2026-01-01T08:07:29Z</time>
      </trkpt>
      <trkpt lat="42.090691" lon="-2.828132">
        <ele>1196.0</ele>
        <time>2026-01-01T08:08:39Z</time>
      </trkpt>
      <trkpt lat="42.090346" lon="-2.827728">
        <ele>1200.0</ele>
        <time>2026-01-01T08:09:40Z</time>
      </trkpt>
      <trkpt lat="42.090046" lon="-2.827708">
        <ele>1200.0</ele>
        <time>2026-01-01T08:10:20Z</time>
      </trkpt>
      <trkpt lat="42.089686" lon="-2.827667">
        <ele>1200.8</ele>
        <time>2026-01-01T08:11:08Z</time>
      </trkpt>
      <trkpt lat="42.089431" lon="-2.827626">
        <ele>1201.4</ele>
        <time>2026-01-01T08:11:42Z</time>
      </trkpt>
      <trkpt lat="42.089206" lon="-2.827848">
        <ele>1205.0</ele>
        <time>2026-01-01T08:12:19Z</time>
      </trkpt>
      <trkpt lat="42.088892" lon="-2.827889">
        <ele>1207.0</ele>
        <time>2026-01-01T08:13:02Z</time>
      </trkpt>
      <trkpt lat="42.088517" lon="-2.827525">
        <ele>1205.7</ele>
        <time>2026-01-01T08:13:39Z</time>
      </trkpt>
      <trkpt lat="42.088022" lon="-2.827242">
        <ele>1209.7</ele>
        <time>2026-01-01T08:14:50Z</time>
      </trkpt>
      <trkpt lat="42.087603" lon="-2.826998">
        <ele>1210.0</ele>
        <time>2026-01-01T08:15:51Z</time>
      </trkpt>
      <trkpt lat="42.087318" lon="-2.826856">
        <ele>1210.0</ele>
        <time>2026-01-01T08:16:32Z</time>
      </trkpt>
      <trkpt lat="42.087196" lon="-2.826732">
        <ele>1211.8</ele>
        <time>2026-01-01T08:16:52Z</time>
      </trkpt>
      <trkpt lat="42.086943" lon="-2.826763">
        <ele>1214.5</ele>
        <time>2026-01-01T08:17:26Z</time>
      </trkpt>
      <trkpt lat="42.086660" lon="-2.827083">
        <ele>1216.7</ele>
        <time>2026-01-01T08:18:15Z</time>
      </trkpt>
      <trkpt lat="42.086369" lon="-2.827413">
        <ele>1217.9</ele>
        <time>2026-01-01T08:19:06Z</time>
      </trkpt>
      <trkpt lat="42.086039" lon="-2.827454">
        <ele>1220.3</ele>
        <time>2026-01-01T08:19:50Z</time>
      </trkpt>
      <trkpt lat="42.085741" lon="-2.827330">
        <ele>1220.5</ele>
        <time>2026-01-01T08:20:32Z</time>
      </trkpt>
      <trkpt lat="42.085603" lon="-2.827196">
        <ele>1222.5</ele>
        <time>2026-01-01T08:20:55Z</time>
      </trkpt>
      <trkpt lat="42.085358" lon="-2.827237">
        <ele>1221.0</ele>
        <time>2026-01-01T08:21:14Z</time>
      </trkpt>
      <trkpt lat="42.085220" lon="-2.827340">
        <ele>1221.5</ele>
        <time>2026-01-01T08:21:35Z</time>
      </trkpt>
      <trkpt lat="42.085182" lon="-2.827525">
        <ele>1223.2</ele>
        <time>2026-01-01T08:21:54Z</time>
      </trkpt>
      <trkpt lat="42.085236" lon="-2.827876">
        <ele>1226.1</ele>
        <time>2026-01-01T08:22:30Z</time>
      </trkpt>
      <trkpt lat="42.085305" lon="-2.828289">
        <ele>1229.8</ele>
        <time>2026-01-01T08:23:12Z</time>
      </trkpt>
      <trkpt lat="42.085336" lon="-2.828651">
        <ele>1231.6</ele>
        <time>2026-01-01T08:23:48Z</time>
      </trkpt>
      <trkpt lat="42.085252" lon="-2.828939">
        <ele>1230.6</ele>
        <time>2026-01-01T08:24:06Z</time>
      </trkpt>
      <trkpt lat="42.085076" lon="-2.829043">
        <ele>1232.2</ele>
        <time>2026-01-01T08:24:32Z</time>
      </trkpt>
      <trkpt lat="42.084808" lon="-2.829032">
        <ele>1235.1</ele>
        <time>2026-01-01T08:25:08Z</time>
      </trkpt>
      <trkpt lat="42.084509" lon="-2.829032">
        <ele>1236.3</ele>
        <time>2026-01-01T08:25:48Z</time>
      </trkpt>
      <trkpt lat="42.084210" lon="-2.829083">
        <ele>1238.4</ele>
        <time>2026-01-01T08:26:28Z</time>
      </trkpt>
      <trkpt lat="42.083989" lon="-2.829156">
        <ele>1240.1</ele>
        <time>2026-01-01T08:26:58Z</time>
      </trkpt>
      <trkpt lat="42.083652" lon="-2.829063">
        <ele>1242.3</ele>
        <time>2026-01-01T08:27:44Z</time>
      </trkpt>
      <trkpt lat="42.083299" lon="-2.828866">
        <ele>1243.3</ele>
        <time>2026-01-01T08:28:35Z</time>
      </trkpt>
      <trkpt lat="42.083054" lon="-2.828856">
        <ele>1245.9</ele>
        <time>2026-01-01T08:29:08Z</time>
      </trkpt>
      <trkpt lat="42.082802" lon="-2.828938">
        <ele>1248.7</ele>
        <time>2026-01-01T08:29:42Z</time>
      </trkpt>
      <trkpt lat="42.082580" lon="-2.829186">
        <ele>1249.7</ele>
        <time>2026-01-01T08:30:21Z</time>
      </trkpt>
      <trkpt lat="42.082304" lon="-2.829733">
        <ele>1251.4</ele>
        <time>2026-01-01T08:31:26Z</time>
      </trkpt>
      <trkpt lat="42.081890" lon="-2.830301">
        <ele>1256.1</ele>
        <time>2026-01-01T08:32:45Z</time>
      </trkpt>
      <trkpt lat="42.081707" lon="-2.830611">
        <ele>1262.4</ele>
        <time>2026-01-01T08:33:24Z</time>
      </trkpt>
      <trkpt lat="42.081737" lon="-2.830941">
        <ele>1258.6</ele>
        <time>2026-01-01T08:33:44Z</time>
      </trkpt>
      <trkpt lat="42.081753" lon="-2.831344">
        <ele>1259.0</ele>
        <time>2026-01-01T08:34:24Z</time>
      </trkpt>
      <trkpt lat="42.081615" lon="-2.831736">
        <ele>1263.2</ele>
        <time>2026-01-01T08:35:07Z</time>
      </trkpt>
      <trkpt lat="42.081439" lon="-2.831932">
        <ele>1264.8</ele>
        <time>2026-01-01T08:35:38Z</time>
      </trkpt>
      <trkpt lat="42.081202" lon="-2.832014">
        <ele>1268.9</ele>
        <time>2026-01-01T08:36:10Z</time>
      </trkpt>
      <trkpt lat="42.080880" lon="-2.832159">
        <ele>1269.8</ele>
        <time>2026-01-01T08:36:56Z</time>
      </trkpt>
      <trkpt lat="42.080574" lon="-2.832396">
        <ele>1273.7</ele>
        <time>2026-01-01T08:37:43Z</time>
      </trkpt>
      <trkpt lat="42.080336" lon="-2.832551">
        <ele>1274.2</ele>
        <time>2026-01-01T08:38:18Z</time>
      </trkpt>
      <trkpt lat="42.080061" lon="-2.832582">
        <ele>1276.7</ele>
        <time>2026-01-01T08:38:55Z</time>
      </trkpt>
      <trkpt lat="42.079838" lon="-2.832747">
        <ele>1279.7</ele>
        <time>2026-01-01T08:39:29Z</time>
      </trkpt>
      <trkpt lat="42.079617" lon="-2.833036">
        <ele>1287.2</ele>
        <time>2026-01-01T08:40:10Z</time>
      </trkpt>
      <trkpt lat="42.079540" lon="-2.833273">
        <ele>1289.9</ele>
        <time>2026-01-01T08:40:35Z</time>
      </trkpt>
      <trkpt lat="42.079540" lon="-2.833583">
        <ele>1291.7</ele>
        <time>2026-01-01T08:41:06Z</time>
      </trkpt>
      <trkpt lat="42.079571" lon="-2.833944">
        <ele>1292.6</ele>
        <time>2026-01-01T08:41:42Z</time>
      </trkpt>
      <trkpt lat="42.079433" lon="-2.833913">
        <ele>1299.2</ele>
        <time>2026-01-01T08:42:01Z</time>
      </trkpt>
      <trkpt lat="42.079357" lon="-2.833613">
        <ele>1299.8</ele>
        <time>2026-01-01T08:42:32Z</time>
      </trkpt>
      <trkpt lat="42.079135" lon="-2.833221">
        <ele>1298.8</ele>
        <time>2026-01-01T08:43:01Z</time>
      </trkpt>
      <trkpt lat="42.078821" lon="-2.832870">
        <ele>1299.9</ele>
        <time>2026-01-01T08:43:56Z</time>
      </trkpt>
      <trkpt lat="42.078507" lon="-2.832384">
        <ele>1301.6</ele>
        <time>2026-01-01T08:45:00Z</time>
      </trkpt>
      <trkpt lat="42.078185" lon="-2.832095">
        <ele>1304.5</ele>
        <time>2026-01-01T08:45:51Z</time>
      </trkpt>
      <trkpt lat="42.077779" lon="-2.831971">
        <ele>1307.4</ele>
        <time>2026-01-01T08:46:47Z</time>
      </trkpt>
      <trkpt lat="42.077350" lon="-2.831992">
        <ele>1314.9</ele>
        <time>2026-01-01T08:47:44Z</time>
      </trkpt>
      <trkpt lat="42.076929" lon="-2.831919">
        <ele>1313.2</ele>
        <time>2026-01-01T08:48:18Z</time>
      </trkpt>
      <trkpt lat="42.076645" lon="-2.831867">
        <ele>1317.3</ele>
        <time>2026-01-01T08:48:56Z</time>
      </trkpt>
      <trkpt lat="42.076439" lon="-2.832033">
        <ele>1319.8</ele>
        <time>2026-01-01T08:49:28Z</time>
      </trkpt>
      <trkpt lat="42.076086" lon="-2.832445">
        <ele>1320.8</ele>
        <time>2026-01-01T08:50:31Z</time>
      </trkpt>
      <trkpt lat="42.075841" lon="-2.832817">
        <ele>1324.0</ele>
        <time>2026-01-01T08:51:20Z</time>
      </trkpt>
      <trkpt lat="42.075634" lon="-2.833013">
        <ele>1325.4</ele>
        <time>2026-01-01T08:51:54Z</time>
      </trkpt>
      <trkpt lat="42.075282" lon="-2.832817">
        <ele>1325.9</ele>
        <time>2026-01-01T08:52:45Z</time>
      </trkpt>
      <trkpt lat="42.074876" lon="-2.832393">
        <ele>1328.8</ele>
        <time>2026-01-01T08:53:53Z</time>
      </trkpt>
      <trkpt lat="42.074462" lon="-2.832094">
        <ele>1331.7</ele>
        <time>2026-01-01T08:54:56Z</time>
      </trkpt>
      <trkpt lat="42.074064" lon="-2.831846">
        <ele>1337.1</ele>
        <time>2026-01-01T08:55:54Z</time>
      </trkpt>
      <trkpt lat="42.073842" lon="-2.831670">
        <ele>1338.2</ele>
        <time>2026-01-01T08:56:29Z</time>
      </trkpt>
      <trkpt lat="42.073712" lon="-2.831164">
        <ele>1343.9</ele>
        <time>2026-01-01T08:57:22Z</time>
      </trkpt>
      <trkpt lat="42.073558" lon="-2.830782">
        <ele>1346.7</ele>
        <time>2026-01-01T08:58:05Z</time>
      </trkpt>
      <trkpt lat="42.073398" lon="-2.830389">
        <ele>1350.3</ele>
        <time>2026-01-01T08:58:49Z</time>
      </trkpt>
      <trkpt lat="42.073260" lon="-2.830100">
        <ele>1353.1</ele>
        <time>2026-01-01T08:59:23Z</time>
      </trkpt>
      <trkpt lat="42.072992" lon="-2.829966">
        <ele>1356.9</ele>
        <time>2026-01-01T09:00:01Z</time>
      </trkpt>
      <trkpt lat="42.072793" lon="-2.829852">
        <ele>1360.2</ele>
        <time>2026-01-01T09:00:30Z</time>
      </trkpt>
      <trkpt lat="42.072571" lon="-2.829883">
        <ele>1357.3</ele>
        <time>2026-01-01T09:00:48Z</time>
      </trkpt>
      <trkpt lat="42.072341" lon="-2.829780">
        <ele>1360.9</ele>
        <time>2026-01-01T09:01:20Z</time>
      </trkpt>
      <trkpt lat="42.072073" lon="-2.829666">
        <ele>1367.7</ele>
        <time>2026-01-01T09:01:58Z</time>
      </trkpt>
      <trkpt lat="42.071812" lon="-2.829769">
        <ele>1364.2</ele>
        <time>2026-01-01T09:02:20Z</time>
      </trkpt>
      <trkpt lat="42.071590" lon="-2.829821">
        <ele>1363.1</ele>
        <time>2026-01-01T09:02:38Z</time>
      </trkpt>
      <trkpt lat="42.071353" lon="-2.829686">
        <ele>1365.3</ele>
        <time>2026-01-01T09:03:12Z</time>
      </trkpt>
      <trkpt lat="42.071092" lon="-2.829583">
        <ele>1365.4</ele>
        <time>2026-01-01T09:03:48Z</time>
      </trkpt>
      <trkpt lat="42.070840" lon="-2.829511">
        <ele>1367.7</ele>
        <time>2026-01-01T09:04:23Z</time>
      </trkpt>
      <trkpt lat="42.070625" lon="-2.829304">
        <ele>1365.6</ele>
        <time>2026-01-01T09:04:44Z</time>
      </trkpt>
      <trkpt lat="42.070602" lon="-2.828922">
        <ele>1364.9</ele>
        <time>2026-01-01T09:05:07Z</time>
      </trkpt>
      <trkpt lat="42.070541" lon="-2.828560">
        <ele>1366.9</ele>
        <time>2026-01-01T09:05:43Z</time>
      </trkpt>
      <trkpt lat="42.070365" lon="-2.828416">
        <ele>1364.9</ele>
        <time>2026-01-01T09:06:00Z</time>
      </trkpt>
      <trkpt lat="42.070166" lon="-2.828374">
        <ele>1365.9</ele>
        <time>2026-01-01T09:06:27Z</time>
      </trkpt>
      <trkpt lat="42.069998" lon="-2.828508">
        <ele>1367.4</ele>
        <time>2026-01-01T09:06:53Z</time>
      </trkpt>
      <trkpt lat="42.069806" lon="-2.828591">
        <ele>1367.9</ele>
        <time>2026-01-01T09:07:20Z</time>
      </trkpt>
      <trkpt lat="42.069538" lon="-2.828570">
        <ele>1373.1</ele>
        <time>2026-01-01T09:07:56Z</time>
      </trkpt>
      <trkpt lat="42.069247" lon="-2.828601">
        <ele>1372.8</ele>
        <time>2026-01-01T09:08:19Z</time>
      </trkpt>
      <trkpt lat="42.068948" lon="-2.828694">
        <ele>1374.0</ele>
        <time>2026-01-01T09:09:00Z</time>
      </trkpt>
      <trkpt lat="42.068642" lon="-2.828673">
        <ele>1377.9</ele>
        <time>2026-01-01T09:09:41Z</time>
      </trkpt>
      <trkpt lat="42.068435" lon="-2.828590">
        <ele>1380.1</ele>
        <time>2026-01-01T09:10:10Z</time>
      </trkpt>
      <trkpt lat="42.068336" lon="-2.828270">
        <ele>1381.6</ele>
        <time>2026-01-01T09:10:44Z</time>
      </trkpt>
      <trkpt lat="42.068206" lon="-2.827949">
        <ele>1381.1</ele>
        <time>2026-01-01T09:11:06Z</time>
      </trkpt>
      <trkpt lat="42.068045" lon="-2.827609">
        <ele>1379.9</ele>
        <time>2026-01-01T09:11:30Z</time>
      </trkpt>
      <trkpt lat="42.067984" lon="-2.827402">
        <ele>1379.7</ele>
        <time>2026-01-01T09:11:43Z</time>
      </trkpt>
      <trkpt lat="42.067976" lon="-2.827102">
        <ele>1383.0</ele>
        <time>2026-01-01T09:12:13Z</time>
      </trkpt>
      <trkpt lat="42.067930" lon="-2.826896">
        <ele>1384.6</ele>
        <time>2026-01-01T09:12:34Z</time>
      </trkpt>
      <trkpt lat="42.067716" lon="-2.826710">
        <ele>1381.5</ele>
        <time>2026-01-01T09:12:54Z</time>
      </trkpt>
      <trkpt lat="42.067470" lon="-2.826514">
        <ele>1381.9</ele>
        <time>2026-01-01T09:13:32Z</time>
      </trkpt>
      <trkpt lat="42.067202" lon="-2.826317">
        <ele>1382.4</ele>
        <time>2026-01-01T09:14:13Z</time>
      </trkpt>
      <trkpt lat="42.067011" lon="-2.826069">
        <ele>1383.4</ele>
        <time>2026-01-01T09:14:49Z</time>
      </trkpt>
      <trkpt lat="42.066866" lon="-2.825842">
        <ele>1385.9</ele>
        <time>2026-01-01T09:15:18Z</time>
      </trkpt>
      <trkpt lat="42.066644" lon="-2.825677">
        <ele>1383.0</ele>
        <time>2026-01-01T09:15:39Z</time>
      </trkpt>
      <trkpt lat="42.066498" lon="-2.825522">
        <ele>1380.2</ele>
        <time>2026-01-01T09:15:53Z</time>
      </trkpt>
      <trkpt lat="42.066483" lon="-2.825222">
        <ele>1380.3</ele>
        <time>2026-01-01T09:16:23Z</time>
      </trkpt>
      <trkpt lat="42.066353" lon="-2.824995">
        <ele>1381.3</ele>
        <time>2026-01-01T09:16:52Z</time>
      </trkpt>
      <trkpt lat="42.066154" lon="-2.825026">
        <ele>1384.0</ele>
        <time>2026-01-01T09:17:18Z</time>
      </trkpt>
      <trkpt lat="42.066085" lon="-2.825325">
        <ele>1385.8</ele>
        <time>2026-01-01T09:17:49Z</time>
      </trkpt>
      <trkpt lat="42.066009" lon="-2.825583">
        <ele>1385.1</ele>
        <time>2026-01-01T09:18:06Z</time>
      </trkpt>
      <trkpt lat="42.065817" lon="-2.825800">
        <ele>1388.1</ele>
        <time>2026-01-01T09:18:39Z</time>
      </trkpt>
      <trkpt lat="42.065542" lon="-2.826058">
        <ele>1390.4</ele>
        <time>2026-01-01T09:19:24Z</time>
      </trkpt>
      <trkpt lat="42.065343" lon="-2.826357">
        <ele>1390.5</ele>
        <time>2026-01-01T09:20:04Z</time>
      </trkpt>
      <trkpt lat="42.065159" lon="-2.826481">
        <ele>1391.6</ele>
        <time>2026-01-01T09:20:31Z</time>
      </trkpt>
      <trkpt lat="42.064914" lon="-2.826615">
        <ele>1395.5</ele>
        <time>2026-01-01T09:21:06Z</time>
      </trkpt>
      <trkpt lat="42.064615" lon="-2.826749">
        <ele>1395.9</ele>
        <time>2026-01-01T09:21:49Z</time>
      </trkpt>
      <trkpt lat="42.064293" lon="-2.826904">
        <ele>1396.8</ele>
        <time>2026-01-01T09:22:34Z</time>
      </trkpt>
      <trkpt lat="42.063956" lon="-2.827090">
        <ele>1397.2</ele>
        <time>2026-01-01T09:23:23Z</time>
      </trkpt>
      <trkpt lat="42.063703" lon="-2.827379">
        <ele>1399.9</ele>
        <time>2026-01-01T09:24:07Z</time>
      </trkpt>
      <trkpt lat="42.063512" lon="-2.827843">
        <ele>1401.9</ele>
        <time>2026-01-01T09:25:00Z</time>
      </trkpt>
      <trkpt lat="42.063328" lon="-2.828380">
        <ele>1403.2</ele>
        <time>2026-01-01T09:25:58Z</time>
      </trkpt>
      <trkpt lat="42.063129" lon="-2.828649">
        <ele>1405.9</ele>
        <time>2026-01-01T09:26:36Z</time>
      </trkpt>
      <trkpt lat="42.062861" lon="-2.828865">
        <ele>1408.4</ele>
        <time>2026-01-01T09:27:17Z</time>
      </trkpt>
      <trkpt lat="42.062578" lon="-2.828979">
        <ele>1407.3</ele>
        <time>2026-01-01T09:27:41Z</time>
      </trkpt>
      <trkpt lat="42.062187" lon="-2.828679">
        <ele>1407.8</ele>
        <time>2026-01-01T09:28:41Z</time>
      </trkpt>
      <trkpt lat="42.061788" lon="-2.828658">
        <ele>1409.1</ele>
        <time>2026-01-01T09:29:34Z</time>
      </trkpt>
      <trkpt lat="42.061528" lon="-2.828669">
        <ele>1410.7</ele>
        <time>2026-01-01T09:30:09Z</time>
      </trkpt>
      <trkpt lat="42.061268" lon="-2.828968">
        <ele>1415.0</ele>
        <time>2026-01-01T09:30:55Z</time>
      </trkpt>
      <trkpt lat="42.061000" lon="-2.829298">
        <ele>1415.2</ele>
        <time>2026-01-01T09:31:43Z</time>
      </trkpt>
      <trkpt lat="42.060655" lon="-2.829236">
        <ele>1415.9</ele>
        <time>2026-01-01T09:32:30Z</time>
      </trkpt>
      <trkpt lat="42.060333" lon="-2.829226">
        <ele>1417.0</ele>
        <time>2026-01-01T09:33:13Z</time>
      </trkpt>
      <trkpt lat="42.060080" lon="-2.829453">
        <ele>1420.1</ele>
        <time>2026-01-01T09:33:53Z</time>
      </trkpt>
      <trkpt lat="42.059812" lon="-2.829701">
        <ele>1425.7</ele>
        <time>2026-01-01T09:34:37Z</time>
      </trkpt>
      <trkpt lat="42.059490" lon="-2.829763">
        <ele>1426.7</ele>
        <time>2026-01-01T09:35:20Z</time>
      </trkpt>
      <trkpt lat="42.059123" lon="-2.829701">
        <ele>1427.2</ele>
        <time>2026-01-01T09:36:09Z</time>
      </trkpt>
      <trkpt lat="42.058724" lon="-2.829546">
        <ele>1427.7</ele>
        <time>2026-01-01T09:37:05Z</time>
      </trkpt>
      <trkpt lat="42.058556" lon="-2.829391">
        <ele>1430.2</ele>
        <time>2026-01-01T09:37:32Z</time>
      </trkpt>
      <trkpt lat="42.058265" lon="-2.829267">
        <ele>1430.6</ele>
        <time>2026-01-01T09:38:13Z</time>
      </trkpt>
      <trkpt lat="42.057958" lon="-2.829122">
        <ele>1432.5</ele>
        <time>2026-01-01T09:38:56Z</time>
      </trkpt>
      <trkpt lat="42.057698" lon="-2.828740">
        <ele>1435.9</ele>
        <time>2026-01-01T09:39:47Z</time>
      </trkpt>
      <trkpt lat="42.057376" lon="-2.828482">
        <ele>1438.1</ele>
        <time>2026-01-01T09:40:37Z</time>
      </trkpt>
      <trkpt lat="42.057039" lon="-2.828492">
        <ele>1441.2</ele>
        <time>2026-01-01T09:41:22Z</time>
      </trkpt>
      <trkpt lat="42.056801" lon="-2.828730">
        <ele>1444.9</ele>
        <time>2026-01-01T09:42:02Z</time>
      </trkpt>
      <trkpt lat="42.056641" lon="-2.828988">
        <ele>1447.8</ele>
        <time>2026-01-01T09:42:35Z</time>
      </trkpt>
      <trkpt lat="42.056472" lon="-2.829256">
        <ele>1450.5</ele>
        <time>2026-01-01T09:43:10Z</time>
      </trkpt>
      <trkpt lat="42.056358" lon="-2.829576">
        <ele>1452.3</ele>
        <time>2026-01-01T09:43:45Z</time>
      </trkpt>
      <trkpt lat="42.056212" lon="-2.829855">
        <ele>1453.4</ele>
        <time>2026-01-01T09:44:19Z</time>
      </trkpt>
      <trkpt lat="42.056205" lon="-2.830329">
        <ele>1455.9</ele>
        <time>2026-01-01T09:45:06Z</time>
      </trkpt>
      <trkpt lat="42.056205" lon="-2.830784">
        <ele>1459.0</ele>
        <time>2026-01-01T09:45:51Z</time>
      </trkpt>
      <trkpt lat="42.056075" lon="-2.831145">
        <ele>1465.4</ele>
        <time>2026-01-01T09:46:31Z</time>
      </trkpt>
      <trkpt lat="42.055868" lon="-2.831517">
        <ele>1470.2</ele>
        <time>2026-01-01T09:47:17Z</time>
      </trkpt>
      <trkpt lat="42.055577" lon="-2.831909">
        <ele>1471.6</ele>
        <time>2026-01-01T09:48:12Z</time>
      </trkpt>
      <trkpt lat="42.055209" lon="-2.832219">
        <ele>1474.9</ele>
        <time>2026-01-01T09:49:10Z</time>
      </trkpt>
      <trkpt lat="42.054857" lon="-2.832539">
        <ele>1480.3</ele>
        <time>2026-01-01T09:50:06Z</time>
      </trkpt>
      <trkpt lat="42.054489" lon="-2.832879">
        <ele>1487.6</ele>
        <time>2026-01-01T09:51:06Z</time>
      </trkpt>
      <trkpt lat="42.054045" lon="-2.833220">
        <ele>1490.3</ele>
        <time>2026-01-01T09:52:14Z</time>
      </trkpt>
      <trkpt lat="42.053569" lon="-2.833354">
        <ele>1497.4</ele>
        <time>2026-01-01T09:53:19Z</time>
      </trkpt>
      <trkpt lat="42.053156" lon="-2.833354">
        <ele>1501.0</ele>
        <time>2026-01-01T09:54:14Z</time>
      </trkpt>
      <trkpt lat="42.052888" lon="-2.833250">
        <ele>1503.0</ele>
        <time>2026-01-01T09:54:51Z</time>
      </trkpt>
      <trkpt lat="42.052535" lon="-2.833044">
        <ele>1506.0</ele>
        <time>2026-01-01T09:55:43Z</time>
      </trkpt>
      <trkpt lat="42.052137" lon="-2.832755">
        <ele>1510.1</ele>
        <time>2026-01-01T09:56:43Z</time>
      </trkpt>
      <trkpt lat="42.051746" lon="-2.832455">
        <ele>1515.4</ele>
        <time>2026-01-01T09:57:43Z</time>
      </trkpt>
      <trkpt lat="42.051508" lon="-2.832125">
        <ele>1516.6</ele>
        <time>2026-01-01T09:58:29Z</time>
      </trkpt>
      <trkpt lat="42.051302" lon="-2.831732">
        <ele>1534.8</ele>
        <time>2026-01-01T09:59:16Z</time>
      </trkpt>
      <trkpt lat="42.051164" lon="-2.831299">
        <ele>1548.1</ele>
        <time>2026-01-01T10:00:03Z</time>
      </trkpt>
      <trkpt lat="42.051340" lon="-2.830896">
        <ele>1556.5</ele>
        <time>2026-01-01T10:00:49Z</time>
      </trkpt>
      <trkpt lat="42.051793" lon="-2.830927">
        <ele>1561.4</ele>
        <time>2026-01-01T10:01:50Z</time>
      </trkpt>
      <trkpt lat="42.051340" lon="-2.830896">
        <ele>1556.5</ele>
        <time>2026-01-01T10:02:26Z</time>
      </trkpt>
      <trkpt lat="42.051164" lon="-2.831299">
        <ele>1548.1</ele>
        <time>2026-01-01T10:02:54Z</time>
      </trkpt>
      <trkpt lat="42.051302" lon="-2.831732">
        <ele>1534.8</ele>
        <time>2026-01-01T10:03:22Z</time>
      </trkpt>
      <trkpt lat="42.051508" lon="-2.832125">
        <ele>1516.6</ele>
        <time>2026-01-01T10:03:51Z</time>
      </trkpt>
      <trkpt lat="42.051746" lon="-2.832455">
        <ele>1515.4</ele>
        <time>2026-01-01T10:04:18Z</time>
      </trkpt>
      <trkpt lat="42.052137" lon="-2.832755">
        <ele>1510.1</ele>
        <time>2026-01-01T10:04:54Z</time>
      </trkpt>
      <trkpt lat="42.052535" lon="-2.833044">
        <ele>1506.0</ele>
        <time>2026-01-01T10:05:30Z</time>
      </trkpt>
      <trkpt lat="42.052888" lon="-2.833250">
        <ele>1503.0</ele>
        <time>2026-01-01T10:06:01Z</time>
      </trkpt>
      <trkpt lat="42.053156" lon="-2.833354">
        <ele>1501.0</ele>
        <time>2026-01-01T10:06:23Z</time>
      </trkpt>
      <trkpt lat="42.053569" lon="-2.833354">
        <ele>1497.4</ele>
        <time>2026-01-01T10:06:56Z</time>
      </trkpt>
      <trkpt lat="42.054045" lon="-2.833220">
        <ele>1490.3</ele>
        <time>2026-01-01T10:07:35Z</time>
      </trkpt>
      <trkpt lat="42.054489" lon="-2.832879">
        <ele>1487.6</ele>
        <time>2026-01-01T10:08:16Z</time>
      </trkpt>
      <trkpt lat="42.054857" lon="-2.832539">
        <ele>1480.3</ele>
        <time>2026-01-01T10:08:52Z</time>
      </trkpt>
      <trkpt lat="42.055209" lon="-2.832219">
        <ele>1474.9</ele>
        <time>2026-01-01T10:09:26Z</time>
      </trkpt>
      <trkpt lat="42.055577" lon="-2.831909">
        <ele>1471.6</ele>
        <time>2026-01-01T10:10:01Z</time>
      </trkpt>
      <trkpt lat="42.055868" lon="-2.831517">
        <ele>1470.2</ele>
        <time>2026-01-01T10:10:34Z</time>
      </trkpt>
      <trkpt lat="42.056075" lon="-2.831145">
        <ele>1465.4</ele>
        <time>2026-01-01T10:11:01Z</time>
      </trkpt>
      <trkpt lat="42.056205" lon="-2.830784">
        <ele>1459.0</ele>
        <time>2026-01-01T10:11:25Z</time>
      </trkpt>
      <trkpt lat="42.056205" lon="-2.830329">
        <ele>1455.9</ele>
        <time>2026-01-01T10:11:52Z</time>
      </trkpt>
      <trkpt lat="42.056212" lon="-2.829855">
        <ele>1453.4</ele>
        <time>2026-01-01T10:12:20Z</time>
      </trkpt>
      <trkpt lat="42.056358" lon="-2.829576">
        <ele>1452.3</ele>
        <time>2026-01-01T10:12:41Z</time>
      </trkpt>
      <trkpt lat="42.056472" lon="-2.829256">
        <ele>1450.5</ele>
        <time>2026-01-01T10:13:02Z</time>
      </trkpt>
      <trkpt lat="42.056641" lon="-2.828988">
        <ele>1447.8</ele>
        <time>2026-01-01T10:13:23Z</time>
      </trkpt>
      <trkpt lat="42.056801" lon="-2.828730">
        <ele>1444.9</ele>
        <time>2026-01-01T10:13:43Z</time>
      </trkpt>
      <trkpt lat="42.057039" lon="-2.828492">
        <ele>1441.2</ele>
        <time>2026-01-01T10:14:06Z</time>
      </trkpt>
      <trkpt lat="42.057376" lon="-2.828482">
        <ele>1438.1</ele>
        <time>2026-01-01T10:14:33Z</time>
      </trkpt>
      <trkpt lat="42.057698" lon="-2.828740">
        <ele>1435.9</ele>
        <time>2026-01-01T10:15:03Z</time>
      </trkpt>
      <trkpt lat="42.057958" lon="-2.829122">
        <ele>1432.5</ele>
        <time>2026-01-01T10:15:34Z</time>
      </trkpt>
      <trkpt lat="42.058265" lon="-2.829267">
        <ele>1430.6</ele>
        <time>2026-01-01T10:16:00Z</time>
      </trkpt>
      <trkpt lat="42.058556" lon="-2.829391">
        <ele>1430.2</ele>
        <time>2026-01-01T10:16:25Z</time>
      </trkpt>
      <trkpt lat="42.058724" lon="-2.829546">
        <ele>1427.7</ele>
        <time>2026-01-01T10:16:41Z</time>
      </trkpt>
      <trkpt lat="42.059123" lon="-2.829701">
        <ele>1427.2</ele>
        <time>2026-01-01T10:17:14Z</time>
      </trkpt>
      <trkpt lat="42.059490" lon="-2.829763">
        <ele>1426.7</ele>
        <time>2026-01-01T10:17:44Z</time>
      </trkpt>
      <trkpt lat="42.059812" lon="-2.829701">
        <ele>1425.7</ele>
        <time>2026-01-01T10:18:10Z</time>
      </trkpt>
      <trkpt lat="42.060080" lon="-2.829453">
        <ele>1420.1</ele>
        <time>2026-01-01T10:18:36Z</time>
      </trkpt>
      <trkpt lat="42.060333" lon="-2.829226">
        <ele>1417.0</ele>
        <time>2026-01-01T10:19:00Z</time>
      </trkpt>
      <trkpt lat="42.060655" lon="-2.829236">
        <ele>1415.9</ele>
        <time>2026-01-01T10:19:26Z</time>
      </trkpt>
      <trkpt lat="42.061000" lon="-2.829298">
        <ele>1415.2</ele>
        <time>2026-01-01T10:19:54Z</time>
      </trkpt>
      <trkpt lat="42.061268" lon="-2.828968">
        <ele>1415.0</ele>
        <time>2026-01-01T10:20:23Z</time>
      </trkpt>
      <trkpt lat="42.061528" lon="-2.828669">
        <ele>1410.7</ele>
        <time>2026-01-01T10:20:50Z</time>
      </trkpt>
      <trkpt lat="42.061788" lon="-2.828658">
        <ele>1409.1</ele>
        <time>2026-01-01T10:21:11Z</time>
      </trkpt>
      <trkpt lat="42.062187" lon="-2.828679">
        <ele>1407.8</ele>
        <time>2026-01-01T10:21:43Z</time>
      </trkpt>
      <trkpt lat="42.062578" lon="-2.828979">
        <ele>1407.3</ele>
        <time>2026-01-01T10:22:19Z</time>
      </trkpt>
      <trkpt lat="42.062861" lon="-2.828865">
        <ele>1408.4</ele>
        <time>2026-01-01T10:22:59Z</time>
      </trkpt>
      <trkpt lat="42.063129" lon="-2.828649">
        <ele>1405.9</ele>
        <time>2026-01-01T10:23:24Z</time>
      </trkpt>
      <trkpt lat="42.063328" lon="-2.828380">
        <ele>1403.2</ele>
        <time>2026-01-01T10:23:46Z</time>
      </trkpt>
      <trkpt lat="42.063512" lon="-2.827843">
        <ele>1401.9</ele>
        <time>2026-01-01T10:24:21Z</time>
      </trkpt>
      <trkpt lat="42.063703" lon="-2.827379">
        <ele>1399.9</ele>
        <time>2026-01-01T10:24:53Z</time>
      </trkpt>
      <trkpt lat="42.063956" lon="-2.827090">
        <ele>1397.2</ele>
        <time>2026-01-01T10:25:19Z</time>
      </trkpt>
      <trkpt lat="42.064293" lon="-2.826904">
        <ele>1396.8</ele>
        <time>2026-01-01T10:25:48Z</time>
      </trkpt>
      <trkpt lat="42.064615" lon="-2.826749">
        <ele>1395.9</ele>
        <time>2026-01-01T10:26:16Z</time>
      </trkpt>
      <trkpt lat="42.064914" lon="-2.826615">
        <ele>1395.5</ele>
        <time>2026-01-01T10:26:41Z</time>
      </trkpt>
      <trkpt lat="42.065159" lon="-2.826481">
        <ele>1391.6</ele>
        <time>2026-01-01T10:27:02Z</time>
      </trkpt>
      <trkpt lat="42.065343" lon="-2.826357">
        <ele>1390.5</ele>
        <time>2026-01-01T10:27:19Z</time>
      </trkpt>
      <trkpt lat="42.065542" lon="-2.826058">
        <ele>1390.4</ele>
        <time>2026-01-01T10:27:43Z</time>
      </trkpt>
      <trkpt lat="42.065817" lon="-2.825800">
        <ele>1388.1</ele>
        <time>2026-01-01T10:28:09Z</time>
      </trkpt>
      <trkpt lat="42.066009" lon="-2.825583">
        <ele>1385.1</ele>
        <time>2026-01-01T10:28:30Z</time>
      </trkpt>
      <trkpt lat="42.066085" lon="-2.825325">
        <ele>1385.8</ele>
        <time>2026-01-01T10:28:57Z</time>
      </trkpt>
      <trkpt lat="42.066154" lon="-2.825026">
        <ele>1384.0</ele>
        <time>2026-01-01T10:29:16Z</time>
      </trkpt>
      <trkpt lat="42.066353" lon="-2.824995">
        <ele>1381.3</ele>
        <time>2026-01-01T10:29:32Z</time>
      </trkpt>
      <trkpt lat="42.066483" lon="-2.825222">
        <ele>1380.3</ele>
        <time>2026-01-01T10:29:49Z</time>
      </trkpt>
      <trkpt lat="42.066498" lon="-2.825522">
        <ele>1380.2</ele>
        <time>2026-01-01T10:30:07Z</time>
      </trkpt>
      <trkpt lat="42.066644" lon="-2.825677">
        <ele>1383.0</ele>
        <time>2026-01-01T10:30:31Z</time>
      </trkpt>
      <trkpt lat="42.066866" lon="-2.825842">
        <ele>1385.9</ele>
        <time>2026-01-01T10:31:05Z</time>
      </trkpt>
      <trkpt lat="42.067011" lon="-2.826069">
        <ele>1383.4</ele>
        <time>2026-01-01T10:31:23Z</time>
      </trkpt>
      <trkpt lat="42.067202" lon="-2.826317">
        <ele>1382.4</ele>
        <time>2026-01-01T10:31:44Z</time>
      </trkpt>
      <trkpt lat="42.067470" lon="-2.826514">
        <ele>1381.9</ele>
        <time>2026-01-01T10:32:09Z</time>
      </trkpt>
      <trkpt lat="42.067716" lon="-2.826710">
        <ele>1381.5</ele>
        <time>2026-01-01T10:32:32Z</time>
      </trkpt>
      <trkpt lat="42.067930" lon="-2.826896">
        <ele>1384.6</ele>
        <time>2026-01-01T10:33:06Z</time>
      </trkpt>
      <trkpt lat="42.067976" lon="-2.827102">
        <ele>1383.0</ele>
        <time>2026-01-01T10:33:18Z</time>
      </trkpt>
      <trkpt lat="42.067984" lon="-2.827402">
        <ele>1379.7</ele>
        <time>2026-01-01T10:33:36Z</time>
      </trkpt>
      <trkpt lat="42.068045" lon="-2.827609">
        <ele>1379.9</ele>
        <time>2026-01-01T10:33:58Z</time>
      </trkpt>
      <trkpt lat="42.068206" lon="-2.827949">
        <ele>1381.1</ele>
        <time>2026-01-01T10:34:38Z</time>
      </trkpt>
      <trkpt lat="42.068336" lon="-2.828270">
        <ele>1381.6</ele>
        <time>2026-01-01T10:35:14Z</time>
      </trkpt>
      <trkpt lat="42.068435" lon="-2.828590">
        <ele>1380.1</ele>
        <time>2026-01-01T10:35:35Z</time>
      </trkpt>
      <trkpt lat="42.068642" lon="-2.828673">
        <ele>1377.9</ele>
        <time>2026-01-01T10:35:52Z</time>
      </trkpt>
      <trkpt lat="42.068948" lon="-2.828694">
        <ele>1374.0</ele>
        <time>2026-01-01T10:36:17Z</time>
      </trkpt>
      <trkpt lat="42.069247" lon="-2.828601">
        <ele>1372.8</ele>
        <time>2026-01-01T10:36:41Z</time>
      </trkpt>
      <trkpt lat="42.069538" lon="-2.828570">
        <ele>1373.1</ele>
        <time>2026-01-01T10:37:20Z</time>
      </trkpt>
      <trkpt lat="42.069806" lon="-2.828591">
        <ele>1367.9</ele>
        <time>2026-01-01T10:37:42Z</time>
      </trkpt>
      <trkpt lat="42.069998" lon="-2.828508">
        <ele>1367.4</ele>
        <time>2026-01-01T10:37:58Z</time>
      </trkpt>
      <trkpt lat="42.070166" lon="-2.828374">
        <ele>1365.9</ele>
        <time>2026-01-01T10:38:14Z</time>
      </trkpt>
      <trkpt lat="42.070365" lon="-2.828416">
        <ele>1364.9</ele>
        <time>2026-01-01T10:38:30Z</time>
      </trkpt>
      <trkpt lat="42.070541" lon="-2.828560">
        <ele>1366.9</ele>
        <time>2026-01-01T10:38:57Z</time>
      </trkpt>
      <trkpt lat="42.070602" lon="-2.828922">
        <ele>1364.9</ele>
        <time>2026-01-01T10:39:19Z</time>
      </trkpt>
      <trkpt lat="42.070625" lon="-2.829304">
        <ele>1365.6</ele>
        <time>2026-01-01T10:39:57Z</time>
      </trkpt>
      <trkpt lat="42.070840" lon="-2.829511">
        <ele>1367.7</ele>
        <time>2026-01-01T10:40:32Z</time>
      </trkpt>
      <trkpt lat="42.071092" lon="-2.829583">
        <ele>1365.4</ele>
        <time>2026-01-01T10:40:53Z</time>
      </trkpt>
      <trkpt lat="42.071353" lon="-2.829686">
        <ele>1365.3</ele>
        <time>2026-01-01T10:41:15Z</time>
      </trkpt>
      <trkpt lat="42.071590" lon="-2.829821">
        <ele>1363.1</ele>
        <time>2026-01-01T10:41:35Z</time>
      </trkpt>
      <trkpt lat="42.071812" lon="-2.829769">
        <ele>1364.2</ele>
        <time>2026-01-01T10:42:06Z</time>
      </trkpt>
      <trkpt lat="42.072073" lon="-2.829666">
        <ele>1367.7</ele>
        <time>2026-01-01T10:42:42Z</time>
      </trkpt>
      <trkpt lat="42.072341" lon="-2.829780">
        <ele>1360.9</ele>
        <time>2026-01-01T10:43:04Z</time>
      </trkpt>
      <trkpt lat="42.072571" lon="-2.829883">
        <ele>1357.3</ele>
        <time>2026-01-01T10:43:24Z</time>
      </trkpt>
      <trkpt lat="42.072793" lon="-2.829852">
        <ele>1360.2</ele>
        <time>2026-01-01T10:43:54Z</time>
      </trkpt>
      <trkpt lat="42.072992" lon="-2.829966">
        <ele>1356.9</ele>
        <time>2026-01-01T10:44:11Z</time>
      </trkpt>
      <trkpt lat="42.073260" lon="-2.830100">
        <ele>1353.1</ele>
        <time>2026-01-01T10:44:34Z</time>
      </trkpt>
      <trkpt lat="42.073398" lon="-2.830389">
        <ele>1350.3</ele>
        <time>2026-01-01T10:44:54Z</time>
      </trkpt>
      <trkpt lat="42.073558" lon="-2.830782">
        <ele>1346.7</ele>
        <time>2026-01-01T10:45:21Z</time>
      </trkpt>
      <trkpt lat="42.073712" lon="-2.831164">
        <ele>1343.9</ele>
        <time>2026-01-01T10:45:47Z</time>
      </trkpt>
      <trkpt lat="42.073842" lon="-2.831670">
        <ele>1338.2</ele>
        <time>2026-01-01T10:46:18Z</time>
      </trkpt>
      <trkpt lat="42.074064" lon="-2.831846">
        <ele>1337.1</ele>
        <time>2026-01-01T10:46:39Z</time>
      </trkpt>
      <trkpt lat="42.074462" lon="-2.832094">
        <ele>1331.7</ele>
        <time>2026-01-01T10:47:14Z</time>
      </trkpt>
      <trkpt lat="42.074876" lon="-2.832393">
        <ele>1328.8</ele>
        <time>2026-01-01T10:47:52Z</time>
      </trkpt>
      <trkpt lat="42.075282" lon="-2.832817">
        <ele>1325.9</ele>
        <time>2026-01-01T10:48:33Z</time>
      </trkpt>
      <trkpt lat="42.075634" lon="-2.833013">
        <ele>1325.4</ele>
        <time>2026-01-01T10:49:03Z</time>
      </trkpt>
      <trkpt lat="42.075841" lon="-2.832817">
        <ele>1324.0</ele>
        <time>2026-01-01T10:49:24Z</time>
      </trkpt>
      <trkpt lat="42.076086" lon="-2.832445">
        <ele>1320.8</ele>
        <time>2026-01-01T10:49:53Z</time>
      </trkpt>
      <trkpt lat="42.076439" lon="-2.832033">
        <ele>1319.8</ele>
        <time>2026-01-01T10:50:31Z</time>
      </trkpt>
      <trkpt lat="42.076645" lon="-2.831867">
        <ele>1317.3</ele>
        <time>2026-01-01T10:50:50Z</time>
      </trkpt>
      <trkpt lat="42.076929" lon="-2.831919">
        <ele>1313.2</ele>
        <time>2026-01-01T10:51:13Z</time>
      </trkpt>
      <trkpt lat="42.077350" lon="-2.831992">
        <ele>1314.9</ele>
        <time>2026-01-01T10:52:09Z</time>
      </trkpt>
      <trkpt lat="42.077779" lon="-2.831971">
        <ele>1307.4</ele>
        <time>2026-01-01T10:52:44Z</time>
      </trkpt>
      <trkpt lat="42.078185" lon="-2.832095">
        <ele>1304.5</ele>
        <time>2026-01-01T10:53:17Z</time>
      </trkpt>
      <trkpt lat="42.078507" lon="-2.832384">
        <ele>1301.6</ele>
        <time>2026-01-01T10:53:48Z</time>
      </trkpt>
      <trkpt lat="42.078821" lon="-2.832870">
        <ele>1299.9</ele>
        <time>2026-01-01T10:54:26Z</time>
      </trkpt>
      <trkpt lat="42.079135" lon="-2.833221">
        <ele>1298.8</ele>
        <time>2026-01-01T10:54:59Z</time>
      </trkpt>
      <trkpt lat="42.079357" lon="-2.833613">
        <ele>1299.8</ele>
        <time>2026-01-01T10:55:48Z</time>
      </trkpt>
      <trkpt lat="42.079433" lon="-2.833913">
        <ele>1299.2</ele>
        <time>2026-01-01T10:56:07Z</time>
      </trkpt>
      <trkpt lat="42.079571" lon="-2.833944">
        <ele>1292.6</ele>
        <time>2026-01-01T10:56:18Z</time>
      </trkpt>
      <trkpt lat="42.079540" lon="-2.833583">
        <ele>1291.7</ele>
        <time>2026-01-01T10:56:40Z</time>
      </trkpt>
      <trkpt lat="42.079540" lon="-2.833273">
        <ele>1289.9</ele>
        <time>2026-01-01T10:56:58Z</time>
      </trkpt>
      <trkpt lat="42.079617" lon="-2.833036">
        <ele>1287.2</ele>
        <time>2026-01-01T10:57:13Z</time>
      </trkpt>
      <trkpt lat="42.079838" lon="-2.832747">
        <ele>1279.7</ele>
        <time>2026-01-01T10:57:38Z</time>
      </trkpt>
      <trkpt lat="42.080061" lon="-2.832582">
        <ele>1276.7</ele>
        <time>2026-01-01T10:57:58Z</time>
      </trkpt>
      <trkpt lat="42.080336" lon="-2.832551">
        <ele>1274.2</ele>
        <time>2026-01-01T10:58:20Z</time>
      </trkpt>
      <trkpt lat="42.080574" lon="-2.832396">
        <ele>1273.7</ele>
        <time>2026-01-01T10:58:42Z</time>
      </trkpt>
      <trkpt lat="42.080880" lon="-2.832159">
        <ele>1269.8</ele>
        <time>2026-01-01T10:59:10Z</time>
      </trkpt>
      <trkpt lat="42.081202" lon="-2.832014">
        <ele>1268.9</ele>
        <time>2026-01-01T10:59:37Z</time>
      </trkpt>
      <trkpt lat="42.081439" lon="-2.831932">
        <ele>1264.8</ele>
        <time>2026-01-01T10:59:57Z</time>
      </trkpt>
      <trkpt lat="42.081615" lon="-2.831736">
        <ele>1263.2</ele>
        <time>2026-01-01T11:00:15Z</time>
      </trkpt>
      <trkpt lat="42.081753" lon="-2.831344">
        <ele>1259.0</ele>
        <time>2026-01-01T11:00:41Z</time>
      </trkpt>
      <trkpt lat="42.081737" lon="-2.830941">
        <ele>1258.6</ele>
        <time>2026-01-01T11:01:05Z</time>
      </trkpt>
      <trkpt lat="42.081707" lon="-2.830611">
        <ele>1262.4</ele>
        <time>2026-01-01T11:01:38Z</time>
      </trkpt>
      <trkpt lat="42.081890" lon="-2.830301">
        <ele>1256.1</ele>
        <time>2026-01-01T11:02:01Z</time>
      </trkpt>
      <trkpt lat="42.082304" lon="-2.829733">
        <ele>1251.4</ele>
        <time>2026-01-01T11:02:48Z</time>
      </trkpt>
      <trkpt lat="42.082580" lon="-2.829186">
        <ele>1249.7</ele>
        <time>2026-01-01T11:03:28Z</time>
      </trkpt>
      <trkpt lat="42.082802" lon="-2.828938">
        <ele>1248.7</ele>
        <time>2026-01-01T11:03:51Z</time>
      </trkpt>
      <trkpt lat="42.083054" lon="-2.828856">
        <ele>1245.9</ele>
        <time>2026-01-01T11:04:12Z</time>
      </trkpt>
      <trkpt lat="42.083299" lon="-2.828866">
        <ele>1243.3</ele>
        <time>2026-01-01T11:04:31Z</time>
      </trkpt>
      <trkpt lat="42.083652" lon="-2.829063">
        <ele>1242.3</ele>
        <time>2026-01-01T11:05:02Z</time>
      </trkpt>
      <trkpt lat="42.083989" lon="-2.829156">
        <ele>1240.1</ele>
        <time>2026-01-01T11:05:29Z</time>
      </trkpt>
      <trkpt lat="42.084210" lon="-2.829083">
        <ele>1238.4</ele>
        <time>2026-01-01T11:05:48Z</time>
      </trkpt>
      <trkpt lat="42.084509" lon="-2.829032">
        <ele>1236.3</ele>
        <time>2026-01-01T11:06:12Z</time>
      </trkpt>
      <trkpt lat="42.084808" lon="-2.829032">
        <ele>1235.1</ele>
        <time>2026-01-01T11:06:36Z</time>
      </trkpt>
      <trkpt lat="42.085076" lon="-2.829043">
        <ele>1232.2</ele>
        <time>2026-01-01T11:06:57Z</time>
      </trkpt>
      <trkpt lat="42.085252" lon="-2.828939">
        <ele>1230.6</ele>
        <time>2026-01-01T11:07:12Z</time>
      </trkpt>
      <trkpt lat="42.085336" lon="-2.828651">
        <ele>1231.6</ele>
        <time>2026-01-01T11:07:43Z</time>
      </trkpt>
      <trkpt lat="42.085305" lon="-2.828289">
        <ele>1229.8</ele>
        <time>2026-01-01T11:08:05Z</time>
      </trkpt>
      <trkpt lat="42.085236" lon="-2.827876">
        <ele>1226.1</ele>
        <time>2026-01-01T11:08:30Z</time>
      </trkpt>
      <trkpt lat="42.085182" lon="-2.827525">
        <ele>1223.2</ele>
        <time>2026-01-01T11:08:51Z</time>
      </trkpt>
      <trkpt lat="42.085220" lon="-2.827340">
        <ele>1221.5</ele>
        <time>2026-01-01T11:09:03Z</time>
      </trkpt>
      <trkpt lat="42.085358" lon="-2.827237">
        <ele>1221.0</ele>
        <time>2026-01-01T11:09:15Z</time>
      </trkpt>
      <trkpt lat="42.085603" lon="-2.827196">
        <ele>1222.5</ele>
        <time>2026-01-01T11:09:48Z</time>
      </trkpt>
      <trkpt lat="42.085741" lon="-2.827330">
        <ele>1220.5</ele>
        <time>2026-01-01T11:10:02Z</time>
      </trkpt>
      <trkpt lat="42.086039" lon="-2.827454">
        <ele>1220.3</ele>
        <time>2026-01-01T11:10:27Z</time>
      </trkpt>
      <trkpt lat="42.086369" lon="-2.827413">
        <ele>1217.9</ele>
        <time>2026-01-01T11:10:53Z</time>
      </trkpt>
      <trkpt lat="42.086660" lon="-2.827083">
        <ele>1216.7</ele>
        <time>2026-01-01T11:11:24Z</time>
      </trkpt>
      <trkpt lat="42.086943" lon="-2.826763">
        <ele>1214.5</ele>
        <time>2026-01-01T11:11:53Z</time>
      </trkpt>
      <trkpt lat="42.087196" lon="-2.826732">
        <ele>1211.8</ele>
        <time>2026-01-01T11:12:14Z</time>
      </trkpt>
      <trkpt lat="42.087318" lon="-2.826856">
        <ele>1210.0</ele>
        <time>2026-01-01T11:12:26Z</time>
      </trkpt>
      <trkpt lat="42.087603" lon="-2.826998">
        <ele>1210.0</ele>
        <time>2026-01-01T11:13:06Z</time>
      </trkpt>
      <trkpt lat="42.088022" lon="-2.827242">
        <ele>1209.7</ele>
        <time>2026-01-01T11:13:43Z</time>
      </trkpt>
      <trkpt lat="42.088517" lon="-2.827525">
        <ele>1205.7</ele>
        <time>2026-01-01T11:14:26Z</time>
      </trkpt>
      <trkpt lat="42.088892" lon="-2.827889">
        <ele>1207.0</ele>
        <time>2026-01-01T11:15:28Z</time>
      </trkpt>
      <trkpt lat="42.089206" lon="-2.827848">
        <ele>1205.0</ele>
        <time>2026-01-01T11:15:53Z</time>
      </trkpt>
      <trkpt lat="42.089431" lon="-2.827626">
        <ele>1201.4</ele>
        <time>2026-01-01T11:16:15Z</time>
      </trkpt>
      <trkpt lat="42.089686" lon="-2.827667">
        <ele>1200.8</ele>
        <time>2026-01-01T11:16:36Z</time>
      </trkpt>
      <trkpt lat="42.090046" lon="-2.827708">
        <ele>1200.0</ele>
        <time>2026-01-01T11:17:05Z</time>
      </trkpt>
      <trkpt lat="42.090346" lon="-2.827728">
        <ele>1200.0</ele>
        <time>2026-01-01T11:17:45Z</time>
      </trkpt>
      <trkpt lat="42.090691" lon="-2.828132">
        <ele>1196.0</ele>
        <time>2026-01-01T11:18:21Z</time>
      </trkpt>
      <trkpt lat="42.091170" lon="-2.828415">
        <ele>1195.0</ele>
        <time>2026-01-01T11:19:03Z</time>
      </trkpt>
      <trkpt lat="42.091485" lon="-2.828941">
        <ele>1195.0</ele>
        <time>2026-01-01T11:20:10Z</time>
      </trkpt>
      <trkpt lat="42.091890" lon="-2.829507">
        <ele>1191.0</ele>
        <time>2026-01-01T11:20:57Z</time>
      </trkpt>
      <trkpt lat="42.092294" lon="-2.830194">
        <ele>1190.0</ele>
        <time>2026-01-01T11:21:49Z</time>
      </trkpt>
      <trkpt lat="42.092699" lon="-2.830558">
        <ele>1187.2</ele>
        <time>2026-01-01T11:22:28Z</time>
      </trkpt>
      <trkpt lat="42.092954" lon="-2.830659">
        <ele>1185.5</ele>
        <time>2026-01-01T11:22:49Z</time>
      </trkpt>
      <trkpt lat="42.093134" lon="-2.830922">
        <ele>1185.0</ele>
        <time>2026-01-01T11:23:11Z</time>
      </trkpt>
      <trkpt lat="42.094015" lon="-2.831624">
        <ele>1186.7</ele>
        <time>2026-01-01T11:25:27Z</time>
      </trkpt>
    </trkseg>
  </trk>
</gpx>
