<?xml version="1.0" encoding="UTF-8" standalone="no" ?>
<gpx xmlns="http://www.topografix.com/GPX/1/1" creator="CompeGPS" version="1.1" xmlns:xsi="http://www.w3.org/2001/XMLSchema-instance" xsi:schemaLocation="http://www.topografix.com/GPX/1/1 http://www.topografix.com/GPX/1/1/gpx.xsd">
  <metadata>
    <time>2026-01-01T08:00:00Z</time>
    <bounds maxlat="42.213707" maxlon="-2.222248" minlat="42.209479" minlon="-2.234288"/>
  </metadata>
  <trk>
    <name>alba (ida y vuelta)</name>
    <trkseg>
      <trkpt lat="42.213707" lon="-2.234122">
        <ele>668.0</ele>
        <time>2026-01-01T08:00:00Z</time>
      </trkpt>
      <trkpt lat="42.213634" lon="-2.234174">
        <ele>666.9</ele>
        <time>2026-01-01T08:00:06Z</time>
      </trkpt>
      <trkpt lat="42.213561" lon="-2.234226">
        <ele>664.6</ele>
        <time>2026-01-01T08:00:13Z</time>
      </trkpt>
      <trkpt lat="42.213496" lon="-2.234288">
        <ele>662.9</ele>
        <time>2026-01-01T08:00:19Z</time>
      </trkpt>
      <trkpt lat="42.213460" lon="-2.234275">
        <ele>659.7</ele>
        <time>2026-01-01T08:00:22Z</time>
      </trkpt>
      <trkpt lat="42.213406" lon="-2.234199">
        <ele>653.2</ele>
        <time>2026-01-01T08:00:28Z</time>
      </trkpt>
      <trkpt lat="42.213351" lon="-2.234110">
        <ele>650.4</ele>
        <time>2026-01-01T08:00:35Z</time>
      </trkpt>
      <trkpt lat="42.213304" lon="-2.234083">
        <ele>651.1</ele>
        <time>2026-01-01T08:00:42Z</time>
      </trkpt>
      <trkpt lat="42.213228" lon="-2.234097">
        <ele>653.2</ele>
        <time>2026-01-01T08:00:52Z</time>
      </trkpt>
      <trkpt lat="42.213145" lon="-2.234114">
        <ele>656.2</ele>
        <time>2026-01-01T08:01:03Z</time>
      </trkpt>
      <trkpt lat="42.213047" lon="-2.234107">
        <ele>662.0</ele>
        <time>2026-01-01T08:01:17Z</time>
      </trkpt>
      <trkpt lat="42.212957" lon="-2.234080">
        <ele>668.8</ele>
        <time>2026-01-01T08:01:29Z</time>
      </trkpt>
      <trkpt lat="42.212840" lon="-2.234049">
        <ele>671.8</ele>
        <time>2026-01-01T08:01:45Z</time>
      </trkpt>
      <trkpt lat="42.212710" lon="-2.234041">
        <ele>672.1</ele>
        <time>2026-01-01T08:02:02Z</time>
      </trkpt>
      <trkpt lat="42.212614" lon="-2.234043">
        <ele>672.6</ele>
        <time>2026-01-01T08:02:15Z</time>
      </trkpt>
      <trkpt lat="42.212534" lon="-2.234049">
        <ele>673.0</ele>
        <time>2026-01-01T08:02:26Z</time>
      </trkpt>
      <trkpt lat="42.212440" lon="-2.234055">
        <ele>673.2</ele>
        <time>2026-01-01T08:02:38Z</time>
      </trkpt>
      <trkpt lat="42.212342" lon="-2.234041">
        <ele>673.9</ele>
        <time>2026-01-01T08:02:51Z</time>
      </trkpt>
      <trkpt lat="42.212259" lon="-2.234009">
        <ele>673.4</ele>
        <time>2026-01-01T08:02:58Z</time>
      </trkpt>
      <trkpt lat="42.212225" lon="-2.233916">
        <ele>677.3</ele>
        <time>2026-01-01T08:03:08Z</time>
      </trkpt>
      <trkpt lat="42.212175" lon="-2.233829">
        <ele>679.8</ele>
        <time>2026-01-01T08:03:19Z</time>
      </trkpt>
      <trkpt lat="42.212101" lon="-2.233757">
        <ele>680.4</ele>
        <time>2026-01-01T08:03:32Z</time>
      </trkpt>
      <trkpt lat="42.212010" lon="-2.233707">
        <ele>677.5</ele>
        <time>2026-01-01T08:03:39Z</time>
      </trkpt>
      <trkpt lat="42.211949" lon="-2.233643">
        <ele>676.5</ele>
        <time>2026-01-01T08:03:46Z</time>
      </trkpt>
      <trkpt lat="42.211904" lon="-2.233533">
        <ele>679.2</ele>
        <time>2026-01-01T08:03:58Z</time>
      </trkpt>
      <trkpt lat="42.211848" lon="-2.233415">
        <ele>683.6</ele>
        <time>2026-01-01T08:04:12Z</time>
      </trkpt>
      <trkpt lat="42.211796" lon="-2.233365">
        <ele>684.5</ele>
        <time>2026-01-01T08:04:20Z</time>
      </trkpt>
      <trkpt lat="42.211707" lon="-2.233359">
        <ele>682.7</ele>
        <time>2026-01-01T08:04:28Z</time>
      </trkpt>
      <trkpt lat="42.211606" lon="-2.233371">
        <ele>681.4</ele>
        <time>2026-01-01T08:04:36Z</time>
      </trkpt>
      <trkpt lat="42.211542" lon="-2.233387">
        <ele>680.7</ele>
        <time>2026-01-01T08:04:41Z</time>
      </trkpt>
      <trkpt lat="42.211471" lon="-2.233369">
        <ele>682.2</ele>
        <time>2026-01-01T08:04:50Z</time>
      </trkpt>
      <trkpt lat="42.211407" lon="-2.233346">
        <ele>682.8</ele>
        <time>2026-01-01T08:04:59Z</time>
      </trkpt>
      <trkpt lat="42.211352" lon="-2.233251">
        <ele>686.3</ele>
        <time>2026-01-01T08:05:11Z</time>
      </trkpt>
      <trkpt lat="42.211282" lon="-2.233172">
        <ele>687.1</ele>
        <time>2026-01-01T08:05:23Z</time>
      </trkpt>
      <trkpt lat="42.211205" lon="-2.233085">
        <ele>688.7</ele>
        <time>2026-01-01T08:05:37Z</time>
      </trkpt>
      <trkpt lat="42.211129" lon="-2.233016">
        <ele>688.8</ele>
        <time>2026-01-01T08:05:49Z</time>
      </trkpt>
      <trkpt lat="42.211059" lon="-2.232975">
        <ele>688.5</ele>
        <time>2026-01-01T08:05:55Z</time>
      </trkpt>
      <trkpt lat="42.210975" lon="-2.232950">
        <ele>685.9</ele>
        <time>2026-01-01T08:06:02Z</time>
      </trkpt>
      <trkpt lat="42.210874" lon="-2.232921">
        <ele>683.1</ele>
        <time>2026-01-01T08:06:10Z</time>
      </trkpt>
      <trkpt lat="42.210763" lon="-2.232873">
        <ele>682.5</ele>
        <time>2026-01-01T08:06:20Z</time>
      </trkpt>
      <trkpt lat="42.210649" lon="-2.232824">
        <ele>681.9</ele>
        <time>2026-01-01T08:06:29Z</time>
      </trkpt>
      <trkpt lat="42.210537" lon="-2.232774">
        <ele>680.9</ele>
        <time>2026-01-01T08:06:39Z</time>
      </trkpt>
      <trkpt lat="42.210425" lon="-2.232732">
        <ele>682.8</ele>
        <time>2026-01-01T08:06:54Z</time>
      </trkpt>
      <trkpt lat="42.210311" lon="-2.232716">
        <ele>683.0</ele>
        <time>2026-01-01T08:07:09Z</time>
      </trkpt>
      <trkpt lat="42.210263" lon="-2.232726">
        <ele>681.8</ele>
        <time>2026-01-01T08:07:13Z</time>
      </trkpt>
      <trkpt lat="42.210197" lon="-2.232631">
        <ele>686.0</ele>
        <time>2026-01-01T08:07:26Z</time>
      </trkpt>
      <trkpt lat="42.210138" lon="-2.232546">
        <ele>687.9</ele>
        <time>2026-01-01T08:07:38Z</time>
      </trkpt>
      <trkpt lat="42.210095" lon="-2.232486">
        <ele>688.2</ele>
        <time>2026-01-01T08:07:46Z</time>
      </trkpt>
      <trkpt lat="42.210100" lon="-2.232403">
        <ele>692.3</ele>
        <time>2026-01-01T08:07:54Z</time>
      </trkpt>
      <trkpt lat="42.210105" lon="-2.232322">
        <ele>695.3</ele>
        <time>2026-01-01T08:08:02Z</time>
      </trkpt>
      <trkpt lat="42.210091" lon="-2.232227">
        <ele>696.4</ele>
        <time>2026-01-01T08:08:12Z</time>
      </trkpt>
      <trkpt lat="42.210087" lon="-2.232134">
        <ele>698.3</ele>
        <time>2026-01-01T08:08:21Z</time>
      </trkpt>
      <trkpt lat="42.210081" lon="-2.232042">
        <ele>700.8</ele>
        <time>2026-01-01T08:08:30Z</time>
      </trkpt>
      <trkpt lat="42.210039" lon="-2.231984">
        <ele>699.8</ele>
        <time>2026-01-01T08:08:35Z</time>
      </trkpt>
      <trkpt lat="42.210014" lon="-2.231914">
        <ele>700.5</ele>
        <time>2026-01-01T08:08:43Z</time>
      </trkpt>
      <trkpt lat="42.210032" lon="-2.231860">
        <ele>702.5</ele>
        <time>2026-01-01T08:08:48Z</time>
      </trkpt>
      <trkpt lat="42.210062" lon="-2.231833">
        <ele>704.5</ele>
        <time>2026-01-01T08:08:53Z</time>
      </trkpt>
      <trkpt lat="42.210083" lon="-2.231779">
        <ele>706.4</ele>
        <time>2026-01-01T08:08:59Z</time>
      </trkpt>
      <trkpt lat="42.210085" lon="-2.231713">
        <ele>707.2</ele>
        <time>2026-01-01T08:09:06Z</time>
      </trkpt>
      <trkpt lat="42.210082" lon="-2.231624">
        <ele>708.3</ele>
        <time>2026-01-01T08:09:15Z</time>
      </trkpt>
      <trkpt lat="42.210076" lon="-2.231526">
        <ele>709.4</ele>
        <time>2026-01-01T08:09:24Z</time>
      </trkpt>
      <trkpt lat="42.210058" lon="-2.231433">
        <ele>709.7</ele>
        <time>2026-01-01T08:09:34Z</time>
      </trkpt>
      <trkpt lat="42.210026" lon="-2.231342">
        <ele>709.1</ele>
        <time>2026-01-01T08:09:40Z</time>
      </trkpt>
      <trkpt lat="42.210009" lon="-2.231263">
        <ele>709.3</ele>
        <time>2026-01-01T08:09:48Z</time>
      </trkpt>
      <trkpt lat="42.209991" lon="-2.231151">
        <ele>709.8</ele>
        <time>2026-01-01T08:09:59Z</time>
      </trkpt>
      <trkpt lat="42.209994" lon="-2.231052">
        <ele>710.5</ele>
        <time>2026-01-01T08:10:09Z</time>
      </trkpt>
      <trkpt lat="42.209999" lon="-2.230938">
        <ele>711.0</ele>
        <time>2026-01-01T08:10:20Z</time>
      </trkpt>
      <trkpt lat="42.209984" lon="-2.230803">
        <ele>711.8</ele>
        <time>2026-01-01T08:10:34Z</time>
      </trkpt>
      <trkpt lat="42.209983" lon="-2.230689">
        <ele>713.7</ele>
        <time>2026-01-01T08:10:45Z</time>
      </trkpt>
      <trkpt lat="42.209980" lon="-2.230611">
        <ele>714.9</ele>
        <time>2026-01-01T08:10:53Z</time>
      </trkpt>
      <trkpt lat="42.209958" lon="-2.230502">
        <ele>715.8</ele>
        <time>2026-01-01T08:11:04Z</time>
      </trkpt>
      <trkpt lat="42.209925" lon="-2.230380">
        <ele>717.4</ele>
        <time>2026-01-01T08:11:17Z</time>
      </trkpt>
      <trkpt lat="42.209904" lon="-2.230275">
        <ele>719.0</ele>
        <time>2026-01-01T08:11:28Z</time>
      </trkpt>
      <trkpt lat="42.209905" lon="-2.230214">
        <ele>720.6</ele>
        <time>2026-01-01T08:11:34Z</time>
      </trkpt>
      <trkpt lat="42.209867" lon="-2.230144">
        <ele>721.1</ele>
        <time>2026-01-01T08:11:42Z</time>
      </trkpt>
      <trkpt lat="42.209833" lon="-2.230038">
        <ele>722.4</ele>
        <time>2026-01-01T08:11:54Z</time>
      </trkpt>
      <trkpt lat="42.209827" lon="-2.229952">
        <ele>724.0</ele>
        <time>2026-01-01T08:12:02Z</time>
      </trkpt>
      <trkpt lat="42.209827" lon="-2.229845">
        <ele>725.9</ele>
        <time>2026-01-01T08:12:13Z</time>
      </trkpt>
      <trkpt lat="42.209808" lon="-2.229737">
        <ele>726.9</ele>
        <time>2026-01-01T08:12:24Z</time>
      </trkpt>
      <trkpt lat="42.209793" lon="-2.229616">
        <ele>727.0</ele>
        <time>2026-01-01T08:12:36Z</time>
      </trkpt>
      <trkpt lat="42.209815" lon="-2.229476">
        <ele>727.7</ele>
        <time>2026-01-01T08:12:50Z</time>
      </trkpt>
      <trkpt lat="42.209871" lon="-2.229337">
        <ele>730.6</ele>
        <time>2026-01-01T08:13:06Z</time>
      </trkpt>
      <trkpt lat="42.209954" lon="-2.229196">
        <ele>736.2</ele>
        <time>2026-01-01T08:13:23Z</time>
      </trkpt>
      <trkpt lat="42.210029" lon="-2.229052">
        <ele>741.1</ele>
        <time>2026-01-01T08:13:41Z</time>
      </trkpt>
      <trkpt lat="42.210033" lon="-2.228881">
        <ele>737.6</ele>
        <time>2026-01-01T08:13:51Z</time>
      </trkpt>
      <trkpt lat="42.210027" lon="-2.228722">
        <ele>737.0</ele>
        <time>2026-01-01T08:14:00Z</time>
      </trkpt>
      <trkpt lat="42.210020" lon="-2.228633">
        <ele>737.6</ele>
        <time>2026-01-01T08:14:09Z</time>
      </trkpt>
      <trkpt lat="42.209991" lon="-2.228548">
        <ele>738.0</ele>
        <time>2026-01-01T08:14:19Z</time>
      </trkpt>
      <trkpt lat="42.209966" lon="-2.228457">
        <ele>739.4</ele>
        <time>2026-01-01T08:14:28Z</time>
      </trkpt>
      <trkpt lat="42.209969" lon="-2.228375">
        <ele>741.3</ele>
        <time>2026-01-01T08:14:36Z</time>
      </trkpt>
      <trkpt lat="42.210007" lon="-2.228281">
        <ele>743.7</ele>
        <time>2026-01-01T08:14:47Z</time>
      </trkpt>
      <trkpt lat="42.210069" lon="-2.228177">
        <ele>746.0</ele>
        <time>2026-01-01T08:15:00Z</time>
      </trkpt>
      <trkpt lat="42.210105" lon="-2.228038">
        <ele>747.6</ele>
        <time>2026-01-01T08:15:15Z</time>
      </trkpt>
      <trkpt lat="42.210138" lon="-2.227749">
        <ele>752.8</ele>
        <time>2026-01-01T08:15:43Z</time>
      </trkpt>
      <trkpt lat="42.210213" lon="-2.227379">
        <ele>760.5</ele>
        <time>2026-01-01T08:16:21Z</time>
      </trkpt>
      <trkpt lat="42.210255" lon="-2.226972">
        <ele>764.3</ele>
        <time>2026-01-01T08:17:02Z</time>
      </trkpt>
      <trkpt lat="42.210254" lon="-2.226803">
        <ele>764.6</ele>
        <time>2026-01-01T08:17:19Z</time>
      </trkpt>
      <trkpt lat="42.210316" lon="-2.226534">
        <ele>768.4</ele>
        <time>2026-01-01T08:17:47Z</time>
      </trkpt>
      <trkpt lat="42.210340" lon="-2.226238">
        <ele>769.3</ele>
        <time>2026-01-01T08:18:16Z</time>
      </trkpt>
      <trkpt lat="42.210400" lon="-2.225973">
        <ele>772.1</ele>
        <time>2026-01-01T08:18:43Z</time>
      </trkpt>
      <trkpt lat="42.210447" lon="-2.225673">
        <ele>775.3</ele>
        <time>2026-01-01T08:19:14Z</time>
      </trkpt>
      <trkpt lat="42.210433" lon="-2.225388">
        <ele>776.4</ele>
        <time>2026-01-01T08:19:42Z</time>
      </trkpt>
      <trkpt lat="42.210314" lon="-2.225176">
        <ele>775.8</ele>
        <time>2026-01-01T08:19:58Z</time>
      </trkpt>
      <trkpt lat="42.210137" lon="-2.224963">
        <ele>776.6</ele>
        <time>2026-01-01T08:20:29Z</time>
      </trkpt>
      <trkpt lat="42.210048" lon="-2.224679">
        <ele>778.9</ele>
        <time>2026-01-01T08:21:00Z</time>
      </trkpt>
      <trkpt lat="42.209926" lon="-2.224294">
        <ele>782.1</ele>
        <time>2026-01-01T08:21:41Z</time>
      </trkpt>
      <trkpt lat="42.209814" lon="-2.223854">
        <ele>785.7</ele>
        <time>2026-01-01T08:22:27Z</time>
      </trkpt>
      <trkpt lat="42.209713" lon="-2.223449">
        <ele>789.1</ele>
        <time>2026-01-01T08:23:09Z</time>
      </trkpt>
      <trkpt lat="42.209624" lon="-2.222980">
        <ele>794.6</ele>
        <time>2026-01-01T08:23:57Z</time>
      </trkpt>
      <trkpt lat="42.209606" lon="-2.222825">
        <ele>797.1</ele>
        <time>2026-01-01T08:24:13Z</time>
      </trkpt>
      <trkpt lat="42.209553" lon="-2.222739">
        <ele>798.4</ele>
        <time>2026-01-01T08:24:24Z</time>
      </trkpt>
      <trkpt lat="42.209479" lon="-2.222631">
        <ele>799.9</ele>
        <time>2026-01-01T08:24:38Z</time>
      </trkpt>
      <trkpt lat="42.209539" lon="-2.222557">
        <ele>799.8</ele>
        <time>2026-01-01T08:24:45Z</time>
      </trkpt>
      <trkpt lat="42.209632" lon="-2.222442">
        <ele>800.0</ele>
        <time>2026-01-01T08:25:02Z</time>
      </trkpt>
      <trkpt lat="42.209705" lon="-2.222358">
        <ele>800.0</ele>
        <time>2026-01-01T08:25:14Z</time>
      </trkpt>
      <trkpt lat="42.209763" lon="-2.222248">
        <ele>800.0</ele>
        <time>2026-01-01T08:25:28Z</time>
      </trkpt>
      <trkpt lat="42.209705" lon="-2.222358">
        <ele>800.0</ele>
        <time>2026-01-01T08:25:41Z</time>
      </trkpt>
      <trkpt lat="42.209632" lon="-2.222442">
        <ele>800.0</ele>
        <time>2026-01-01T08:25:54Z</time>
      </trkpt>
      <trkpt lat="42.209539" lon="-2.222557">
        <ele>799.8</ele>
        <time>2026-01-01T08:26:04Z</time>
      </trkpt>
      <trkpt lat="42.209479" lon="-2.222631">
        <ele>799.9</ele>
        <time>2026-01-01T08:26:15Z</time>
      </trkpt>
      <trkpt lat="42.209553" lon="-2.222739">
        <ele>798.4</ele>
        <time>2026-01-01T08:26:24Z</time>
      </trkpt>
      <trkpt lat="42.209606" lon="-2.222825">
        <ele>797.1</ele>
        <time>2026-01-01T08:26:30Z</time>
      </trkpt>
      <trkpt lat="42.209624" lon="-2.222980">
        <ele>794.6</ele>
        <time>2026-01-01T08:26:40Z</time>
      </trkpt>
      <trkpt lat="42.209713" lon="-2.223449">
        <ele>789.1</ele>
        <time>2026-01-01T08:27:08Z</time>
      </trkpt>
      <trkpt lat="42.209814" lon="-2.223854">
        <ele>785.7</ele>
        <time>2026-01-01T08:27:34Z</time>
      </trkpt>
      <trkpt lat="42.209926" lon="-2.224294">
        <ele>782.1</ele>
        <time>2026-01-01T08:28:01Z</time>
      </trkpt>
      <trkpt lat="42.210048" lon="-2.224679">
        <ele>778.9</ele>
        <time>2026-01-01T08:28:26Z</time>
      </trkpt>
      <trkpt lat="42.210137" lon="-2.224963">
        <ele>776.6</ele>
        <time>2026-01-01T08:28:44Z</time>
      </trkpt>
      <trkpt lat="42.210314" lon="-2.225176">
        <ele>775.8</ele>
        <time>2026-01-01T08:29:03Z</time>
      </trkpt>
      <trkpt lat="42.210433" lon="-2.225388">
        <ele>776.4</ele>
        <time>2026-01-01T08:29:30Z</time>
      </trkpt>
      <trkpt lat="42.210447" lon="-2.225673">
        <ele>775.3</ele>
        <time>2026-01-01T08:29:47Z</time>
      </trkpt>
      <trkpt lat="42.210400" lon="-2.225973">
        <ele>772.1</ele>
        <time>2026-01-01T08:30:05Z</time>
      </trkpt>
      <trkpt lat="42.210340" lon="-2.226238">
        <ele>769.3</ele>
        <time>2026-01-01T08:30:21Z</time>
      </trkpt>
      <trkpt lat="42.210316" lon="-2.226534">
        <ele>768.4</ele>
        <time>2026-01-01T08:30:39Z</time>
      </trkpt>
      <trkpt lat="42.210254" lon="-2.226803">
        <ele>764.6</ele>
        <time>2026-01-01T08:30:55Z</time>
      </trkpt>
      <trkpt lat="42.210255" lon="-2.226972">
        <ele>764.3</ele>
        <time>2026-01-01T08:31:06Z</time>
      </trkpt>
      <trkpt lat="42.210213" lon="-2.227379">
        <ele>760.5</ele>
        <time>2026-01-01T08:31:30Z</time>
      </trkpt>
      <trkpt lat="42.210138" lon="-2.227749">
        <ele>752.8</ele>
        <time>2026-01-01T08:31:53Z</time>
      </trkpt>
      <trkpt lat="42.210105" lon="-2.228038">
        <ele>747.6</ele>
        <time>2026-01-01T08:32:10Z</time>
      </trkpt>
      <trkpt lat="42.210069" lon="-2.228177">
        <ele>746.0</ele>
        <time>2026-01-01T08:32:19Z</time>
      </trkpt>
      <trkpt lat="42.210007" lon="-2.228281">
        <ele>743.7</ele>
        <time>2026-01-01T08:32:27Z</time>
      </trkpt>
      <trkpt lat="42.209969" lon="-2.228375">
        <ele>741.3</ele>
        <time>2026-01-01T08:32:33Z</time>
      </trkpt>
      <trkpt lat="42.209966" lon="-2.228457">
        <ele>739.4</ele>
        <time>2026-01-01T08:32:38Z</time>
      </trkpt>
      <trkpt lat="42.209991" lon="-2.228548">
        <ele>738.0</ele>
        <time>2026-01-01T08:32:44Z</time>
      </trkpt>
      <trkpt lat="42.210020" lon="-2.228633">
        <ele>737.6</ele>
        <time>2026-01-01T08:32:49Z</time>
      </trkpt>
      <trkpt lat="42.210027" lon="-2.228722">
        <ele>737.0</ele>
        <time>2026-01-01T08:32:54Z</time>
      </trkpt>
      <trkpt lat="42.210033" lon="-2.228881">
        <ele>737.6</ele>
        <time>2026-01-01T08:33:10Z</time>
      </trkpt>
      <trkpt lat="42.210029" lon="-2.229052">
        <ele>741.1</ele>
        <time>2026-01-01T08:33:27Z</time>
      </trkpt>
      <trkpt lat="42.209954" lon="-2.229196">
        <ele>736.2</ele>
        <time>2026-01-01T08:33:38Z</time>
      </trkpt>
      <trkpt lat="42.209871" lon="-2.229337">
        <ele>730.6</ele>
        <time>2026-01-01T08:33:48Z</time>
      </trkpt>
      <trkpt lat="42.209815" lon="-2.229476">
        <ele>727.7</ele>
        <time>2026-01-01T08:33:58Z</time>
      </trkpt>
      <trkpt lat="42.209793" lon="-2.229616">
        <ele>727.0</ele>
        <time>2026-01-01T08:34:06Z</time>
      </trkpt>
      <trkpt lat="42.209808" lon="-2.229737">
        <ele>726.9</ele>
        <time>2026-01-01T08:34:13Z</time>
      </trkpt>
      <trkpt lat="42.209827" lon="-2.229845">
        <ele>725.9</ele>
        <time>2026-01-01T08:34:20Z</time>
      </trkpt>
      <trkpt lat="42.209827" lon="-2.229952">
        <ele>724.0</ele>
        <time>2026-01-01T08:34:26Z</time>
      </trkpt>
      <trkpt lat="42.209833" lon="-2.230038">
        <ele>722.4</ele>
        <time>2026-01-01T08:34:31Z</time>
      </trkpt>
      <trkpt lat="42.209867" lon="-2.230144">
        <ele>721.1</ele>
        <time>2026-01-01T08:34:38Z</time>
      </trkpt>
      <trkpt lat="42.209905" lon="-2.230214">
        <ele>720.6</ele>
        <time>2026-01-01T08:34:43Z</time>
      </trkpt>
      <trkpt lat="42.209904" lon="-2.230275">
        <ele>719.0</ele>
        <time>2026-01-01T08:34:47Z</time>
      </trkpt>
      <trkpt lat="42.209925" lon="-2.230380">
        <ele>717.4</ele>
        <time>2026-01-01T08:34:53Z</time>
      </trkpt>
      <trkpt lat="42.209958" lon="-2.230502">
        <ele>715.8</ele>
        <time>2026-01-01T08:35:01Z</time>
      </trkpt>
      <trkpt lat="42.209980" lon="-2.230611">
        <ele>714.9</ele>
        <time>2026-01-01T08:35:08Z</time>
      </trkpt>
      <trkpt lat="42.209983" lon="-2.230689">
        <ele>713.7</ele>
        <time>2026-01-01T08:35:13Z</time>
      </trkpt>
      <trkpt lat="42.209984" lon="-2.230803">
        <ele>711.8</ele>
        <time>2026-01-01T08:35:19Z</time>
      </trkpt>
      <trkpt lat="42.209999" lon="-2.230938">
        <ele>711.0</ele>
        <time>2026-01-01T08:35:27Z</time>
      </trkpt>
      <trkpt lat="42.209994" lon="-2.231052">
        <ele>710.5</ele>
        <time>2026-01-01T08:35:34Z</time>
      </trkpt>
      <trkpt lat="42.209991" lon="-2.231151">
        <ele>709.8</ele>
        <time>2026-01-01T08:35:40Z</time>
      </trkpt>
      <trkpt lat="42.210009" lon="-2.231263">
        <ele>709.3</ele>
        <time>2026-01-01T08:35:47Z</time>
      </trkpt>
      <trkpt lat="42.210026" lon="-2.231342">
        <ele>709.1</ele>
        <time>2026-01-01T08:35:52Z</time>
      </trkpt>
      <trkpt lat="42.210058" lon="-2.231433">
        <ele>709.7</ele>
        <time>2026-01-01T08:36:02Z</time>
      </trkpt>
      <trkpt lat="42.210076" lon="-2.231526">
        <ele>709.4</ele>
        <time>2026-01-01T08:36:07Z</time>
      </trkpt>
      <trkpt lat="42.210082" lon="-2.231624">
        <ele>708.3</ele>
        <time>2026-01-01T08:36:13Z</time>
      </trkpt>
      <trkpt lat="42.210085" lon="-2.231713">
        <ele>707.2</ele>
        <time>2026-01-01T08:36:18Z</time>
      </trkpt>
      <trkpt lat="42.210083" lon="-2.231779">
        <ele>706.4</ele>
        <time>2026-01-01T08:36:22Z</time>
      </trkpt>
      <trkpt lat="42.210062" lon="-2.231833">
        <ele>704.5</ele>
        <time>2026-01-01T08:36:26Z</time>
      </trkpt>
      <trkpt lat="42.210032" lon="-2.231860">
        <ele>702.5</ele>
        <time>2026-01-01T08:36:29Z</time>
      </trkpt>
      <trkpt lat="42.210014" lon="-2.231914">
        <ele>700.5</ele>
        <time>2026-01-01T08:36:32Z</time>
      </trkpt>
      <trkpt lat="42.210039" lon="-2.231984">
        <ele>699.8</ele>
        <time>2026-01-01T08:36:37Z</time>
      </trkpt>
      <trkpt lat="42.210081" lon="-2.232042">
        <ele>700.8</ele>
        <time>2026-01-01T08:36:45Z</time>
      </trkpt>
      <trkpt lat="42.210087" lon="-2.232134">
        <ele>698.3</ele>
        <time>2026-01-01T08:36:50Z</time>
      </trkpt>
      <trkpt lat="42.210091" lon="-2.232227">
        <ele>696.4</ele>
        <time>2026-01-01T08:36:56Z</time>
      </trkpt>
      <trkpt lat="42.210105" lon="-2.232322">
        <ele>695.3</ele>
        <time>2026-01-01T08:37:02Z</time>
      </trkpt>
      <trkpt lat="42.210100" lon="-2.232403">
        <ele>692.3</ele>
        <time>2026-01-01T08:37:07Z</time>
      </trkpt>
      <trkpt lat="42.210095" lon="-2.232486">
        <ele>688.2</ele>
        <time>2026-01-01T08:37:12Z</time>
      </trkpt>
      <trkpt lat="42.210138" lon="-2.232546">
        <ele>687.9</ele>
        <time>2026-01-01T08:37:16Z</time>
      </trkpt>
      <trkpt lat="42.210197" lon="-2.232631">
        <ele>686.0</ele>
        <time>2026-01-01T08:37:23Z</time>
      </trkpt>
      <trkpt lat="42.210263" lon="-2.232726">
        <ele>681.8</ele>
        <time>2026-01-01T08:37:31Z</time>
      </trkpt>
      <trkpt lat="42.210311" lon="-2.232716">
        <ele>683.0</ele>
        <time>2026-01-01T08:37:38Z</time>
      </trkpt>
      <trkpt lat="42.210425" lon="-2.232732">
        <ele>682.8</ele>
        <time>2026-01-01T08:37:47Z</time>
      </trkpt>
      <trkpt lat="42.210537" lon="-2.232774">
        <ele>680.9</ele>
        <time>2026-01-01T08:37:56Z</time>
      </trkpt>
      <trkpt lat="42.210649" lon="-2.232824">
        <ele>681.9</ele>
        <time>2026-01-01T08:38:12Z</time>
      </trkpt>
      <trkpt lat="42.210763" lon="-2.232873">
        <ele>682.5</ele>
        <time>2026-01-01T08:38:28Z</time>
      </trkpt>
      <trkpt lat="42.210874" lon="-2.232921">
        <ele>683.1</ele>
        <time>2026-01-01T08:38:43Z</time>
      </trkpt>
      <trkpt lat="42.210975" lon="-2.232950">
        <ele>685.9</ele>
        <time>2026-01-01T08:38:57Z</time>
      </trkpt>
      <trkpt lat="42.211059" lon="-2.232975">
        <ele>688.5</ele>
        <time>2026-01-01T08:39:09Z</time>
      </trkpt>
      <trkpt lat="42.211129" lon="-2.233016">
        <ele>688.8</ele>
        <time>2026-01-01T08:39:19Z</time>
      </trkpt>
      <trkpt lat="42.211205" lon="-2.233085">
        <ele>688.7</ele>
        <time>2026-01-01T08:39:26Z</time>
      </trkpt>
      <trkpt lat="42.211282" lon="-2.233172">
        <ele>687.1</ele>
        <time>2026-01-01T08:39:34Z</time>
      </trkpt>
      <trkpt lat="42.211352" lon="-2.233251">
        <ele>686.3</ele>
        <time>2026-01-01T08:39:41Z</time>
      </trkpt>
      <trkpt lat="42.211407" lon="-2.233346">
        <ele>682.8</ele>
        <time>2026-01-01T08:39:49Z</time>
      </trkpt>
      <trkpt lat="42.211471" lon="-2.233369">
        <ele>682.2</ele>
        <time>2026-01-01T08:39:54Z</time>
      </trkpt>
      <trkpt lat="42.211542" lon="-2.233387">
        <ele>680.7</ele>
        <time>2026-01-01T08:40:00Z</time>
      </trkpt>
      <trkpt lat="42.211606" lon="-2.233371">
        <ele>681.4</ele>
        <time>2026-01-01T08:40:08Z</time>
      </trkpt>
      <trkpt lat="42.211707" lon="-2.233359">
        <ele>682.7</ele>
        <time>2026-01-01T08:40:22Z</time>
      </trkpt>
      <trkpt lat="42.211796" lon="-2.233365">
        <ele>684.5</ele>
        <time>2026-01-01T08:40:34Z</time>
      </trkpt>
      <trkpt lat="42.211848" lon="-2.233415">
        <ele>683.6</ele>
        <time>2026-01-01T08:40:39Z</time>
      </trkpt>
      <trkpt lat="42.211904" lon="-2.233533">
        <ele>679.2</ele>
        <time>2026-01-01T08:40:47Z</time>
      </trkpt>
      <trkpt lat="42.211949" lon="-2.233643">
        <ele>676.5</ele>
        <time>2026-01-01T08:40:55Z</time>
      </trkpt>
      <trkpt lat="42.212010" lon="-2.233707">
        <ele>677.5</ele>
        <time>2026-01-01T08:41:05Z</time>
      </trkpt>
      <trkpt lat="42.212101" lon="-2.233757">
        <ele>680.4</ele>
        <time>2026-01-01T08:41:18Z</time>
      </trkpt>
      <trkpt lat="42.212175" lon="-2.233829">
        <ele>679.8</ele>
        <time>2026-01-01T08:41:25Z</time>
      </trkpt>
      <trkpt lat="42.212225" lon="-2.233916">
        <ele>677.3</ele>
        <time>2026-01-01T08:41:32Z</time>
      </trkpt>
      <trkpt lat="42.212259" lon="-2.234009">
        <ele>673.4</ele>
        <time>2026-01-01T08:41:38Z</time>
      </trkpt>
      <trkpt lat="42.212342" lon="-2.234041">
        <ele>673.9</ele>
        <time>2026-01-01T08:41:50Z</time>
      </trkpt>
      <trkpt lat="42.212440" lon="-2.234055">
        <ele>673.2</ele>
        <time>2026-01-01T08:41:57Z</time>
      </trkpt>
      <trkpt lat="42.212534" lon="-2.234049">
        <ele>673.0</ele>
        <time>2026-01-01T08:42:05Z</time>
      </trkpt>
      <trkpt lat="42.212614" lon="-2.234043">
        <ele>672.6</ele>
        <time>2026-01-01T08:42:11Z</time>
      </trkpt>
      <trkpt lat="42.212710" lon="-2.234041">
        <ele>672.1</ele>
        <time>2026-01-01T08:42:19Z</time>
      </trkpt>
      <trkpt lat="42.212840" lon="-2.234049">
        <ele>671.8</ele>
        <time>2026-01-01T08:42:29Z</time>
      </trkpt>
      <trkpt lat="42.212957" lon="-2.234080">
        <ele>668.8</ele>
        <time>2026-01-01T08:42:39Z</time>
      </trkpt>
      <trkpt lat="42.213047" lon="-2.234107">
        <ele>662.0</ele>
        <time>2026-01-01T08:42:46Z</time>
      </trkpt>
      <trkpt lat="42.213145" lon="-2.234114">
        <ele>656.2</ele>
        <time>2026-01-01T08:42:54Z</time>
      </trkpt>
      <trkpt lat="42.213228" lon="-2.234097">
        <ele>653.2</ele>
        <time>2026-01-01T08:43:01Z</time>
      </trkpt>
      <trkpt lat="42.213304" lon="-2.234083">
        <ele>651.1</ele>
        <time>2026-01-01T08:43:07Z</time>
      </trkpt>
      <trkpt lat="42.213351" lon="-2.234110">
        <ele>650.4</ele>
        <time>2026-01-01T08:43:11Z</time>
      </trkpt>
      <trkpt lat="42.213406" lon="-2.234199">
        <ele>653.2</ele>
        <time>2026-01-01T08:43:23Z</time>
      </trkpt>
      <trkpt lat="42.213460" lon="-2.234275">
        <ele>659.7</ele>
        <time>2026-01-01T08:43:33Z</time>
      </trkpt>
      <trkpt lat="42.213496" lon="-2.234288">
        <ele>662.9</ele>
        <time>2026-01-01T08:43:38Z</time>
      </trkpt>
      <trkpt lat="42.213561" lon="-2.234226">
        <ele>664.6</ele>
        <time>2026-01-01T08:43:49Z</time>
      </trkpt>
      <trkpt lat="42.213634" lon="-2.234174">
        <ele>666.9</ele>
        <time>2026-01-01T08:44:00Z</time>
      </trkpt>
      <trkpt lat="42.213707" lon="-2.234122">
        <ele>668.0</ele>
        <time>2026-01-01T08:44:11Z</time>
      </trkpt>
    </trkseg>
  </trk>
</gpx>
