<?xml version="1.0" encoding="UTF-8" standalone="no" ?>
<gpx xmlns="http://www.topografix.com/GPX/1/1" creator="CompeGPS" version="1.1" xmlns:xsi="http://www.w3.org/2001/XMLSchema-instance" xsi:schemaLocation="http://www.topografix.com/GPX/1/1 http://www.topografix.com/GPX/1/1/gpx.xsd http://www.garmin.com/xmlschemas/GpxExtensions/v3 http://www.garmin.com/xmlschemas/GpxExtensionsv3.xsd http://www.garmin.com/xmlschemas/TrackPointExtension/v1 http://www.garmin.com/xmlschemas/TrackPointExtensionv1.xsd" xmlns:gpxtpx="http://www.garmin.com/xmlschemas/TrackPointExtension/v1">
  <metadata>
    <link href="http://www.compegps.com">
      <text>CompeGPS TEAM, SL</text>
    </link>
    <time>2026-09-19T16:47:24Z</time>
    <bounds maxlat="42.314009" maxlon="-2.545421" minlat="42.312104" minlon="-2.546905"/>
  </metadata>
  <trk>
    <name>saneste_ida_vuelta</name>
    <trkseg>
      <trkpt lat="42.312104" lon="-2.545793">
        <ele>613.8</ele>
        <time>2026-01-01T08:00:00Z</time>
      </trkpt>
      <trkpt lat="42.312183" lon="-2.545811">
        <ele>615.7</ele>
        <time>2026-01-01T08:00:10Z</time>
      </trkpt>
      <trkpt lat="42.312219" lon="-2.545886">
        <ele>618.4</ele>
        <time>2026-01-01T08:00:19Z</time>
      </trkpt>
      <trkpt lat="42.312284" lon="-2.545871">
        <ele>621.5</ele>
        <time>2026-01-01T08:00:28Z</time>
      </trkpt>
      <trkpt lat="42.312312" lon="-2.545909">
        <ele>622.4</ele>
        <time>2026-01-01T08:00:33Z</time>
      </trkpt>
      <trkpt lat="42.312374" lon="-2.545931">
        <ele>624.0</ele>
        <time>2026-01-01T08:00:42Z</time>
      </trkpt>
      <trkpt lat="42.312443" lon="-2.545841">
        <ele>627.0</ele>
        <time>2026-01-01T08:00:54Z</time>
      </trkpt>
      <trkpt lat="42.312491" lon="-2.545621">
        <ele>629.4</ele>
        <time>2026-01-01T08:01:17Z</time>
      </trkpt>
      <trkpt lat="42.312550" lon="-2.545451">
        <ele>632.9</ele>
        <time>2026-01-01T08:01:36Z</time>
      </trkpt>
      <trkpt lat="42.312592" lon="-2.545429">
        <ele>635.2</ele>
        <time>2026-01-01T08:01:42Z</time>
      </trkpt>
      <trkpt lat="42.312645" lon="-2.545504">
        <ele>638.6</ele>
        <time>2026-01-01T08:01:52Z</time>
      </trkpt>
      <trkpt lat="42.312671" lon="-2.545549">
        <ele>640.4</ele>
        <time>2026-01-01T08:01:57Z</time>
      </trkpt>
      <trkpt lat="42.312716" lon="-2.545421">
        <ele>641.9</ele>
        <time>2026-01-01T08:02:11Z</time>
      </trkpt>
      <trkpt lat="42.312766" lon="-2.545462">
        <ele>644.7</ele>
        <time>2026-01-01T08:02:19Z</time>
      </trkpt>
      <trkpt lat="42.312833" lon="-2.545519">
        <ele>648.8</ele>
        <time>2026-01-01T08:02:30Z</time>
      </trkpt>
      <trkpt lat="42.312875" lon="-2.545590">
        <ele>652.3</ele>
        <time>2026-01-01T08:02:39Z</time>
      </trkpt>
      <trkpt lat="42.312903" lon="-2.545719">
        <ele>655.7</ele>
        <time>2026-01-01T08:02:52Z</time>
      </trkpt>
      <trkpt lat="42.312943" lon="-2.545881">
        <ele>659.3</ele>
        <time>2026-01-01T08:03:09Z</time>
      </trkpt>
      <trkpt lat="42.312974" lon="-2.546070">
        <ele>661.4</ele>
        <time>2026-01-01T08:03:28Z</time>
      </trkpt>
      <trkpt lat="42.312999" lon="-2.546217">
        <ele>663.9</ele>
        <time>2026-01-01T08:03:43Z</time>
      </trkpt>
      <trkpt lat="42.313089" lon="-2.546141">
        <ele>668.7</ele>
        <time>2026-01-01T08:03:57Z</time>
      </trkpt>
      <trkpt lat="42.313133" lon="-2.546149">
        <ele>670.6</ele>
        <time>2026-01-01T08:04:03Z</time>
      </trkpt>
      <trkpt lat="42.313173" lon="-2.546243">
        <ele>672.9</ele>
        <time>2026-01-01T08:04:14Z</time>
      </trkpt>
      <trkpt lat="42.313218" lon="-2.546341">
        <ele>675.9</ele>
        <time>2026-01-01T08:04:25Z</time>
      </trkpt>
      <trkpt lat="42.313263" lon="-2.546352">
        <ele>679.1</ele>
        <time>2026-01-01T08:04:31Z</time>
      </trkpt>
      <trkpt lat="42.313316" lon="-2.546193">
        <ele>681.4</ele>
        <time>2026-01-01T08:04:48Z</time>
      </trkpt>
      <trkpt lat="42.313366" lon="-2.546095">
        <ele>685.8</ele>
        <time>2026-01-01T08:05:00Z</time>
      </trkpt>
      <trkpt lat="42.313397" lon="-2.546178">
        <ele>686.8</ele>
        <time>2026-01-01T08:05:09Z</time>
      </trkpt>
      <trkpt lat="42.313420" lon="-2.546291">
        <ele>688.0</ele>
        <time>2026-01-01T08:05:21Z</time>
      </trkpt>
      <trkpt lat="42.313440" lon="-2.546438">
        <ele>689.1</ele>
        <time>2026-01-01T08:05:36Z</time>
      </trkpt>
      <trkpt lat="42.313504" lon="-2.546420">
        <ele>693.2</ele>
        <time>2026-01-01T08:05:44Z</time>
      </trkpt>
      <trkpt lat="42.313560" lon="-2.546321">
        <ele>698.5</ele>
        <time>2026-01-01T08:05:57Z</time>
      </trkpt>
      <trkpt lat="42.313597" lon="-2.546193">
        <ele>702.6</ele>
        <time>2026-01-01T08:06:10Z</time>
      </trkpt>
      <trkpt lat="42.313616" lon="-2.546087">
        <ele>703.3</ele>
        <time>2026-01-01T08:06:21Z</time>
      </trkpt>
      <trkpt lat="42.313650" lon="-2.546211">
        <ele>705.3</ele>
        <time>2026-01-01T08:06:34Z</time>
      </trkpt>
      <trkpt lat="42.313681" lon="-2.546268">
        <ele>706.2</ele>
        <time>2026-01-01T08:06:41Z</time>
      </trkpt>
      <trkpt lat="42.313720" lon="-2.546188">
        <ele>708.6</ele>
        <time>2026-01-01T08:06:50Z</time>
      </trkpt>
      <trkpt lat="42.313757" lon="-2.546147">
        <ele>710.4</ele>
        <time>2026-01-01T08:06:57Z</time>
      </trkpt>
      <trkpt lat="42.313757" lon="-2.546230">
        <ele>709.9</ele>
        <time>2026-01-01T08:07:02Z</time>
      </trkpt>
      <trkpt lat="42.313749" lon="-2.546324">
        <ele>708.6</ele>
        <time>2026-01-01T08:07:07Z</time>
      </trkpt>
      <trkpt lat="42.313777" lon="-2.546400">
        <ele>709.0</ele>
        <time>2026-01-01T08:07:16Z</time>
      </trkpt>
      <trkpt lat="42.313816" lon="-2.546505">
        <ele>710.2</ele>
        <time>2026-01-01T08:07:27Z</time>
      </trkpt>
      <trkpt lat="42.313858" lon="-2.546611">
        <ele>713.1</ele>
        <time>2026-01-01T08:07:39Z</time>
      </trkpt>
      <trkpt lat="42.313925" lon="-2.546716">
        <ele>717.5</ele>
        <time>2026-01-01T08:07:53Z</time>
      </trkpt>
      <trkpt lat="42.313962" lon="-2.546822">
        <ele>720.4</ele>
        <time>2026-01-01T08:08:04Z</time>
      </trkpt>
      <trkpt lat="42.314009" lon="-2.546905">
        <ele>731.6</ele>
        <time>2026-01-01T08:08:15Z</time>
      </trkpt>
      <trkpt lat="42.314009" lon="-2.546905">
        <ele>731.6</ele>
        <time>2026-01-01T08:08:47Z</time>
      </trkpt>
      <trkpt lat="42.313962" lon="-2.546822">
        <ele>720.4</ele>
        <time>2026-01-01T08:08:53Z</time>
      </trkpt>
      <trkpt lat="42.313925" lon="-2.546716">
        <ele>717.5</ele>
        <time>2026-01-01T08:09:00Z</time>
      </trkpt>
      <trkpt lat="42.313858" lon="-2.546611">
        <ele>713.1</ele>
        <time>2026-01-01T08:09:08Z</time>
      </trkpt>
      <trkpt lat="42.313816" lon="-2.546505">
        <ele>710.2</ele>
        <time>2026-01-01T08:09:15Z</time>
      </trkpt>
      <trkpt lat="42.313777" lon="-2.546400">
        <ele>709.0</ele>
        <time>2026-01-01T08:09:22Z</time>
      </trkpt>
      <trkpt lat="42.313749" lon="-2.546324">
        <ele>708.6</ele>
        <time>2026-01-01T08:09:27Z</time>
      </trkpt>
      <trkpt lat="42.313757" lon="-2.546230">
        <ele>709.9</ele>
        <time>2026-01-01T08:09:37Z</time>
      </trkpt>
      <trkpt lat="42.313757" lon="-2.546147">
        <ele>710.4</ele>
        <time>2026-01-01T08:09:45Z</time>
      </trkpt>
      <trkpt lat="42.313720" lon="-2.546188">
        <ele>708.6</ele>
        <time>2026-01-01T08:09:49Z</time>
      </trkpt>
      <trkpt lat="42.313681" lon="-2.546268">
        <ele>706.2</ele>
        <time>2026-01-01T08:09:54Z</time>
      </trkpt>
      <trkpt lat="42.313650" lon="-2.546211">
        <ele>705.3</ele>
        <time>2026-01-01T08:09:58Z</time>
      </trkpt>
      <trkpt lat="42.313616" lon="-2.546087">
        <ele>703.3</ele>
        <time>2026-01-01T08:10:06Z</time>
      </trkpt>
      <trkpt lat="42.313597" lon="-2.546193">
        <ele>702.6</ele>
        <time>2026-01-01T08:10:13Z</time>
      </trkpt>
      <trkpt lat="42.313560" lon="-2.546321">
        <ele>698.5</ele>
        <time>2026-01-01T08:10:21Z</time>
      </trkpt>
      <trkpt lat="42.313504" lon="-2.546420">
        <ele>693.2</ele>
        <time>2026-01-01T08:10:28Z</time>
      </trkpt>
      <trkpt lat="42.313440" lon="-2.546438">
        <ele>689.1</ele>
        <time>2026-01-01T08:10:33Z</time>
      </trkpt>
      <trkpt lat="42.313420" lon="-2.546291">
        <ele>688.0</ele>
        <time>2026-01-01T08:10:42Z</time>
      </trkpt>
      <trkpt lat="42.313397" lon="-2.546178">
        <ele>686.8</ele>
        <time>2026-01-01T08:10:49Z</time>
      </trkpt>
      <trkpt lat="42.313366" lon="-2.546095">
        <ele>685.8</ele>
        <time>2026-01-01T08:10:55Z</time>
      </trkpt>
      <trkpt lat="42.313316" lon="-2.546193">
        <ele>681.4</ele>
        <time>2026-01-01T08:11:02Z</time>
      </trkpt>
      <trkpt lat="42.313263" lon="-2.546352">
        <ele>679.1</ele>
        <time>2026-01-01T08:11:12Z</time>
      </trkpt>
      <trkpt lat="42.313218" lon="-2.546341">
        <ele>675.9</ele>
        <time>2026-01-01T08:11:16Z</time>
      </trkpt>
      <trkpt lat="42.313173" lon="-2.546243">
        <ele>672.9</ele>
        <time>2026-01-01T08:11:23Z</time>
      </trkpt>
      <trkpt lat="42.313133" lon="-2.546149">
        <ele>670.6</ele>
        <time>2026-01-01T08:11:29Z</time>
      </trkpt>
      <trkpt lat="42.313089" lon="-2.546141">
        <ele>668.7</ele>
        <time>2026-01-01T08:11:33Z</time>
      </trkpt>
      <trkpt lat="42.312999" lon="-2.546217">
        <ele>663.9</ele>
        <time>2026-01-01T08:11:41Z</time>
      </trkpt>
      <trkpt lat="42.312974" lon="-2.546070">
        <ele>661.4</ele>
        <time>2026-01-01T08:11:50Z</time>
      </trkpt>
      <trkpt lat="42.312943" lon="-2.545881">
        <ele>659.3</ele>
        <time>2026-01-01T08:12:01Z</time>
      </trkpt>
      <trkpt lat="42.312903" lon="-2.545719">
        <ele>655.7</ele>
        <time>2026-01-01T08:12:12Z</time>
      </trkpt>
      <trkpt lat="42.312875" lon="-2.545590">
        <ele>652.3</ele>
        <time>2026-01-01T08:12:20Z</time>
      </trkpt>
      <trkpt lat="42.312833" lon="-2.545519">
        <ele>648.8</ele>
        <time>2026-01-01T08:12:25Z</time>
      </trkpt>
      <trkpt lat="42.312766" lon="-2.545462">
        <ele>644.7</ele>
        <time>2026-01-01T08:12:31Z</time>
      </trkpt>
      <trkpt lat="42.312716" lon="-2.545421">
        <ele>641.9</ele>
        <time>2026-01-01T08:12:36Z</time>
      </trkpt>
      <trkpt lat="42.312671" lon="-2.545549">
        <ele>640.4</ele>
        <time>2026-01-01T08:12:44Z</time>
      </trkpt>
      <trkpt lat="42.312645" lon="-2.545504">
        <ele>638.6</ele>
        <time>2026-01-01T08:12:48Z</time>
      </trkpt>
      <trkpt lat="42.312592" lon="-2.545429">
        <ele>635.2</ele>
        <time>2026-01-01T08:12:54Z</time>
      </trkpt>
      <trkpt lat="42.312550" lon="-2.545451">
        <ele>632.9</ele>
        <time>2026-01-01T08:12:57Z</time>
      </trkpt>
      <trkpt lat="42.312491" lon="-2.545621">
        <ele>629.4</ele>
        <time>2026-01-01T08:13:09Z</time>
      </trkpt>
      <trkpt lat="42.312443" lon="-2.545841">
        <ele>627.0</ele>
        <time>2026-01-01T08:13:22Z</time>
      </trkpt>
      <trkpt lat="42.312374" lon="-2.545931">
        <ele>624.0</ele>
        <time>2026-01-01T08:13:30Z</time>
      </trkpt>
      <trkpt lat="42.312312" lon="-2.545909">
        <ele>622.4</ele>
        <time>2026-01-01T08:13:35Z</time>
      </trkpt>
      <trkpt lat="42.312284" lon="-2.545871">
        <ele>621.5</ele>
        <time>2026-01-01T08:13:38Z</time>
      </trkpt>
      <trkpt lat="42.312219" lon="-2.545886">
        <ele>618.4</ele>
        <time>2026-01-01T08:13:43Z</time>
      </trkpt>
      <trkpt lat="42.312183" lon="-2.545811">
        <ele>615.7</ele>
        <time>2026-01-01T08:13:49Z</time>
      </trkpt>
      <trkpt lat="42.312104" lon="-2.545793">
        <ele>613.8</ele>
        <time>2026-01-01T08:13:55Z</time>
      </trkpt>
    </trkseg>
  </trk>
</gpx>
