<?xml version="1.0" encoding="UTF-8" standalone="no" ?>
<gpx xmlns="http://www.topografix.com/GPX/1/1" creator="CompeGPS" version="1.1" xmlns:xsi="http://www.w3.org/2001/XMLSchema-instance" xsi:schemaLocation="http://www.topografix.com/GPX/1/1 http://www.topografix.com/GPX/1/1/gpx.xsd">
  <metadata>
    <time>2026-01-01T08:00:00Z</time>
    <bounds maxlat="42.116813" maxlon="-2.642281" minlat="42.110726" minlon="-2.672228"/>
  </metadata>
  <trk>
    <name>nava (ida y vuelta)</name>
    <trkseg>
      <trkpt lat="42.112004" lon="-2.672228">
        <ele>1035.5</ele>
        <time>2026-01-01T08:00:00Z</time>
      </trkpt>
      <trkpt lat="42.111933" lon="-2.672154">
        <ele>1037.1</ele>
        <time>2026-01-01T08:00:11Z</time>
      </trkpt>
      <trkpt lat="42.111998" lon="-2.671862">
        <ele>1038.0</ele>
        <time>2026-01-01T08:00:42Z</time>
      </trkpt>
      <trkpt lat="42.112030" lon="-2.671602">
        <ele>1039.4</ele>
        <time>2026-01-01T08:01:08Z</time>
      </trkpt>
      <trkpt lat="42.112026" lon="-2.671341">
        <ele>1040.9</ele>
        <time>2026-01-01T08:01:34Z</time>
      </trkpt>
      <trkpt lat="42.111994" lon="-2.671199">
        <ele>1042.4</ele>
        <time>2026-01-01T08:01:48Z</time>
      </trkpt>
      <trkpt lat="42.112008" lon="-2.670920">
        <ele>1044.3</ele>
        <time>2026-01-01T08:02:16Z</time>
      </trkpt>
      <trkpt lat="42.111994" lon="-2.670585">
        <ele>1047.2</ele>
        <time>2026-01-01T08:02:49Z</time>
      </trkpt>
      <trkpt lat="42.111999" lon="-2.670256">
        <ele>1048.6</ele>
        <time>2026-01-01T08:03:22Z</time>
      </trkpt>
      <trkpt lat="42.112017" lon="-2.669884">
        <ele>1049.7</ele>
        <time>2026-01-01T08:03:59Z</time>
      </trkpt>
      <trkpt lat="42.112022" lon="-2.669556">
        <ele>1051.6</ele>
        <time>2026-01-01T08:04:31Z</time>
      </trkpt>
      <trkpt lat="42.111967" lon="-2.669252">
        <ele>1055.6</ele>
        <time>2026-01-01T08:05:02Z</time>
      </trkpt>
      <trkpt lat="42.111885" lon="-2.668960">
        <ele>1059.3</ele>
        <time>2026-01-01T08:05:33Z</time>
      </trkpt>
      <trkpt lat="42.111857" lon="-2.668836">
        <ele>1061.8</ele>
        <time>2026-01-01T08:05:46Z</time>
      </trkpt>
      <trkpt lat="42.111963" lon="-2.668681">
        <ele>1062.0</ele>
        <time>2026-01-01T08:06:07Z</time>
      </trkpt>
      <trkpt lat="42.112133" lon="-2.668420">
        <ele>1063.5</ele>
        <time>2026-01-01T08:06:41Z</time>
      </trkpt>
      <trkpt lat="42.112281" lon="-2.668073">
        <ele>1065.9</ele>
        <time>2026-01-01T08:07:21Z</time>
      </trkpt>
      <trkpt lat="42.112433" lon="-2.667757">
        <ele>1067.6</ele>
        <time>2026-01-01T08:07:58Z</time>
      </trkpt>
      <trkpt lat="42.112529" lon="-2.667348">
        <ele>1072.3</ele>
        <time>2026-01-01T08:08:40Z</time>
      </trkpt>
      <trkpt lat="42.112677" lon="-2.666945">
        <ele>1078.0</ele>
        <time>2026-01-01T08:09:25Z</time>
      </trkpt>
      <trkpt lat="42.112861" lon="-2.666666">
        <ele>1080.4</ele>
        <time>2026-01-01T08:10:02Z</time>
      </trkpt>
      <trkpt lat="42.113058" lon="-2.666399">
        <ele>1078.0</ele>
        <time>2026-01-01T08:10:24Z</time>
      </trkpt>
      <trkpt lat="42.113197" lon="-2.666151">
        <ele>1080.4</ele>
        <time>2026-01-01T08:10:55Z</time>
      </trkpt>
      <trkpt lat="42.113280" lon="-2.665915">
        <ele>1084.6</ele>
        <time>2026-01-01T08:11:21Z</time>
      </trkpt>
      <trkpt lat="42.113335" lon="-2.665679">
        <ele>1089.7</ele>
        <time>2026-01-01T08:11:45Z</time>
      </trkpt>
      <trkpt lat="42.113436" lon="-2.665518">
        <ele>1090.8</ele>
        <time>2026-01-01T08:12:06Z</time>
      </trkpt>
      <trkpt lat="42.113551" lon="-2.665320">
        <ele>1090.8</ele>
        <time>2026-01-01T08:12:31Z</time>
      </trkpt>
      <trkpt lat="42.113598" lon="-2.665022">
        <ele>1095.2</ele>
        <time>2026-01-01T08:13:01Z</time>
      </trkpt>
      <trkpt lat="42.113616" lon="-2.664712">
        <ele>1101.2</ele>
        <time>2026-01-01T08:13:32Z</time>
      </trkpt>
      <trkpt lat="42.113681" lon="-2.664396">
        <ele>1106.1</ele>
        <time>2026-01-01T08:14:05Z</time>
      </trkpt>
      <trkpt lat="42.113778" lon="-2.664098">
        <ele>1108.1</ele>
        <time>2026-01-01T08:14:37Z</time>
      </trkpt>
      <trkpt lat="42.113893" lon="-2.663856">
        <ele>1110.6</ele>
        <time>2026-01-01T08:15:05Z</time>
      </trkpt>
      <trkpt lat="42.114040" lon="-2.663627">
        <ele>1112.1</ele>
        <time>2026-01-01T08:15:35Z</time>
      </trkpt>
      <trkpt lat="42.114211" lon="-2.663354">
        <ele>1113.7</ele>
        <time>2026-01-01T08:16:11Z</time>
      </trkpt>
      <trkpt lat="42.114404" lon="-2.663081">
        <ele>1113.9</ele>
        <time>2026-01-01T08:16:48Z</time>
      </trkpt>
      <trkpt lat="42.114583" lon="-2.662808">
        <ele>1117.3</ele>
        <time>2026-01-01T08:17:24Z</time>
      </trkpt>
      <trkpt lat="42.114745" lon="-2.662510">
        <ele>1119.8</ele>
        <time>2026-01-01T08:18:00Z</time>
      </trkpt>
      <trkpt lat="42.114901" lon="-2.662200">
        <ele>1126.4</ele>
        <time>2026-01-01T08:18:38Z</time>
      </trkpt>
      <trkpt lat="42.115081" lon="-2.661890">
        <ele>1131.5</ele>
        <time>2026-01-01T08:19:17Z</time>
      </trkpt>
      <trkpt lat="42.115246" lon="-2.661642">
        <ele>1132.9</ele>
        <time>2026-01-01T08:19:50Z</time>
      </trkpt>
      <trkpt lat="42.115444" lon="-2.661455">
        <ele>1133.8</ele>
        <time>2026-01-01T08:20:22Z</time>
      </trkpt>
      <trkpt lat="42.115646" lon="-2.661263">
        <ele>1134.9</ele>
        <time>2026-01-01T08:20:55Z</time>
      </trkpt>
      <trkpt lat="42.115821" lon="-2.661040">
        <ele>1138.7</ele>
        <time>2026-01-01T08:21:27Z</time>
      </trkpt>
      <trkpt lat="42.116006" lon="-2.660792">
        <ele>1140.6</ele>
        <time>2026-01-01T08:22:02Z</time>
      </trkpt>
      <trkpt lat="42.116194" lon="-2.660544">
        <ele>1141.4</ele>
        <time>2026-01-01T08:22:37Z</time>
      </trkpt>
      <trkpt lat="42.116374" lon="-2.660314">
        <ele>1143.9</ele>
        <time>2026-01-01T08:23:10Z</time>
      </trkpt>
      <trkpt lat="42.116512" lon="-2.660054">
        <ele>1148.3</ele>
        <time>2026-01-01T08:23:42Z</time>
      </trkpt>
      <trkpt lat="42.116622" lon="-2.659799">
        <ele>1150.2</ele>
        <time>2026-01-01T08:24:11Z</time>
      </trkpt>
      <trkpt lat="42.116701" lon="-2.659502">
        <ele>1151.0</ele>
        <time>2026-01-01T08:24:42Z</time>
      </trkpt>
      <trkpt lat="42.116706" lon="-2.659222">
        <ele>1151.8</ele>
        <time>2026-01-01T08:25:10Z</time>
      </trkpt>
      <trkpt lat="42.116637" lon="-2.658931">
        <ele>1152.7</ele>
        <time>2026-01-01T08:25:40Z</time>
      </trkpt>
      <trkpt lat="42.116508" lon="-2.658652">
        <ele>1154.1</ele>
        <time>2026-01-01T08:26:12Z</time>
      </trkpt>
      <trkpt lat="42.116370" lon="-2.658410">
        <ele>1154.6</ele>
        <time>2026-01-01T08:26:43Z</time>
      </trkpt>
      <trkpt lat="42.116265" lon="-2.658199">
        <ele>1155.2</ele>
        <time>2026-01-01T08:27:08Z</time>
      </trkpt>
      <trkpt lat="42.116178" lon="-2.658100">
        <ele>1155.7</ele>
        <time>2026-01-01T08:27:23Z</time>
      </trkpt>
      <trkpt lat="42.116063" lon="-2.658087">
        <ele>1157.0</ele>
        <time>2026-01-01T08:27:38Z</time>
      </trkpt>
      <trkpt lat="42.115962" lon="-2.658081">
        <ele>1158.1</ele>
        <time>2026-01-01T08:27:52Z</time>
      </trkpt>
      <trkpt lat="42.115847" lon="-2.658038">
        <ele>1158.5</ele>
        <time>2026-01-01T08:28:08Z</time>
      </trkpt>
      <trkpt lat="42.115718" lon="-2.658019">
        <ele>1159.8</ele>
        <time>2026-01-01T08:28:25Z</time>
      </trkpt>
      <trkpt lat="42.115599" lon="-2.658000">
        <ele>1160.9</ele>
        <time>2026-01-01T08:28:41Z</time>
      </trkpt>
      <trkpt lat="42.115512" lon="-2.657969">
        <ele>1161.2</ele>
        <time>2026-01-01T08:28:53Z</time>
      </trkpt>
      <trkpt lat="42.115406" lon="-2.657820">
        <ele>1159.6</ele>
        <time>2026-01-01T08:29:05Z</time>
      </trkpt>
      <trkpt lat="42.115282" lon="-2.657647">
        <ele>1157.5</ele>
        <time>2026-01-01T08:29:20Z</time>
      </trkpt>
      <trkpt lat="42.115200" lon="-2.657460">
        <ele>1156.9</ele>
        <time>2026-01-01T08:29:33Z</time>
      </trkpt>
      <trkpt lat="42.115177" lon="-2.657293">
        <ele>1156.8</ele>
        <time>2026-01-01T08:29:43Z</time>
      </trkpt>
      <trkpt lat="42.115209" lon="-2.657113">
        <ele>1157.1</ele>
        <time>2026-01-01T08:30:01Z</time>
      </trkpt>
      <trkpt lat="42.115278" lon="-2.656846">
        <ele>1158.5</ele>
        <time>2026-01-01T08:30:29Z</time>
      </trkpt>
      <trkpt lat="42.115352" lon="-2.656611">
        <ele>1161.4</ele>
        <time>2026-01-01T08:30:54Z</time>
      </trkpt>
      <trkpt lat="42.115449" lon="-2.656449">
        <ele>1162.9</ele>
        <time>2026-01-01T08:31:15Z</time>
      </trkpt>
      <trkpt lat="42.115550" lon="-2.656245">
        <ele>1164.3</ele>
        <time>2026-01-01T08:31:39Z</time>
      </trkpt>
      <trkpt lat="42.115647" lon="-2.656021">
        <ele>1166.8</ele>
        <time>2026-01-01T08:32:05Z</time>
      </trkpt>
      <trkpt lat="42.115762" lon="-2.655829">
        <ele>1167.9</ele>
        <time>2026-01-01T08:32:29Z</time>
      </trkpt>
      <trkpt lat="42.115905" lon="-2.655643">
        <ele>1168.4</ele>
        <time>2026-01-01T08:32:56Z</time>
      </trkpt>
      <trkpt lat="42.116061" lon="-2.655463">
        <ele>1168.4</ele>
        <time>2026-01-01T08:33:23Z</time>
      </trkpt>
      <trkpt lat="42.116209" lon="-2.655327">
        <ele>1168.6</ele>
        <time>2026-01-01T08:33:47Z</time>
      </trkpt>
      <trkpt lat="42.116314" lon="-2.655178">
        <ele>1169.2</ele>
        <time>2026-01-01T08:34:07Z</time>
      </trkpt>
      <trkpt lat="42.116361" lon="-2.654967">
        <ele>1173.1</ele>
        <time>2026-01-01T08:34:29Z</time>
      </trkpt>
      <trkpt lat="42.116416" lon="-2.654750">
        <ele>1177.1</ele>
        <time>2026-01-01T08:34:52Z</time>
      </trkpt>
      <trkpt lat="42.116499" lon="-2.654570">
        <ele>1177.6</ele>
        <time>2026-01-01T08:35:13Z</time>
      </trkpt>
      <trkpt lat="42.116605" lon="-2.654415">
        <ele>1177.4</ele>
        <time>2026-01-01T08:35:25Z</time>
      </trkpt>
      <trkpt lat="42.116651" lon="-2.654310">
        <ele>1178.1</ele>
        <time>2026-01-01T08:35:37Z</time>
      </trkpt>
      <trkpt lat="42.116651" lon="-2.654167">
        <ele>1181.4</ele>
        <time>2026-01-01T08:35:52Z</time>
      </trkpt>
      <trkpt lat="42.116711" lon="-2.654092">
        <ele>1181.9</ele>
        <time>2026-01-01T08:36:03Z</time>
      </trkpt>
      <trkpt lat="42.116794" lon="-2.653906">
        <ele>1185.1</ele>
        <time>2026-01-01T08:36:24Z</time>
      </trkpt>
      <trkpt lat="42.116803" lon="-2.653726">
        <ele>1188.0</ele>
        <time>2026-01-01T08:36:42Z</time>
      </trkpt>
      <trkpt lat="42.116776" lon="-2.653615">
        <ele>1189.5</ele>
        <time>2026-01-01T08:36:53Z</time>
      </trkpt>
      <trkpt lat="42.116794" lon="-2.653435">
        <ele>1192.1</ele>
        <time>2026-01-01T08:37:11Z</time>
      </trkpt>
      <trkpt lat="42.116804" lon="-2.653211">
        <ele>1194.6</ele>
        <time>2026-01-01T08:37:34Z</time>
      </trkpt>
      <trkpt lat="42.116813" lon="-2.652976">
        <ele>1195.4</ele>
        <time>2026-01-01T08:37:57Z</time>
      </trkpt>
      <trkpt lat="42.116772" lon="-2.652709">
        <ele>1197.0</ele>
        <time>2026-01-01T08:38:24Z</time>
      </trkpt>
      <trkpt lat="42.116740" lon="-2.652430">
        <ele>1197.3</ele>
        <time>2026-01-01T08:38:52Z</time>
      </trkpt>
      <trkpt lat="42.116731" lon="-2.652163">
        <ele>1197.4</ele>
        <time>2026-01-01T08:39:18Z</time>
      </trkpt>
      <trkpt lat="42.116727" lon="-2.651865">
        <ele>1196.4</ele>
        <time>2026-01-01T08:39:36Z</time>
      </trkpt>
      <trkpt lat="42.116681" lon="-2.651605">
        <ele>1195.9</ele>
        <time>2026-01-01T08:39:52Z</time>
      </trkpt>
      <trkpt lat="42.116580" lon="-2.651419">
        <ele>1195.4</ele>
        <time>2026-01-01T08:40:06Z</time>
      </trkpt>
      <trkpt lat="42.116474" lon="-2.651239">
        <ele>1194.1</ele>
        <time>2026-01-01T08:40:19Z</time>
      </trkpt>
      <trkpt lat="42.116378" lon="-2.651189">
        <ele>1194.9</ele>
        <time>2026-01-01T08:40:33Z</time>
      </trkpt>
      <trkpt lat="42.116277" lon="-2.651027">
        <ele>1194.6</ele>
        <time>2026-01-01T08:40:46Z</time>
      </trkpt>
      <trkpt lat="42.116167" lon="-2.650841">
        <ele>1194.2</ele>
        <time>2026-01-01T08:41:00Z</time>
      </trkpt>
      <trkpt lat="42.116047" lon="-2.650606">
        <ele>1193.6</ele>
        <time>2026-01-01T08:41:17Z</time>
      </trkpt>
      <trkpt lat="42.115914" lon="-2.650351">
        <ele>1192.9</ele>
        <time>2026-01-01T08:41:35Z</time>
      </trkpt>
      <trkpt lat="42.115772" lon="-2.650072">
        <ele>1191.4</ele>
        <time>2026-01-01T08:41:55Z</time>
      </trkpt>
      <trkpt lat="42.115597" lon="-2.649837">
        <ele>1191.1</ele>
        <time>2026-01-01T08:42:15Z</time>
      </trkpt>
      <trkpt lat="42.115418" lon="-2.649588">
        <ele>1190.3</ele>
        <time>2026-01-01T08:42:36Z</time>
      </trkpt>
      <trkpt lat="42.115243" lon="-2.649365">
        <ele>1189.3</ele>
        <time>2026-01-01T08:42:55Z</time>
      </trkpt>
      <trkpt lat="42.115083" lon="-2.649229">
        <ele>1190.0</ele>
        <time>2026-01-01T08:43:20Z</time>
      </trkpt>
      <trkpt lat="42.115018" lon="-2.649105">
        <ele>1188.9</ele>
        <time>2026-01-01T08:43:29Z</time>
      </trkpt>
      <trkpt lat="42.114954" lon="-2.648863">
        <ele>1186.4</ele>
        <time>2026-01-01T08:43:44Z</time>
      </trkpt>
      <trkpt lat="42.114853" lon="-2.648726">
        <ele>1185.2</ele>
        <time>2026-01-01T08:43:56Z</time>
      </trkpt>
      <trkpt lat="42.114729" lon="-2.648621">
        <ele>1185.7</ele>
        <time>2026-01-01T08:44:15Z</time>
      </trkpt>
      <trkpt lat="42.114614" lon="-2.648466">
        <ele>1184.6</ele>
        <time>2026-01-01T08:44:28Z</time>
      </trkpt>
      <trkpt lat="42.114509" lon="-2.648267">
        <ele>1182.4</ele>
        <time>2026-01-01T08:44:43Z</time>
      </trkpt>
      <trkpt lat="42.114399" lon="-2.648007">
        <ele>1179.3</ele>
        <time>2026-01-01T08:45:01Z</time>
      </trkpt>
      <trkpt lat="42.114270" lon="-2.647746">
        <ele>1176.4</ele>
        <time>2026-01-01T08:45:19Z</time>
      </trkpt>
      <trkpt lat="42.114137" lon="-2.647461">
        <ele>1172.2</ele>
        <time>2026-01-01T08:45:39Z</time>
      </trkpt>
      <trkpt lat="42.113999" lon="-2.647200">
        <ele>1169.1</ele>
        <time>2026-01-01T08:45:58Z</time>
      </trkpt>
      <trkpt lat="42.113848" lon="-2.646946">
        <ele>1167.3</ele>
        <time>2026-01-01T08:46:18Z</time>
      </trkpt>
      <trkpt lat="42.113669" lon="-2.646754">
        <ele>1164.6</ele>
        <time>2026-01-01T08:46:36Z</time>
      </trkpt>
      <trkpt lat="42.113540" lon="-2.646580">
        <ele>1161.3</ele>
        <time>2026-01-01T08:46:51Z</time>
      </trkpt>
      <trkpt lat="42.113426" lon="-2.646406">
        <ele>1158.8</ele>
        <time>2026-01-01T08:47:04Z</time>
      </trkpt>
      <trkpt lat="42.113343" lon="-2.646202">
        <ele>1156.1</ele>
        <time>2026-01-01T08:47:18Z</time>
      </trkpt>
      <trkpt lat="42.113251" lon="-2.646096">
        <ele>1154.6</ele>
        <time>2026-01-01T08:47:28Z</time>
      </trkpt>
      <trkpt lat="42.113132" lon="-2.645978">
        <ele>1153.3</ele>
        <time>2026-01-01T08:47:40Z</time>
      </trkpt>
      <trkpt lat="42.113026" lon="-2.645799">
        <ele>1151.5</ele>
        <time>2026-01-01T08:47:53Z</time>
      </trkpt>
      <trkpt lat="42.112948" lon="-2.645556">
        <ele>1150.0</ele>
        <time>2026-01-01T08:48:09Z</time>
      </trkpt>
      <trkpt lat="42.112861" lon="-2.645290">
        <ele>1150.0</ele>
        <time>2026-01-01T08:48:38Z</time>
      </trkpt>
      <trkpt lat="42.112760" lon="-2.645085">
        <ele>1150.0</ele>
        <time>2026-01-01T08:49:02Z</time>
      </trkpt>
      <trkpt lat="42.112664" lon="-2.644849">
        <ele>1150.1</ele>
        <time>2026-01-01T08:49:29Z</time>
      </trkpt>
      <trkpt lat="42.112553" lon="-2.644601">
        <ele>1150.6</ele>
        <time>2026-01-01T08:49:57Z</time>
      </trkpt>
      <trkpt lat="42.112434" lon="-2.644347">
        <ele>1150.2</ele>
        <time>2026-01-01T08:50:15Z</time>
      </trkpt>
      <trkpt lat="42.112314" lon="-2.644074">
        <ele>1150.0</ele>
        <time>2026-01-01T08:50:34Z</time>
      </trkpt>
      <trkpt lat="42.112190" lon="-2.643782">
        <ele>1150.0</ele>
        <time>2026-01-01T08:51:07Z</time>
      </trkpt>
      <trkpt lat="42.112071" lon="-2.643484">
        <ele>1150.0</ele>
        <time>2026-01-01T08:51:41Z</time>
      </trkpt>
      <trkpt lat="42.111970" lon="-2.643261">
        <ele>1150.3</ele>
        <time>2026-01-01T08:52:07Z</time>
      </trkpt>
      <trkpt lat="42.111860" lon="-2.643106">
        <ele>1152.0</ele>
        <time>2026-01-01T08:52:28Z</time>
      </trkpt>
      <trkpt lat="42.111718" lon="-2.643007">
        <ele>1152.0</ele>
        <time>2026-01-01T08:52:49Z</time>
      </trkpt>
      <trkpt lat="42.111548" lon="-2.642939">
        <ele>1151.3</ele>
        <time>2026-01-01T08:53:04Z</time>
      </trkpt>
      <trkpt lat="42.111373" lon="-2.642858">
        <ele>1150.3</ele>
        <time>2026-01-01T08:53:18Z</time>
      </trkpt>
      <trkpt lat="42.111217" lon="-2.642709">
        <ele>1150.6</ele>
        <time>2026-01-01T08:53:44Z</time>
      </trkpt>
      <trkpt lat="42.111070" lon="-2.642548">
        <ele>1150.3</ele>
        <time>2026-01-01T08:53:59Z</time>
      </trkpt>
      <trkpt lat="42.110914" lon="-2.642387">
        <ele>1150.2</ele>
        <time>2026-01-01T08:54:15Z</time>
      </trkpt>
      <trkpt lat="42.110726" lon="-2.642281">
        <ele>1150.0</ele>
        <time>2026-01-01T08:54:31Z</time>
      </trkpt>
      <trkpt lat="42.110914" lon="-2.642387">
        <ele>1150.2</ele>
        <time>2026-01-01T08:54:58Z</time>
      </trkpt>
      <trkpt lat="42.111070" lon="-2.642548">
        <ele>1150.3</ele>
        <time>2026-01-01T08:55:25Z</time>
      </trkpt>
      <trkpt lat="42.111217" lon="-2.642709">
        <ele>1150.6</ele>
        <time>2026-01-01T08:55:50Z</time>
      </trkpt>
      <trkpt lat="42.111373" lon="-2.642858">
        <ele>1150.3</ele>
        <time>2026-01-01T08:56:05Z</time>
      </trkpt>
      <trkpt lat="42.111548" lon="-2.642939">
        <ele>1151.3</ele>
        <time>2026-01-01T08:56:30Z</time>
      </trkpt>
      <trkpt lat="42.111718" lon="-2.643007">
        <ele>1152.0</ele>
        <time>2026-01-01T08:56:53Z</time>
      </trkpt>
      <trkpt lat="42.111860" lon="-2.643106">
        <ele>1152.0</ele>
        <time>2026-01-01T08:57:15Z</time>
      </trkpt>
      <trkpt lat="42.111970" lon="-2.643261">
        <ele>1150.3</ele>
        <time>2026-01-01T08:57:28Z</time>
      </trkpt>
      <trkpt lat="42.112071" lon="-2.643484">
        <ele>1150.0</ele>
        <time>2026-01-01T08:57:43Z</time>
      </trkpt>
      <trkpt lat="42.112190" lon="-2.643782">
        <ele>1150.0</ele>
        <time>2026-01-01T08:58:17Z</time>
      </trkpt>
      <trkpt lat="42.112314" lon="-2.644074">
        <ele>1150.0</ele>
        <time>2026-01-01T08:58:50Z</time>
      </trkpt>
      <trkpt lat="42.112434" lon="-2.644347">
        <ele>1150.2</ele>
        <time>2026-01-01T08:59:21Z</time>
      </trkpt>
      <trkpt lat="42.112553" lon="-2.644601">
        <ele>1150.6</ele>
        <time>2026-01-01T08:59:51Z</time>
      </trkpt>
      <trkpt lat="42.112664" lon="-2.644849">
        <ele>1150.1</ele>
        <time>2026-01-01T09:00:08Z</time>
      </trkpt>
      <trkpt lat="42.112760" lon="-2.645085">
        <ele>1150.0</ele>
        <time>2026-01-01T09:00:24Z</time>
      </trkpt>
      <trkpt lat="42.112861" lon="-2.645290">
        <ele>1150.0</ele>
        <time>2026-01-01T09:00:49Z</time>
      </trkpt>
      <trkpt lat="42.112948" lon="-2.645556">
        <ele>1150.0</ele>
        <time>2026-01-01T09:01:17Z</time>
      </trkpt>
      <trkpt lat="42.113026" lon="-2.645799">
        <ele>1151.5</ele>
        <time>2026-01-01T09:01:44Z</time>
      </trkpt>
      <trkpt lat="42.113132" lon="-2.645978">
        <ele>1153.3</ele>
        <time>2026-01-01T09:02:06Z</time>
      </trkpt>
      <trkpt lat="42.113251" lon="-2.646096">
        <ele>1154.6</ele>
        <time>2026-01-01T09:02:26Z</time>
      </trkpt>
      <trkpt lat="42.113343" lon="-2.646202">
        <ele>1156.1</ele>
        <time>2026-01-01T09:02:42Z</time>
      </trkpt>
      <trkpt lat="42.113426" lon="-2.646406">
        <ele>1158.8</ele>
        <time>2026-01-01T09:03:05Z</time>
      </trkpt>
      <trkpt lat="42.113540" lon="-2.646580">
        <ele>1161.3</ele>
        <time>2026-01-01T09:03:28Z</time>
      </trkpt>
      <trkpt lat="42.113669" lon="-2.646754">
        <ele>1164.6</ele>
        <time>2026-01-01T09:03:52Z</time>
      </trkpt>
      <trkpt lat="42.113848" lon="-2.646946">
        <ele>1167.3</ele>
        <time>2026-01-01T09:04:23Z</time>
      </trkpt>
      <trkpt lat="42.113999" lon="-2.647200">
        <ele>1169.1</ele>
        <time>2026-01-01T09:04:55Z</time>
      </trkpt>
      <trkpt lat="42.114137" lon="-2.647461">
        <ele>1172.2</ele>
        <time>2026-01-01T09:05:27Z</time>
      </trkpt>
      <trkpt lat="42.114270" lon="-2.647746">
        <ele>1176.4</ele>
        <time>2026-01-01T09:06:00Z</time>
      </trkpt>
      <trkpt lat="42.114399" lon="-2.648007">
        <ele>1179.3</ele>
        <time>2026-01-01T09:06:31Z</time>
      </trkpt>
      <trkpt lat="42.114509" lon="-2.648267">
        <ele>1182.4</ele>
        <time>2026-01-01T09:07:01Z</time>
      </trkpt>
      <trkpt lat="42.114614" lon="-2.648466">
        <ele>1184.6</ele>
        <time>2026-01-01T09:07:25Z</time>
      </trkpt>
      <trkpt lat="42.114729" lon="-2.648621">
        <ele>1185.7</ele>
        <time>2026-01-01T09:07:47Z</time>
      </trkpt>
      <trkpt lat="42.114853" lon="-2.648726">
        <ele>1185.2</ele>
        <time>2026-01-01T09:07:58Z</time>
      </trkpt>
      <trkpt lat="42.114954" lon="-2.648863">
        <ele>1186.4</ele>
        <time>2026-01-01T09:08:18Z</time>
      </trkpt>
      <trkpt lat="42.115018" lon="-2.649105">
        <ele>1188.9</ele>
        <time>2026-01-01T09:08:43Z</time>
      </trkpt>
      <trkpt lat="42.115083" lon="-2.649229">
        <ele>1190.0</ele>
        <time>2026-01-01T09:08:58Z</time>
      </trkpt>
      <trkpt lat="42.115243" lon="-2.649365">
        <ele>1189.3</ele>
        <time>2026-01-01T09:09:13Z</time>
      </trkpt>
      <trkpt lat="42.115418" lon="-2.649588">
        <ele>1190.3</ele>
        <time>2026-01-01T09:09:45Z</time>
      </trkpt>
      <trkpt lat="42.115597" lon="-2.649837">
        <ele>1191.1</ele>
        <time>2026-01-01T09:10:20Z</time>
      </trkpt>
      <trkpt lat="42.115772" lon="-2.650072">
        <ele>1191.4</ele>
        <time>2026-01-01T09:10:53Z</time>
      </trkpt>
      <trkpt lat="42.115914" lon="-2.650351">
        <ele>1192.9</ele>
        <time>2026-01-01T09:11:26Z</time>
      </trkpt>
      <trkpt lat="42.116047" lon="-2.650606">
        <ele>1193.6</ele>
        <time>2026-01-01T09:11:57Z</time>
      </trkpt>
      <trkpt lat="42.116167" lon="-2.650841">
        <ele>1194.2</ele>
        <time>2026-01-01T09:12:25Z</time>
      </trkpt>
      <trkpt lat="42.116277" lon="-2.651027">
        <ele>1194.6</ele>
        <time>2026-01-01T09:12:49Z</time>
      </trkpt>
      <trkpt lat="42.116378" lon="-2.651189">
        <ele>1194.9</ele>
        <time>2026-01-01T09:13:10Z</time>
      </trkpt>
      <trkpt lat="42.116474" lon="-2.651239">
        <ele>1194.1</ele>
        <time>2026-01-01T09:13:18Z</time>
      </trkpt>
      <trkpt lat="42.116580" lon="-2.651419">
        <ele>1195.4</ele>
        <time>2026-01-01T09:13:41Z</time>
      </trkpt>
      <trkpt lat="42.116681" lon="-2.651605">
        <ele>1195.9</ele>
        <time>2026-01-01T09:14:03Z</time>
      </trkpt>
      <trkpt lat="42.116727" lon="-2.651865">
        <ele>1196.4</ele>
        <time>2026-01-01T09:14:30Z</time>
      </trkpt>
      <trkpt lat="42.116731" lon="-2.652163">
        <ele>1197.4</ele>
        <time>2026-01-01T09:14:59Z</time>
      </trkpt>
      <trkpt lat="42.116740" lon="-2.652430">
        <ele>1197.3</ele>
        <time>2026-01-01T09:15:15Z</time>
      </trkpt>
      <trkpt lat="42.116772" lon="-2.652709">
        <ele>1197.0</ele>
        <time>2026-01-01T09:15:32Z</time>
      </trkpt>
      <trkpt lat="42.116813" lon="-2.652976">
        <ele>1195.4</ele>
        <time>2026-01-01T09:15:48Z</time>
      </trkpt>
      <trkpt lat="42.116804" lon="-2.653211">
        <ele>1194.6</ele>
        <time>2026-01-01T09:16:02Z</time>
      </trkpt>
      <trkpt lat="42.116794" lon="-2.653435">
        <ele>1192.1</ele>
        <time>2026-01-01T09:16:16Z</time>
      </trkpt>
      <trkpt lat="42.116776" lon="-2.653615">
        <ele>1189.5</ele>
        <time>2026-01-01T09:16:26Z</time>
      </trkpt>
      <trkpt lat="42.116803" lon="-2.653726">
        <ele>1188.0</ele>
        <time>2026-01-01T09:16:33Z</time>
      </trkpt>
      <trkpt lat="42.116794" lon="-2.653906">
        <ele>1185.1</ele>
        <time>2026-01-01T09:16:44Z</time>
      </trkpt>
      <trkpt lat="42.116711" lon="-2.654092">
        <ele>1181.9</ele>
        <time>2026-01-01T09:16:57Z</time>
      </trkpt>
      <trkpt lat="42.116651" lon="-2.654167">
        <ele>1181.4</ele>
        <time>2026-01-01T09:17:03Z</time>
      </trkpt>
      <trkpt lat="42.116651" lon="-2.654310">
        <ele>1178.1</ele>
        <time>2026-01-01T09:17:12Z</time>
      </trkpt>
      <trkpt lat="42.116605" lon="-2.654415">
        <ele>1177.4</ele>
        <time>2026-01-01T09:17:19Z</time>
      </trkpt>
      <trkpt lat="42.116499" lon="-2.654570">
        <ele>1177.6</ele>
        <time>2026-01-01T09:17:40Z</time>
      </trkpt>
      <trkpt lat="42.116416" lon="-2.654750">
        <ele>1177.1</ele>
        <time>2026-01-01T09:17:53Z</time>
      </trkpt>
      <trkpt lat="42.116361" lon="-2.654967">
        <ele>1173.1</ele>
        <time>2026-01-01T09:18:06Z</time>
      </trkpt>
      <trkpt lat="42.116314" lon="-2.655178">
        <ele>1169.2</ele>
        <time>2026-01-01T09:18:19Z</time>
      </trkpt>
      <trkpt lat="42.116209" lon="-2.655327">
        <ele>1168.6</ele>
        <time>2026-01-01T09:18:32Z</time>
      </trkpt>
      <trkpt lat="42.116061" lon="-2.655463">
        <ele>1168.4</ele>
        <time>2026-01-01T09:18:46Z</time>
      </trkpt>
      <trkpt lat="42.115905" lon="-2.655643">
        <ele>1168.4</ele>
        <time>2026-01-01T09:19:13Z</time>
      </trkpt>
      <trkpt lat="42.115762" lon="-2.655829">
        <ele>1167.9</ele>
        <time>2026-01-01T09:19:29Z</time>
      </trkpt>
      <trkpt lat="42.115647" lon="-2.656021">
        <ele>1166.8</ele>
        <time>2026-01-01T09:19:44Z</time>
      </trkpt>
      <trkpt lat="42.115550" lon="-2.656245">
        <ele>1164.3</ele>
        <time>2026-01-01T09:19:59Z</time>
      </trkpt>
      <trkpt lat="42.115449" lon="-2.656449">
        <ele>1162.9</ele>
        <time>2026-01-01T09:20:14Z</time>
      </trkpt>
      <trkpt lat="42.115352" lon="-2.656611">
        <ele>1161.4</ele>
        <time>2026-01-01T09:20:26Z</time>
      </trkpt>
      <trkpt lat="42.115278" lon="-2.656846">
        <ele>1158.5</ele>
        <time>2026-01-01T09:20:41Z</time>
      </trkpt>
      <trkpt lat="42.115209" lon="-2.657113">
        <ele>1157.1</ele>
        <time>2026-01-01T09:20:58Z</time>
      </trkpt>
      <trkpt lat="42.115177" lon="-2.657293">
        <ele>1156.8</ele>
        <time>2026-01-01T09:21:09Z</time>
      </trkpt>
      <trkpt lat="42.115200" lon="-2.657460">
        <ele>1156.9</ele>
        <time>2026-01-01T09:21:26Z</time>
      </trkpt>
      <trkpt lat="42.115282" lon="-2.657647">
        <ele>1157.5</ele>
        <time>2026-01-01T09:21:47Z</time>
      </trkpt>
      <trkpt lat="42.115406" lon="-2.657820">
        <ele>1159.6</ele>
        <time>2026-01-01T09:22:11Z</time>
      </trkpt>
      <trkpt lat="42.115512" lon="-2.657969">
        <ele>1161.2</ele>
        <time>2026-01-01T09:22:32Z</time>
      </trkpt>
      <trkpt lat="42.115599" lon="-2.658000">
        <ele>1160.9</ele>
        <time>2026-01-01T09:22:39Z</time>
      </trkpt>
      <trkpt lat="42.115718" lon="-2.658019">
        <ele>1159.8</ele>
        <time>2026-01-01T09:22:48Z</time>
      </trkpt>
      <trkpt lat="42.115847" lon="-2.658038">
        <ele>1158.5</ele>
        <time>2026-01-01T09:22:59Z</time>
      </trkpt>
      <trkpt lat="42.115962" lon="-2.658081">
        <ele>1158.1</ele>
        <time>2026-01-01T09:23:08Z</time>
      </trkpt>
      <trkpt lat="42.116063" lon="-2.658087">
        <ele>1157.0</ele>
        <time>2026-01-01T09:23:17Z</time>
      </trkpt>
      <trkpt lat="42.116178" lon="-2.658100">
        <ele>1155.7</ele>
        <time>2026-01-01T09:23:26Z</time>
      </trkpt>
      <trkpt lat="42.116265" lon="-2.658199">
        <ele>1155.2</ele>
        <time>2026-01-01T09:23:35Z</time>
      </trkpt>
      <trkpt lat="42.116370" lon="-2.658410">
        <ele>1154.6</ele>
        <time>2026-01-01T09:23:50Z</time>
      </trkpt>
      <trkpt lat="42.116508" lon="-2.658652">
        <ele>1154.1</ele>
        <time>2026-01-01T09:24:08Z</time>
      </trkpt>
      <trkpt lat="42.116637" lon="-2.658931">
        <ele>1152.7</ele>
        <time>2026-01-01T09:24:28Z</time>
      </trkpt>
      <trkpt lat="42.116706" lon="-2.659222">
        <ele>1151.8</ele>
        <time>2026-01-01T09:24:46Z</time>
      </trkpt>
      <trkpt lat="42.116701" lon="-2.659502">
        <ele>1151.0</ele>
        <time>2026-01-01T09:25:02Z</time>
      </trkpt>
      <trkpt lat="42.116622" lon="-2.659799">
        <ele>1150.2</ele>
        <time>2026-01-01T09:25:21Z</time>
      </trkpt>
      <trkpt lat="42.116512" lon="-2.660054">
        <ele>1148.3</ele>
        <time>2026-01-01T09:25:39Z</time>
      </trkpt>
      <trkpt lat="42.116374" lon="-2.660314">
        <ele>1143.9</ele>
        <time>2026-01-01T09:25:58Z</time>
      </trkpt>
      <trkpt lat="42.116194" lon="-2.660544">
        <ele>1141.4</ele>
        <time>2026-01-01T09:26:17Z</time>
      </trkpt>
      <trkpt lat="42.116006" lon="-2.660792">
        <ele>1140.6</ele>
        <time>2026-01-01T09:26:39Z</time>
      </trkpt>
      <trkpt lat="42.115821" lon="-2.661040">
        <ele>1138.7</ele>
        <time>2026-01-01T09:26:59Z</time>
      </trkpt>
      <trkpt lat="42.115646" lon="-2.661263">
        <ele>1134.9</ele>
        <time>2026-01-01T09:27:19Z</time>
      </trkpt>
      <trkpt lat="42.115444" lon="-2.661455">
        <ele>1133.8</ele>
        <time>2026-01-01T09:27:39Z</time>
      </trkpt>
      <trkpt lat="42.115246" lon="-2.661642">
        <ele>1132.9</ele>
        <time>2026-01-01T09:27:58Z</time>
      </trkpt>
      <trkpt lat="42.115081" lon="-2.661890">
        <ele>1131.5</ele>
        <time>2026-01-01T09:28:18Z</time>
      </trkpt>
      <trkpt lat="42.114901" lon="-2.662200">
        <ele>1126.4</ele>
        <time>2026-01-01T09:28:41Z</time>
      </trkpt>
      <trkpt lat="42.114745" lon="-2.662510">
        <ele>1119.8</ele>
        <time>2026-01-01T09:29:03Z</time>
      </trkpt>
      <trkpt lat="42.114583" lon="-2.662808">
        <ele>1117.3</ele>
        <time>2026-01-01T09:29:25Z</time>
      </trkpt>
      <trkpt lat="42.114404" lon="-2.663081">
        <ele>1113.9</ele>
        <time>2026-01-01T09:29:47Z</time>
      </trkpt>
      <trkpt lat="42.114211" lon="-2.663354">
        <ele>1113.7</ele>
        <time>2026-01-01T09:30:09Z</time>
      </trkpt>
      <trkpt lat="42.114040" lon="-2.663627">
        <ele>1112.1</ele>
        <time>2026-01-01T09:30:30Z</time>
      </trkpt>
      <trkpt lat="42.113893" lon="-2.663856">
        <ele>1110.6</ele>
        <time>2026-01-01T09:30:48Z</time>
      </trkpt>
      <trkpt lat="42.113778" lon="-2.664098">
        <ele>1108.1</ele>
        <time>2026-01-01T09:31:06Z</time>
      </trkpt>
      <trkpt lat="42.113681" lon="-2.664396">
        <ele>1106.1</ele>
        <time>2026-01-01T09:31:25Z</time>
      </trkpt>
      <trkpt lat="42.113616" lon="-2.664712">
        <ele>1101.2</ele>
        <time>2026-01-01T09:31:44Z</time>
      </trkpt>
      <trkpt lat="42.113598" lon="-2.665022">
        <ele>1095.2</ele>
        <time>2026-01-01T09:32:03Z</time>
      </trkpt>
      <trkpt lat="42.113551" lon="-2.665320">
        <ele>1090.8</ele>
        <time>2026-01-01T09:32:21Z</time>
      </trkpt>
      <trkpt lat="42.113436" lon="-2.665518">
        <ele>1090.8</ele>
        <time>2026-01-01T09:32:46Z</time>
      </trkpt>
      <trkpt lat="42.113335" lon="-2.665679">
        <ele>1089.7</ele>
        <time>2026-01-01T09:32:58Z</time>
      </trkpt>
      <trkpt lat="42.113280" lon="-2.665915">
        <ele>1084.6</ele>
        <time>2026-01-01T09:33:13Z</time>
      </trkpt>
      <trkpt lat="42.113197" lon="-2.666151">
        <ele>1080.4</ele>
        <time>2026-01-01T09:33:29Z</time>
      </trkpt>
      <trkpt lat="42.113058" lon="-2.666399">
        <ele>1078.0</ele>
        <time>2026-01-01T09:33:47Z</time>
      </trkpt>
      <trkpt lat="42.112861" lon="-2.666666">
        <ele>1080.4</ele>
        <time>2026-01-01T09:34:24Z</time>
      </trkpt>
      <trkpt lat="42.112677" lon="-2.666945">
        <ele>1078.0</ele>
        <time>2026-01-01T09:34:46Z</time>
      </trkpt>
      <trkpt lat="42.112529" lon="-2.667348">
        <ele>1072.3</ele>
        <time>2026-01-01T09:35:13Z</time>
      </trkpt>
      <trkpt lat="42.112433" lon="-2.667757">
        <ele>1067.6</ele>
        <time>2026-01-01T09:35:39Z</time>
      </trkpt>
      <trkpt lat="42.112281" lon="-2.668073">
        <ele>1065.9</ele>
        <time>2026-01-01T09:36:01Z</time>
      </trkpt>
      <trkpt lat="42.112133" lon="-2.668420">
        <ele>1063.5</ele>
        <time>2026-01-01T09:36:25Z</time>
      </trkpt>
      <trkpt lat="42.111963" lon="-2.668681">
        <ele>1062.0</ele>
        <time>2026-01-01T09:36:45Z</time>
      </trkpt>
      <trkpt lat="42.111857" lon="-2.668836">
        <ele>1061.8</ele>
        <time>2026-01-01T09:36:58Z</time>
      </trkpt>
      <trkpt lat="42.111885" lon="-2.668960">
        <ele>1059.3</ele>
        <time>2026-01-01T09:37:06Z</time>
      </trkpt>
      <trkpt lat="42.111967" lon="-2.669252">
        <ele>1055.6</ele>
        <time>2026-01-01T09:37:24Z</time>
      </trkpt>
      <trkpt lat="42.112022" lon="-2.669556">
        <ele>1051.6</ele>
        <time>2026-01-01T09:37:43Z</time>
      </trkpt>
      <trkpt lat="42.112017" lon="-2.669884">
        <ele>1049.7</ele>
        <time>2026-01-01T09:38:02Z</time>
      </trkpt>
      <trkpt lat="42.111999" lon="-2.670256">
        <ele>1048.6</ele>
        <time>2026-01-01T09:38:24Z</time>
      </trkpt>
      <trkpt lat="42.111994" lon="-2.670585">
        <ele>1047.2</ele>
        <time>2026-01-01T09:38:44Z</time>
      </trkpt>
      <trkpt lat="42.112008" lon="-2.670920">
        <ele>1044.3</ele>
        <time>2026-01-01T09:39:04Z</time>
      </trkpt>
      <trkpt lat="42.111994" lon="-2.671199">
        <ele>1042.4</ele>
        <time>2026-01-01T09:39:20Z</time>
      </trkpt>
      <trkpt lat="42.112026" lon="-2.671341">
        <ele>1040.9</ele>
        <time>2026-01-01T09:39:29Z</time>
      </trkpt>
      <trkpt lat="42.112030" lon="-2.671602">
        <ele>1039.4</ele>
        <time>2026-01-01T09:39:45Z</time>
      </trkpt>
      <trkpt lat="42.111998" lon="-2.671862">
        <ele>1038.0</ele>
        <time>2026-01-01T09:40:00Z</time>
      </trkpt>
      <trkpt lat="42.111933" lon="-2.672154">
        <ele>1037.1</ele>
        <time>2026-01-01T09:40:18Z</time>
      </trkpt>
      <trkpt lat="42.112004" lon="-2.672228">
        <ele>1035.5</ele>
        <time>2026-01-01T09:40:26Z</time>
      </trkpt>
    </trkseg>
  </trk>
</gpx>
