<?xml version="1.0" encoding="UTF-8" standalone="no" ?>
<gpx xmlns="http://www.topografix.com/GPX/1/1" creator="CompeGPS" version="1.1" xmlns:xsi="http://www.w3.org/2001/XMLSchema-instance" xsi:schemaLocation="http://www.topografix.com/GPX/1/1 http://www.topografix.com/GPX/1/1/gpx.xsd">
  <metadata>
    <time>2026-01-01T08:00:00Z</time>
    <bounds maxlat="42.353050" maxlon="-2.416848" minlat="42.348030" minlon="-2.426347"/>
  </metadata>
  <trk>
    <name>latur (ida y vuelta)</name>
    <trkseg>
      <trkpt lat="42.349393" lon="-2.426347">
        <ele>870.8</ele>
        <time>2026-01-01T08:00:00Z</time>
      </trkpt>
      <trkpt lat="42.349345" lon="-2.426161">
        <ele>873.5</ele>
        <time>2026-01-01T08:00:19Z</time>
      </trkpt>
      <trkpt lat="42.349363" lon="-2.425999">
        <ele>875.7</ele>
        <time>2026-01-01T08:00:35Z</time>
      </trkpt>
      <trkpt lat="42.349368" lon="-2.425873">
        <ele>877.1</ele>
        <time>2026-01-01T08:00:48Z</time>
      </trkpt>
      <trkpt lat="42.349245" lon="-2.425863">
        <ele>879.2</ele>
        <time>2026-01-01T08:01:04Z</time>
      </trkpt>
      <trkpt lat="42.349089" lon="-2.425837">
        <ele>881.1</ele>
        <time>2026-01-01T08:01:25Z</time>
      </trkpt>
      <trkpt lat="42.348911" lon="-2.425744">
        <ele>883.1</ele>
        <time>2026-01-01T08:01:50Z</time>
      </trkpt>
      <trkpt lat="42.348794" lon="-2.425623">
        <ele>884.2</ele>
        <time>2026-01-01T08:02:10Z</time>
      </trkpt>
      <trkpt lat="42.348715" lon="-2.425453">
        <ele>887.0</ele>
        <time>2026-01-01T08:02:30Z</time>
      </trkpt>
      <trkpt lat="42.348637" lon="-2.425227">
        <ele>888.1</ele>
        <time>2026-01-01T08:02:54Z</time>
      </trkpt>
      <trkpt lat="42.348551" lon="-2.425029">
        <ele>888.1</ele>
        <time>2026-01-01T08:03:17Z</time>
      </trkpt>
      <trkpt lat="42.348428" lon="-2.424829">
        <ele>888.7</ele>
        <time>2026-01-01T08:03:43Z</time>
      </trkpt>
      <trkpt lat="42.348294" lon="-2.424624">
        <ele>889.8</ele>
        <time>2026-01-01T08:04:10Z</time>
      </trkpt>
      <trkpt lat="42.348215" lon="-2.424424">
        <ele>888.8</ele>
        <time>2026-01-01T08:04:23Z</time>
      </trkpt>
      <trkpt lat="42.348191" lon="-2.424242">
        <ele>889.6</ele>
        <time>2026-01-01T08:04:41Z</time>
      </trkpt>
      <trkpt lat="42.348119" lon="-2.424137">
        <ele>889.1</ele>
        <time>2026-01-01T08:04:50Z</time>
      </trkpt>
      <trkpt lat="42.348029" lon="-2.424054">
        <ele>887.6</ele>
        <time>2026-01-01T08:04:59Z</time>
      </trkpt>
      <trkpt lat="42.348040" lon="-2.423906">
        <ele>890.4</ele>
        <time>2026-01-01T08:05:13Z</time>
      </trkpt>
      <trkpt lat="42.348048" lon="-2.423641">
        <ele>893.9</ele>
        <time>2026-01-01T08:05:39Z</time>
      </trkpt>
      <trkpt lat="42.348055" lon="-2.423381">
        <ele>896.6</ele>
        <time>2026-01-01T08:06:05Z</time>
      </trkpt>
      <trkpt lat="42.348089" lon="-2.423200">
        <ele>899.0</ele>
        <time>2026-01-01T08:06:23Z</time>
      </trkpt>
      <trkpt lat="42.348168" lon="-2.423107">
        <ele>900.1</ele>
        <time>2026-01-01T08:06:37Z</time>
      </trkpt>
      <trkpt lat="42.348260" lon="-2.423102">
        <ele>900.0</ele>
        <time>2026-01-01T08:06:45Z</time>
      </trkpt>
      <trkpt lat="42.348365" lon="-2.423128">
        <ele>901.8</ele>
        <time>2026-01-01T08:06:59Z</time>
      </trkpt>
      <trkpt lat="42.348494" lon="-2.423116">
        <ele>901.8</ele>
        <time>2026-01-01T08:07:16Z</time>
      </trkpt>
      <trkpt lat="42.348658" lon="-2.423066">
        <ele>902.6</ele>
        <time>2026-01-01T08:07:39Z</time>
      </trkpt>
      <trkpt lat="42.348825" lon="-2.422971">
        <ele>902.5</ele>
        <time>2026-01-01T08:07:53Z</time>
      </trkpt>
      <trkpt lat="42.349010" lon="-2.422892">
        <ele>903.2</ele>
        <time>2026-01-01T08:08:19Z</time>
      </trkpt>
      <trkpt lat="42.349167" lon="-2.422871">
        <ele>904.0</ele>
        <time>2026-01-01T08:08:40Z</time>
      </trkpt>
      <trkpt lat="42.349287" lon="-2.422885">
        <ele>905.4</ele>
        <time>2026-01-01T08:08:56Z</time>
      </trkpt>
      <trkpt lat="42.349397" lon="-2.422849">
        <ele>906.1</ele>
        <time>2026-01-01T08:09:11Z</time>
      </trkpt>
      <trkpt lat="42.349513" lon="-2.422773">
        <ele>906.5</ele>
        <time>2026-01-01T08:09:29Z</time>
      </trkpt>
      <trkpt lat="42.349631" lon="-2.422780">
        <ele>907.9</ele>
        <time>2026-01-01T08:09:44Z</time>
      </trkpt>
      <trkpt lat="42.349758" lon="-2.422794">
        <ele>906.5</ele>
        <time>2026-01-01T08:09:55Z</time>
      </trkpt>
      <trkpt lat="42.349903" lon="-2.422808">
        <ele>906.4</ele>
        <time>2026-01-01T08:10:06Z</time>
      </trkpt>
      <trkpt lat="42.350045" lon="-2.422827">
        <ele>905.3</ele>
        <time>2026-01-01T08:10:18Z</time>
      </trkpt>
      <trkpt lat="42.350187" lon="-2.422810">
        <ele>904.9</ele>
        <time>2026-01-01T08:10:29Z</time>
      </trkpt>
      <trkpt lat="42.350329" lon="-2.422724">
        <ele>903.5</ele>
        <time>2026-01-01T08:10:41Z</time>
      </trkpt>
      <trkpt lat="42.350469" lon="-2.422660">
        <ele>904.2</ele>
        <time>2026-01-01T08:11:01Z</time>
      </trkpt>
      <trkpt lat="42.350608" lon="-2.422581">
        <ele>907.3</ele>
        <time>2026-01-01T08:11:21Z</time>
      </trkpt>
      <trkpt lat="42.350715" lon="-2.422474">
        <ele>912.8</ele>
        <time>2026-01-01T08:11:39Z</time>
      </trkpt>
      <trkpt lat="42.350802" lon="-2.422278">
        <ele>917.0</ele>
        <time>2026-01-01T08:12:02Z</time>
      </trkpt>
      <trkpt lat="42.350908" lon="-2.422064">
        <ele>921.6</ele>
        <time>2026-01-01T08:12:27Z</time>
      </trkpt>
      <trkpt lat="42.351040" lon="-2.421852">
        <ele>928.5</ele>
        <time>2026-01-01T08:12:54Z</time>
      </trkpt>
      <trkpt lat="42.351135" lon="-2.421625">
        <ele>930.8</ele>
        <time>2026-01-01T08:13:20Z</time>
      </trkpt>
      <trkpt lat="42.351230" lon="-2.421432">
        <ele>933.4</ele>
        <time>2026-01-01T08:13:43Z</time>
      </trkpt>
      <trkpt lat="42.351340" lon="-2.421232">
        <ele>938.1</ele>
        <time>2026-01-01T08:14:08Z</time>
      </trkpt>
      <trkpt lat="42.351393" lon="-2.421056">
        <ele>941.8</ele>
        <time>2026-01-01T08:14:26Z</time>
      </trkpt>
      <trkpt lat="42.351409" lon="-2.420858">
        <ele>942.5</ele>
        <time>2026-01-01T08:14:46Z</time>
      </trkpt>
      <trkpt lat="42.351420" lon="-2.420615">
        <ele>944.6</ele>
        <time>2026-01-01T08:15:10Z</time>
      </trkpt>
      <trkpt lat="42.351458" lon="-2.420372">
        <ele>947.0</ele>
        <time>2026-01-01T08:15:34Z</time>
      </trkpt>
      <trkpt lat="42.351531" lon="-2.420176">
        <ele>952.0</ele>
        <time>2026-01-01T08:15:56Z</time>
      </trkpt>
      <trkpt lat="42.351582" lon="-2.419943">
        <ele>954.6</ele>
        <time>2026-01-01T08:16:20Z</time>
      </trkpt>
      <trkpt lat="42.351633" lon="-2.419769">
        <ele>954.6</ele>
        <time>2026-01-01T08:16:38Z</time>
      </trkpt>
      <trkpt lat="42.351692" lon="-2.419735">
        <ele>956.2</ele>
        <time>2026-01-01T08:16:47Z</time>
      </trkpt>
      <trkpt lat="42.351727" lon="-2.419735">
        <ele>957.5</ele>
        <time>2026-01-01T08:16:52Z</time>
      </trkpt>
      <trkpt lat="42.351710" lon="-2.419816">
        <ele>959.5</ele>
        <time>2026-01-01T08:17:00Z</time>
      </trkpt>
      <trkpt lat="42.351694" lon="-2.419952">
        <ele>961.3</ele>
        <time>2026-01-01T08:17:14Z</time>
      </trkpt>
      <trkpt lat="42.351698" lon="-2.420069">
        <ele>962.3</ele>
        <time>2026-01-01T08:17:25Z</time>
      </trkpt>
      <trkpt lat="42.351688" lon="-2.420133">
        <ele>962.0</ele>
        <time>2026-01-01T08:17:29Z</time>
      </trkpt>
      <trkpt lat="42.351690" lon="-2.420176">
        <ele>962.2</ele>
        <time>2026-01-01T08:17:33Z</time>
      </trkpt>
      <trkpt lat="42.351703" lon="-2.420211">
        <ele>963.0</ele>
        <time>2026-01-01T08:17:37Z</time>
      </trkpt>
      <trkpt lat="42.351726" lon="-2.420210">
        <ele>964.6</ele>
        <time>2026-01-01T08:17:40Z</time>
      </trkpt>
      <trkpt lat="42.351748" lon="-2.420173">
        <ele>965.8</ele>
        <time>2026-01-01T08:17:45Z</time>
      </trkpt>
      <trkpt lat="42.351767" lon="-2.420128">
        <ele>966.2</ele>
        <time>2026-01-01T08:17:50Z</time>
      </trkpt>
      <trkpt lat="42.351784" lon="-2.420157">
        <ele>967.6</ele>
        <time>2026-01-01T08:17:54Z</time>
      </trkpt>
      <trkpt lat="42.351795" lon="-2.420197">
        <ele>969.3</ele>
        <time>2026-01-01T08:17:58Z</time>
      </trkpt>
      <trkpt lat="42.351817" lon="-2.420220">
        <ele>971.8</ele>
        <time>2026-01-01T08:18:02Z</time>
      </trkpt>
      <trkpt lat="42.351831" lon="-2.420188">
        <ele>972.2</ele>
        <time>2026-01-01T08:18:05Z</time>
      </trkpt>
      <trkpt lat="42.351838" lon="-2.420129">
        <ele>971.1</ele>
        <time>2026-01-01T08:18:09Z</time>
      </trkpt>
      <trkpt lat="42.351860" lon="-2.420074">
        <ele>971.2</ele>
        <time>2026-01-01T08:18:15Z</time>
      </trkpt>
      <trkpt lat="42.351890" lon="-2.420052">
        <ele>972.5</ele>
        <time>2026-01-01T08:18:19Z</time>
      </trkpt>
      <trkpt lat="42.351936" lon="-2.420035">
        <ele>974.4</ele>
        <time>2026-01-01T08:18:26Z</time>
      </trkpt>
      <trkpt lat="42.351974" lon="-2.420019">
        <ele>975.7</ele>
        <time>2026-01-01T08:18:31Z</time>
      </trkpt>
      <trkpt lat="42.352017" lon="-2.420015">
        <ele>977.4</ele>
        <time>2026-01-01T08:18:37Z</time>
      </trkpt>
      <trkpt lat="42.352045" lon="-2.420036">
        <ele>979.7</ele>
        <time>2026-01-01T08:18:41Z</time>
      </trkpt>
      <trkpt lat="42.352081" lon="-2.420024">
        <ele>980.8</ele>
        <time>2026-01-01T08:18:46Z</time>
      </trkpt>
      <trkpt lat="42.352122" lon="-2.420018">
        <ele>982.4</ele>
        <time>2026-01-01T08:18:52Z</time>
      </trkpt>
      <trkpt lat="42.352171" lon="-2.420016">
        <ele>984.6</ele>
        <time>2026-01-01T08:18:58Z</time>
      </trkpt>
      <trkpt lat="42.352220" lon="-2.420003">
        <ele>986.0</ele>
        <time>2026-01-01T08:19:05Z</time>
      </trkpt>
      <trkpt lat="42.352275" lon="-2.419997">
        <ele>989.2</ele>
        <time>2026-01-01T08:19:12Z</time>
      </trkpt>
      <trkpt lat="42.352319" lon="-2.419975">
        <ele>991.7</ele>
        <time>2026-01-01T08:19:18Z</time>
      </trkpt>
      <trkpt lat="42.352362" lon="-2.419944">
        <ele>993.8</ele>
        <time>2026-01-01T08:19:25Z</time>
      </trkpt>
      <trkpt lat="42.352399" lon="-2.419930">
        <ele>996.0</ele>
        <time>2026-01-01T08:19:30Z</time>
      </trkpt>
      <trkpt lat="42.352435" lon="-2.419902">
        <ele>998.2</ele>
        <time>2026-01-01T08:19:36Z</time>
      </trkpt>
      <trkpt lat="42.352465" lon="-2.419870">
        <ele>1000.1</ele>
        <time>2026-01-01T08:19:41Z</time>
      </trkpt>
      <trkpt lat="42.352480" lon="-2.419818">
        <ele>1000.1</ele>
        <time>2026-01-01T08:19:46Z</time>
      </trkpt>
      <trkpt lat="42.352493" lon="-2.419769">
        <ele>999.6</ele>
        <time>2026-01-01T08:19:49Z</time>
      </trkpt>
      <trkpt lat="42.352521" lon="-2.419725">
        <ele>1000.4</ele>
        <time>2026-01-01T08:19:55Z</time>
      </trkpt>
      <trkpt lat="42.352558" lon="-2.419677">
        <ele>1002.1</ele>
        <time>2026-01-01T08:20:02Z</time>
      </trkpt>
      <trkpt lat="42.352595" lon="-2.419624">
        <ele>1003.7</ele>
        <time>2026-01-01T08:20:09Z</time>
      </trkpt>
      <trkpt lat="42.352614" lon="-2.419574">
        <ele>1003.4</ele>
        <time>2026-01-01T08:20:12Z</time>
      </trkpt>
      <trkpt lat="42.352648" lon="-2.419530">
        <ele>1004.9</ele>
        <time>2026-01-01T08:20:19Z</time>
      </trkpt>
      <trkpt lat="42.352678" lon="-2.419486">
        <ele>1006.7</ele>
        <time>2026-01-01T08:20:25Z</time>
      </trkpt>
      <trkpt lat="42.352720" lon="-2.419443">
        <ele>1009.5</ele>
        <time>2026-01-01T08:20:32Z</time>
      </trkpt>
      <trkpt lat="42.352730" lon="-2.419391">
        <ele>1009.4</ele>
        <time>2026-01-01T08:20:35Z</time>
      </trkpt>
      <trkpt lat="42.352751" lon="-2.419328">
        <ele>1010.4</ele>
        <time>2026-01-01T08:20:42Z</time>
      </trkpt>
      <trkpt lat="42.352761" lon="-2.419270">
        <ele>1010.8</ele>
        <time>2026-01-01T08:20:47Z</time>
      </trkpt>
      <trkpt lat="42.352758" lon="-2.419214">
        <ele>1009.9</ele>
        <time>2026-01-01T08:20:51Z</time>
      </trkpt>
      <trkpt lat="42.352766" lon="-2.419162">
        <ele>1009.6</ele>
        <time>2026-01-01T08:20:54Z</time>
      </trkpt>
      <trkpt lat="42.352778" lon="-2.419118">
        <ele>1009.8</ele>
        <time>2026-01-01T08:20:59Z</time>
      </trkpt>
      <trkpt lat="42.352798" lon="-2.419078">
        <ele>1011.5</ele>
        <time>2026-01-01T08:21:03Z</time>
      </trkpt>
      <trkpt lat="42.352818" lon="-2.419023">
        <ele>1013.1</ele>
        <time>2026-01-01T08:21:09Z</time>
      </trkpt>
      <trkpt lat="42.352831" lon="-2.418996">
        <ele>1014.2</ele>
        <time>2026-01-01T08:21:13Z</time>
      </trkpt>
      <trkpt lat="42.352831" lon="-2.418948">
        <ele>1014.0</ele>
        <time>2026-01-01T08:21:15Z</time>
      </trkpt>
      <trkpt lat="42.352853" lon="-2.418898">
        <ele>1015.8</ele>
        <time>2026-01-01T08:21:21Z</time>
      </trkpt>
      <trkpt lat="42.352870" lon="-2.418846">
        <ele>1017.2</ele>
        <time>2026-01-01T08:21:27Z</time>
      </trkpt>
      <trkpt lat="42.352888" lon="-2.418782">
        <ele>1018.5</ele>
        <time>2026-01-01T08:21:33Z</time>
      </trkpt>
      <trkpt lat="42.352899" lon="-2.418716">
        <ele>1018.8</ele>
        <time>2026-01-01T08:21:40Z</time>
      </trkpt>
      <trkpt lat="42.352916" lon="-2.418649">
        <ele>1019.3</ele>
        <time>2026-01-01T08:21:47Z</time>
      </trkpt>
      <trkpt lat="42.352942" lon="-2.418584">
        <ele>1020.6</ele>
        <time>2026-01-01T08:21:54Z</time>
      </trkpt>
      <trkpt lat="42.352949" lon="-2.418513">
        <ele>1020.6</ele>
        <time>2026-01-01T08:22:01Z</time>
      </trkpt>
      <trkpt lat="42.352939" lon="-2.418468">
        <ele>1020.2</ele>
        <time>2026-01-01T08:22:04Z</time>
      </trkpt>
      <trkpt lat="42.352949" lon="-2.418420">
        <ele>1020.7</ele>
        <time>2026-01-01T08:22:09Z</time>
      </trkpt>
      <trkpt lat="42.352956" lon="-2.418358">
        <ele>1021.7</ele>
        <time>2026-01-01T08:22:15Z</time>
      </trkpt>
      <trkpt lat="42.352954" lon="-2.418299">
        <ele>1022.6</ele>
        <time>2026-01-01T08:22:21Z</time>
      </trkpt>
      <trkpt lat="42.352954" lon="-2.418229">
        <ele>1023.4</ele>
        <time>2026-01-01T08:22:28Z</time>
      </trkpt>
      <trkpt lat="42.352971" lon="-2.418157">
        <ele>1024.0</ele>
        <time>2026-01-01T08:22:36Z</time>
      </trkpt>
      <trkpt lat="42.352986" lon="-2.418086">
        <ele>1024.4</ele>
        <time>2026-01-01T08:22:43Z</time>
      </trkpt>
      <trkpt lat="42.352982" lon="-2.418017">
        <ele>1024.7</ele>
        <time>2026-01-01T08:22:50Z</time>
      </trkpt>
      <trkpt lat="42.352976" lon="-2.417946">
        <ele>1024.9</ele>
        <time>2026-01-01T08:22:57Z</time>
      </trkpt>
      <trkpt lat="42.352989" lon="-2.417875">
        <ele>1025.6</ele>
        <time>2026-01-01T08:23:04Z</time>
      </trkpt>
      <trkpt lat="42.353000" lon="-2.417823">
        <ele>1026.5</ele>
        <time>2026-01-01T08:23:09Z</time>
      </trkpt>
      <trkpt lat="42.353016" lon="-2.417793">
        <ele>1027.0</ele>
        <time>2026-01-01T08:23:13Z</time>
      </trkpt>
      <trkpt lat="42.353031" lon="-2.417748">
        <ele>1027.7</ele>
        <time>2026-01-01T08:23:18Z</time>
      </trkpt>
      <trkpt lat="42.353042" lon="-2.417696">
        <ele>1028.5</ele>
        <time>2026-01-01T08:23:23Z</time>
      </trkpt>
      <trkpt lat="42.353047" lon="-2.417640">
        <ele>1028.9</ele>
        <time>2026-01-01T08:23:29Z</time>
      </trkpt>
      <trkpt lat="42.353050" lon="-2.417600">
        <ele>1029.0</ele>
        <time>2026-01-01T08:23:33Z</time>
      </trkpt>
      <trkpt lat="42.353038" lon="-2.417566">
        <ele>1029.8</ele>
        <time>2026-01-01T08:23:36Z</time>
      </trkpt>
      <trkpt lat="42.353043" lon="-2.417524">
        <ele>1029.8</ele>
        <time>2026-01-01T08:23:41Z</time>
      </trkpt>
      <trkpt lat="42.353040" lon="-2.417483">
        <ele>1030.0</ele>
        <time>2026-01-01T08:23:45Z</time>
      </trkpt>
      <trkpt lat="42.353026" lon="-2.417447">
        <ele>1029.5</ele>
        <time>2026-01-01T08:23:47Z</time>
      </trkpt>
      <trkpt lat="42.353020" lon="-2.417408">
        <ele>1029.5</ele>
        <time>2026-01-01T08:23:51Z</time>
      </trkpt>
      <trkpt lat="42.353020" lon="-2.417354">
        <ele>1030.1</ele>
        <time>2026-01-01T08:23:56Z</time>
      </trkpt>
      <trkpt lat="42.353034" lon="-2.417304">
        <ele>1030.9</ele>
        <time>2026-01-01T08:24:02Z</time>
      </trkpt>
      <trkpt lat="42.353025" lon="-2.417263">
        <ele>1031.7</ele>
        <time>2026-01-01T08:24:06Z</time>
      </trkpt>
      <trkpt lat="42.353022" lon="-2.417218">
        <ele>1032.7</ele>
        <time>2026-01-01T08:24:10Z</time>
      </trkpt>
      <trkpt lat="42.353016" lon="-2.417169">
        <ele>1033.4</ele>
        <time>2026-01-01T08:24:15Z</time>
      </trkpt>
      <trkpt lat="42.353011" lon="-2.417114">
        <ele>1034.0</ele>
        <time>2026-01-01T08:24:21Z</time>
      </trkpt>
      <trkpt lat="42.353012" lon="-2.417056">
        <ele>1034.7</ele>
        <time>2026-01-01T08:24:26Z</time>
      </trkpt>
      <trkpt lat="42.353016" lon="-2.417011">
        <ele>1034.9</ele>
        <time>2026-01-01T08:24:31Z</time>
      </trkpt>
      <trkpt lat="42.353022" lon="-2.416974">
        <ele>1035.0</ele>
        <time>2026-01-01T08:24:34Z</time>
      </trkpt>
      <trkpt lat="42.353023" lon="-2.416928">
        <ele>1034.9</ele>
        <time>2026-01-01T08:24:37Z</time>
      </trkpt>
      <trkpt lat="42.353023" lon="-2.416885">
        <ele>1034.8</ele>
        <time>2026-01-01T08:24:40Z</time>
      </trkpt>
      <trkpt lat="42.353026" lon="-2.416848">
        <ele>1034.7</ele>
        <time>2026-01-01T08:24:42Z</time>
      </trkpt>
      <trkpt lat="42.353023" lon="-2.416885">
        <ele>1034.8</ele>
        <time>2026-01-01T08:24:46Z</time>
      </trkpt>
      <trkpt lat="42.353023" lon="-2.416928">
        <ele>1034.9</ele>
        <time>2026-01-01T08:24:50Z</time>
      </trkpt>
      <trkpt lat="42.353022" lon="-2.416974">
        <ele>1035.0</ele>
        <time>2026-01-01T08:24:54Z</time>
      </trkpt>
      <trkpt lat="42.353016" lon="-2.417011">
        <ele>1034.9</ele>
        <time>2026-01-01T08:24:57Z</time>
      </trkpt>
      <trkpt lat="42.353012" lon="-2.417056">
        <ele>1034.7</ele>
        <time>2026-01-01T08:24:59Z</time>
      </trkpt>
      <trkpt lat="42.353011" lon="-2.417114">
        <ele>1034.0</ele>
        <time>2026-01-01T08:25:03Z</time>
      </trkpt>
      <trkpt lat="42.353016" lon="-2.417169">
        <ele>1033.4</ele>
        <time>2026-01-01T08:25:06Z</time>
      </trkpt>
      <trkpt lat="42.353022" lon="-2.417218">
        <ele>1032.7</ele>
        <time>2026-01-01T08:25:09Z</time>
      </trkpt>
      <trkpt lat="42.353025" lon="-2.417263">
        <ele>1031.7</ele>
        <time>2026-01-01T08:25:12Z</time>
      </trkpt>
      <trkpt lat="42.353034" lon="-2.417304">
        <ele>1030.9</ele>
        <time>2026-01-01T08:25:14Z</time>
      </trkpt>
      <trkpt lat="42.353020" lon="-2.417354">
        <ele>1030.1</ele>
        <time>2026-01-01T08:25:17Z</time>
      </trkpt>
      <trkpt lat="42.353020" lon="-2.417408">
        <ele>1029.5</ele>
        <time>2026-01-01T08:25:21Z</time>
      </trkpt>
      <trkpt lat="42.353026" lon="-2.417447">
        <ele>1029.5</ele>
        <time>2026-01-01T08:25:24Z</time>
      </trkpt>
      <trkpt lat="42.353040" lon="-2.417483">
        <ele>1030.0</ele>
        <time>2026-01-01T08:25:28Z</time>
      </trkpt>
      <trkpt lat="42.353043" lon="-2.417524">
        <ele>1029.8</ele>
        <time>2026-01-01T08:25:31Z</time>
      </trkpt>
      <trkpt lat="42.353038" lon="-2.417566">
        <ele>1029.8</ele>
        <time>2026-01-01T08:25:35Z</time>
      </trkpt>
      <trkpt lat="42.353050" lon="-2.417600">
        <ele>1029.0</ele>
        <time>2026-01-01T08:25:37Z</time>
      </trkpt>
      <trkpt lat="42.353047" lon="-2.417640">
        <ele>1028.9</ele>
        <time>2026-01-01T08:25:40Z</time>
      </trkpt>
      <trkpt lat="42.353042" lon="-2.417696">
        <ele>1028.5</ele>
        <time>2026-01-01T08:25:43Z</time>
      </trkpt>
      <trkpt lat="42.353031" lon="-2.417748">
        <ele>1027.7</ele>
        <time>2026-01-01T08:25:46Z</time>
      </trkpt>
      <trkpt lat="42.353016" lon="-2.417793">
        <ele>1027.0</ele>
        <time>2026-01-01T08:25:49Z</time>
      </trkpt>
      <trkpt lat="42.353000" lon="-2.417823">
        <ele>1026.5</ele>
        <time>2026-01-01T08:25:51Z</time>
      </trkpt>
      <trkpt lat="42.352989" lon="-2.417875">
        <ele>1025.6</ele>
        <time>2026-01-01T08:25:55Z</time>
      </trkpt>
      <trkpt lat="42.352976" lon="-2.417946">
        <ele>1024.9</ele>
        <time>2026-01-01T08:25:59Z</time>
      </trkpt>
      <trkpt lat="42.352982" lon="-2.418017">
        <ele>1024.7</ele>
        <time>2026-01-01T08:26:03Z</time>
      </trkpt>
      <trkpt lat="42.352986" lon="-2.418086">
        <ele>1024.4</ele>
        <time>2026-01-01T08:26:07Z</time>
      </trkpt>
      <trkpt lat="42.352971" lon="-2.418157">
        <ele>1024.0</ele>
        <time>2026-01-01T08:26:12Z</time>
      </trkpt>
      <trkpt lat="42.352954" lon="-2.418229">
        <ele>1023.4</ele>
        <time>2026-01-01T08:26:16Z</time>
      </trkpt>
      <trkpt lat="42.352954" lon="-2.418299">
        <ele>1022.6</ele>
        <time>2026-01-01T08:26:20Z</time>
      </trkpt>
      <trkpt lat="42.352956" lon="-2.418358">
        <ele>1021.7</ele>
        <time>2026-01-01T08:26:24Z</time>
      </trkpt>
      <trkpt lat="42.352949" lon="-2.418420">
        <ele>1020.7</ele>
        <time>2026-01-01T08:26:27Z</time>
      </trkpt>
      <trkpt lat="42.352939" lon="-2.418468">
        <ele>1020.2</ele>
        <time>2026-01-01T08:26:30Z</time>
      </trkpt>
      <trkpt lat="42.352949" lon="-2.418513">
        <ele>1020.6</ele>
        <time>2026-01-01T08:26:35Z</time>
      </trkpt>
      <trkpt lat="42.352942" lon="-2.418584">
        <ele>1020.6</ele>
        <time>2026-01-01T08:26:42Z</time>
      </trkpt>
      <trkpt lat="42.352916" lon="-2.418649">
        <ele>1019.3</ele>
        <time>2026-01-01T08:26:46Z</time>
      </trkpt>
      <trkpt lat="42.352899" lon="-2.418716">
        <ele>1018.8</ele>
        <time>2026-01-01T08:26:51Z</time>
      </trkpt>
      <trkpt lat="42.352888" lon="-2.418782">
        <ele>1018.5</ele>
        <time>2026-01-01T08:26:55Z</time>
      </trkpt>
      <trkpt lat="42.352870" lon="-2.418846">
        <ele>1017.2</ele>
        <time>2026-01-01T08:26:59Z</time>
      </trkpt>
      <trkpt lat="42.352853" lon="-2.418898">
        <ele>1015.8</ele>
        <time>2026-01-01T08:27:02Z</time>
      </trkpt>
      <trkpt lat="42.352831" lon="-2.418948">
        <ele>1014.0</ele>
        <time>2026-01-01T08:27:05Z</time>
      </trkpt>
      <trkpt lat="42.352831" lon="-2.418996">
        <ele>1014.2</ele>
        <time>2026-01-01T08:27:10Z</time>
      </trkpt>
      <trkpt lat="42.352818" lon="-2.419023">
        <ele>1013.1</ele>
        <time>2026-01-01T08:27:12Z</time>
      </trkpt>
      <trkpt lat="42.352798" lon="-2.419078">
        <ele>1011.5</ele>
        <time>2026-01-01T08:27:16Z</time>
      </trkpt>
      <trkpt lat="42.352778" lon="-2.419118">
        <ele>1009.8</ele>
        <time>2026-01-01T08:27:19Z</time>
      </trkpt>
      <trkpt lat="42.352766" lon="-2.419162">
        <ele>1009.6</ele>
        <time>2026-01-01T08:27:21Z</time>
      </trkpt>
      <trkpt lat="42.352758" lon="-2.419214">
        <ele>1009.9</ele>
        <time>2026-01-01T08:27:27Z</time>
      </trkpt>
      <trkpt lat="42.352761" lon="-2.419270">
        <ele>1010.8</ele>
        <time>2026-01-01T08:27:32Z</time>
      </trkpt>
      <trkpt lat="42.352751" lon="-2.419328">
        <ele>1010.4</ele>
        <time>2026-01-01T08:27:36Z</time>
      </trkpt>
      <trkpt lat="42.352730" lon="-2.419391">
        <ele>1009.4</ele>
        <time>2026-01-01T08:27:40Z</time>
      </trkpt>
      <trkpt lat="42.352720" lon="-2.419443">
        <ele>1009.5</ele>
        <time>2026-01-01T08:27:45Z</time>
      </trkpt>
      <trkpt lat="42.352678" lon="-2.419486">
        <ele>1006.7</ele>
        <time>2026-01-01T08:27:49Z</time>
      </trkpt>
      <trkpt lat="42.352648" lon="-2.419530">
        <ele>1004.9</ele>
        <time>2026-01-01T08:27:53Z</time>
      </trkpt>
      <trkpt lat="42.352614" lon="-2.419574">
        <ele>1003.4</ele>
        <time>2026-01-01T08:27:57Z</time>
      </trkpt>
      <trkpt lat="42.352595" lon="-2.419624">
        <ele>1003.7</ele>
        <time>2026-01-01T08:28:02Z</time>
      </trkpt>
      <trkpt lat="42.352558" lon="-2.419677">
        <ele>1002.1</ele>
        <time>2026-01-01T08:28:06Z</time>
      </trkpt>
      <trkpt lat="42.352521" lon="-2.419725">
        <ele>1000.4</ele>
        <time>2026-01-01T08:28:11Z</time>
      </trkpt>
      <trkpt lat="42.352493" lon="-2.419769">
        <ele>999.6</ele>
        <time>2026-01-01T08:28:14Z</time>
      </trkpt>
      <trkpt lat="42.352480" lon="-2.419818">
        <ele>1000.1</ele>
        <time>2026-01-01T08:28:19Z</time>
      </trkpt>
      <trkpt lat="42.352465" lon="-2.419870">
        <ele>1000.1</ele>
        <time>2026-01-01T08:28:25Z</time>
      </trkpt>
      <trkpt lat="42.352435" lon="-2.419902">
        <ele>998.2</ele>
        <time>2026-01-01T08:28:28Z</time>
      </trkpt>
      <trkpt lat="42.352399" lon="-2.419930">
        <ele>996.0</ele>
        <time>2026-01-01T08:28:31Z</time>
      </trkpt>
      <trkpt lat="42.352362" lon="-2.419944">
        <ele>993.8</ele>
        <time>2026-01-01T08:28:34Z</time>
      </trkpt>
      <trkpt lat="42.352319" lon="-2.419975">
        <ele>991.7</ele>
        <time>2026-01-01T08:28:38Z</time>
      </trkpt>
      <trkpt lat="42.352275" lon="-2.419997">
        <ele>989.2</ele>
        <time>2026-01-01T08:28:42Z</time>
      </trkpt>
      <trkpt lat="42.352220" lon="-2.420003">
        <ele>986.0</ele>
        <time>2026-01-01T08:28:46Z</time>
      </trkpt>
      <trkpt lat="42.352171" lon="-2.420016">
        <ele>984.6</ele>
        <time>2026-01-01T08:28:50Z</time>
      </trkpt>
      <trkpt lat="42.352122" lon="-2.420018">
        <ele>982.4</ele>
        <time>2026-01-01T08:28:54Z</time>
      </trkpt>
      <trkpt lat="42.352081" lon="-2.420024">
        <ele>980.8</ele>
        <time>2026-01-01T08:28:57Z</time>
      </trkpt>
      <trkpt lat="42.352045" lon="-2.420036">
        <ele>979.7</ele>
        <time>2026-01-01T08:29:00Z</time>
      </trkpt>
      <trkpt lat="42.352017" lon="-2.420015">
        <ele>977.4</ele>
        <time>2026-01-01T08:29:03Z</time>
      </trkpt>
      <trkpt lat="42.351974" lon="-2.420019">
        <ele>975.7</ele>
        <time>2026-01-01T08:29:06Z</time>
      </trkpt>
      <trkpt lat="42.351936" lon="-2.420035">
        <ele>974.4</ele>
        <time>2026-01-01T08:29:10Z</time>
      </trkpt>
      <trkpt lat="42.351890" lon="-2.420052">
        <ele>972.5</ele>
        <time>2026-01-01T08:29:13Z</time>
      </trkpt>
      <trkpt lat="42.351860" lon="-2.420074">
        <ele>971.2</ele>
        <time>2026-01-01T08:29:16Z</time>
      </trkpt>
      <trkpt lat="42.351838" lon="-2.420129">
        <ele>971.1</ele>
        <time>2026-01-01T08:29:20Z</time>
      </trkpt>
      <trkpt lat="42.351831" lon="-2.420188">
        <ele>972.2</ele>
        <time>2026-01-01T08:29:26Z</time>
      </trkpt>
      <trkpt lat="42.351817" lon="-2.420220">
        <ele>971.8</ele>
        <time>2026-01-01T08:29:28Z</time>
      </trkpt>
      <trkpt lat="42.351795" lon="-2.420197">
        <ele>969.3</ele>
        <time>2026-01-01T08:29:30Z</time>
      </trkpt>
      <trkpt lat="42.351784" lon="-2.420157">
        <ele>967.6</ele>
        <time>2026-01-01T08:29:33Z</time>
      </trkpt>
      <trkpt lat="42.351767" lon="-2.420128">
        <ele>966.2</ele>
        <time>2026-01-01T08:29:35Z</time>
      </trkpt>
      <trkpt lat="42.351748" lon="-2.420173">
        <ele>965.8</ele>
        <time>2026-01-01T08:29:38Z</time>
      </trkpt>
      <trkpt lat="42.351726" lon="-2.420210">
        <ele>964.6</ele>
        <time>2026-01-01T08:29:41Z</time>
      </trkpt>
      <trkpt lat="42.351703" lon="-2.420211">
        <ele>963.0</ele>
        <time>2026-01-01T08:29:43Z</time>
      </trkpt>
      <trkpt lat="42.351690" lon="-2.420176">
        <ele>962.2</ele>
        <time>2026-01-01T08:29:45Z</time>
      </trkpt>
      <trkpt lat="42.351688" lon="-2.420133">
        <ele>962.0</ele>
        <time>2026-01-01T08:29:47Z</time>
      </trkpt>
      <trkpt lat="42.351698" lon="-2.420069">
        <ele>962.3</ele>
        <time>2026-01-01T08:29:54Z</time>
      </trkpt>
      <trkpt lat="42.351694" lon="-2.419952">
        <ele>961.3</ele>
        <time>2026-01-01T08:30:01Z</time>
      </trkpt>
      <trkpt lat="42.351710" lon="-2.419816">
        <ele>959.5</ele>
        <time>2026-01-01T08:30:09Z</time>
      </trkpt>
      <trkpt lat="42.351727" lon="-2.419735">
        <ele>957.5</ele>
        <time>2026-01-01T08:30:14Z</time>
      </trkpt>
      <trkpt lat="42.351692" lon="-2.419735">
        <ele>956.2</ele>
        <time>2026-01-01T08:30:17Z</time>
      </trkpt>
      <trkpt lat="42.351633" lon="-2.419769">
        <ele>954.6</ele>
        <time>2026-01-01T08:30:22Z</time>
      </trkpt>
      <trkpt lat="42.351582" lon="-2.419943">
        <ele>954.6</ele>
        <time>2026-01-01T08:30:40Z</time>
      </trkpt>
      <trkpt lat="42.351531" lon="-2.420176">
        <ele>952.0</ele>
        <time>2026-01-01T08:30:55Z</time>
      </trkpt>
      <trkpt lat="42.351458" lon="-2.420372">
        <ele>947.0</ele>
        <time>2026-01-01T08:31:08Z</time>
      </trkpt>
      <trkpt lat="42.351420" lon="-2.420615">
        <ele>944.6</ele>
        <time>2026-01-01T08:31:22Z</time>
      </trkpt>
      <trkpt lat="42.351409" lon="-2.420858">
        <ele>942.5</ele>
        <time>2026-01-01T08:31:37Z</time>
      </trkpt>
      <trkpt lat="42.351393" lon="-2.421056">
        <ele>941.8</ele>
        <time>2026-01-01T08:31:49Z</time>
      </trkpt>
      <trkpt lat="42.351340" lon="-2.421232">
        <ele>938.1</ele>
        <time>2026-01-01T08:32:00Z</time>
      </trkpt>
      <trkpt lat="42.351230" lon="-2.421432">
        <ele>933.4</ele>
        <time>2026-01-01T08:32:15Z</time>
      </trkpt>
      <trkpt lat="42.351135" lon="-2.421625">
        <ele>930.8</ele>
        <time>2026-01-01T08:32:28Z</time>
      </trkpt>
      <trkpt lat="42.351040" lon="-2.421852">
        <ele>928.5</ele>
        <time>2026-01-01T08:32:44Z</time>
      </trkpt>
      <trkpt lat="42.350908" lon="-2.422064">
        <ele>921.6</ele>
        <time>2026-01-01T08:33:00Z</time>
      </trkpt>
      <trkpt lat="42.350802" lon="-2.422278">
        <ele>917.0</ele>
        <time>2026-01-01T08:33:15Z</time>
      </trkpt>
      <trkpt lat="42.350715" lon="-2.422474">
        <ele>912.8</ele>
        <time>2026-01-01T08:33:29Z</time>
      </trkpt>
      <trkpt lat="42.350608" lon="-2.422581">
        <ele>907.3</ele>
        <time>2026-01-01T08:33:40Z</time>
      </trkpt>
      <trkpt lat="42.350469" lon="-2.422660">
        <ele>904.2</ele>
        <time>2026-01-01T08:33:52Z</time>
      </trkpt>
      <trkpt lat="42.350329" lon="-2.422724">
        <ele>903.5</ele>
        <time>2026-01-01T08:34:03Z</time>
      </trkpt>
      <trkpt lat="42.350187" lon="-2.422810">
        <ele>904.9</ele>
        <time>2026-01-01T08:34:24Z</time>
      </trkpt>
      <trkpt lat="42.350045" lon="-2.422827">
        <ele>905.3</ele>
        <time>2026-01-01T08:34:43Z</time>
      </trkpt>
      <trkpt lat="42.349903" lon="-2.422808">
        <ele>906.4</ele>
        <time>2026-01-01T08:35:02Z</time>
      </trkpt>
      <trkpt lat="42.349758" lon="-2.422794">
        <ele>906.5</ele>
        <time>2026-01-01T08:35:22Z</time>
      </trkpt>
      <trkpt lat="42.349631" lon="-2.422780">
        <ele>907.9</ele>
        <time>2026-01-01T08:35:39Z</time>
      </trkpt>
      <trkpt lat="42.349513" lon="-2.422773">
        <ele>906.5</ele>
        <time>2026-01-01T08:35:48Z</time>
      </trkpt>
      <trkpt lat="42.349397" lon="-2.422849">
        <ele>906.1</ele>
        <time>2026-01-01T08:35:58Z</time>
      </trkpt>
      <trkpt lat="42.349287" lon="-2.422885">
        <ele>905.4</ele>
        <time>2026-01-01T08:36:07Z</time>
      </trkpt>
      <trkpt lat="42.349167" lon="-2.422871">
        <ele>904.0</ele>
        <time>2026-01-01T08:36:17Z</time>
      </trkpt>
      <trkpt lat="42.349010" lon="-2.422892">
        <ele>903.2</ele>
        <time>2026-01-01T08:36:30Z</time>
      </trkpt>
      <trkpt lat="42.348825" lon="-2.422971">
        <ele>902.5</ele>
        <time>2026-01-01T08:36:45Z</time>
      </trkpt>
      <trkpt lat="42.348658" lon="-2.423066">
        <ele>902.6</ele>
        <time>2026-01-01T08:37:09Z</time>
      </trkpt>
      <trkpt lat="42.348494" lon="-2.423116">
        <ele>901.8</ele>
        <time>2026-01-01T08:37:23Z</time>
      </trkpt>
      <trkpt lat="42.348365" lon="-2.423128">
        <ele>901.8</ele>
        <time>2026-01-01T08:37:40Z</time>
      </trkpt>
      <trkpt lat="42.348260" lon="-2.423102">
        <ele>900.0</ele>
        <time>2026-01-01T08:37:49Z</time>
      </trkpt>
      <trkpt lat="42.348168" lon="-2.423107">
        <ele>900.1</ele>
        <time>2026-01-01T08:38:01Z</time>
      </trkpt>
      <trkpt lat="42.348089" lon="-2.423200">
        <ele>899.0</ele>
        <time>2026-01-01T08:38:09Z</time>
      </trkpt>
      <trkpt lat="42.348055" lon="-2.423381">
        <ele>896.6</ele>
        <time>2026-01-01T08:38:20Z</time>
      </trkpt>
      <trkpt lat="42.348048" lon="-2.423641">
        <ele>893.9</ele>
        <time>2026-01-01T08:38:36Z</time>
      </trkpt>
      <trkpt lat="42.348040" lon="-2.423906">
        <ele>890.4</ele>
        <time>2026-01-01T08:38:52Z</time>
      </trkpt>
      <trkpt lat="42.348029" lon="-2.424054">
        <ele>887.6</ele>
        <time>2026-01-01T08:39:00Z</time>
      </trkpt>
      <trkpt lat="42.348119" lon="-2.424137">
        <ele>889.1</ele>
        <time>2026-01-01T08:39:15Z</time>
      </trkpt>
      <trkpt lat="42.348191" lon="-2.424242">
        <ele>889.6</ele>
        <time>2026-01-01T08:39:29Z</time>
      </trkpt>
      <trkpt lat="42.348215" lon="-2.424424">
        <ele>888.8</ele>
        <time>2026-01-01T08:39:40Z</time>
      </trkpt>
      <trkpt lat="42.348294" lon="-2.424624">
        <ele>889.8</ele>
        <time>2026-01-01T08:40:02Z</time>
      </trkpt>
      <trkpt lat="42.348428" lon="-2.424829">
        <ele>888.7</ele>
        <time>2026-01-01T08:40:18Z</time>
      </trkpt>
      <trkpt lat="42.348551" lon="-2.425029">
        <ele>888.1</ele>
        <time>2026-01-01T08:40:34Z</time>
      </trkpt>
      <trkpt lat="42.348637" lon="-2.425227">
        <ele>888.1</ele>
        <time>2026-01-01T08:40:57Z</time>
      </trkpt>
      <trkpt lat="42.348715" lon="-2.425453">
        <ele>887.0</ele>
        <time>2026-01-01T08:41:11Z</time>
      </trkpt>
      <trkpt lat="42.348794" lon="-2.425623">
        <ele>884.2</ele>
        <time>2026-01-01T08:41:23Z</time>
      </trkpt>
      <trkpt lat="42.348911" lon="-2.425744">
        <ele>883.1</ele>
        <time>2026-01-01T08:41:35Z</time>
      </trkpt>
      <trkpt lat="42.349089" lon="-2.425837">
        <ele>881.1</ele>
        <time>2026-01-01T08:41:50Z</time>
      </trkpt>
      <trkpt lat="42.349245" lon="-2.425863">
        <ele>879.2</ele>
        <time>2026-01-01T08:42:03Z</time>
      </trkpt>
      <trkpt lat="42.349368" lon="-2.425873">
        <ele>877.1</ele>
        <time>2026-01-01T08:42:13Z</time>
      </trkpt>
      <trkpt lat="42.349363" lon="-2.425999">
        <ele>875.7</ele>
        <time>2026-01-01T08:42:20Z</time>
      </trkpt>
      <trkpt lat="42.349345" lon="-2.426161">
        <ele>873.5</ele>
        <time>2026-01-01T08:42:30Z</time>
      </trkpt>
      <trkpt lat="42.349393" lon="-2.426347">
        <ele>870.8</ele>
        <time>2026-01-01T08:42:41Z</time>
      </trkpt>
    </trkseg>
  </trk>
</gpx>
