<?xml version="1.0" encoding="UTF-8" standalone="no" ?>
<gpx xmlns="http://www.topografix.com/GPX/1/1" creator="CompeGPS" version="1.1" xmlns:xsi="http://www.w3.org/2001/XMLSchema-instance" xsi:schemaLocation="http://www.topografix.com/GPX/1/1 http://www.topografix.com/GPX/1/1/gpx.xsd">
  <metadata>
    <time>2026-01-01T08:00:00Z</time>
    <bounds maxlat="42.183412" maxlon="-2.849389" minlat="42.155513" minlon="-2.878450"/>
  </metadata>
  <trk>
    <name>hiedra (ida y vuelta)</name>
    <trkseg>
      <trkpt lat="42.183412" lon="-2.860758">
        <ele>790.8</ele>
        <time>2026-01-01T08:00:00Z</time>
      </trkpt>
      <trkpt lat="42.183149" lon="-2.860487">
        <ele>786.0</ele>
        <time>2026-01-01T08:00:26Z</time>
      </trkpt>
      <trkpt lat="42.183132" lon="-2.859951">
        <ele>793.7</ele>
        <time>2026-01-01T08:01:19Z</time>
      </trkpt>
      <trkpt lat="42.183201" lon="-2.859447">
        <ele>797.5</ele>
        <time>2026-01-01T08:02:10Z</time>
      </trkpt>
      <trkpt lat="42.183075" lon="-2.858958">
        <ele>807.7</ele>
        <time>2026-01-01T08:03:01Z</time>
      </trkpt>
      <trkpt lat="42.182868" lon="-2.858531">
        <ele>816.5</ele>
        <time>2026-01-01T08:03:51Z</time>
      </trkpt>
      <trkpt lat="42.182650" lon="-2.858058">
        <ele>823.5</ele>
        <time>2026-01-01T08:04:46Z</time>
      </trkpt>
      <trkpt lat="42.182438" lon="-2.857461">
        <ele>834.2</ele>
        <time>2026-01-01T08:05:52Z</time>
      </trkpt>
      <trkpt lat="42.182352" lon="-2.857344">
        <ele>837.7</ele>
        <time>2026-01-01T08:06:08Z</time>
      </trkpt>
      <trkpt lat="42.182248" lon="-2.857515">
        <ele>841.6</ele>
        <time>2026-01-01T08:06:30Z</time>
      </trkpt>
      <trkpt lat="42.182134" lon="-2.857872">
        <ele>851.9</ele>
        <time>2026-01-01T08:07:08Z</time>
      </trkpt>
      <trkpt lat="42.181973" lon="-2.858399">
        <ele>858.4</ele>
        <time>2026-01-01T08:08:05Z</time>
      </trkpt>
      <trkpt lat="42.181795" lon="-2.858934">
        <ele>861.4</ele>
        <time>2026-01-01T08:09:03Z</time>
      </trkpt>
      <trkpt lat="42.181697" lon="-2.859477">
        <ele>873.9</ele>
        <time>2026-01-01T08:09:58Z</time>
      </trkpt>
      <trkpt lat="42.181692" lon="-2.859982">
        <ele>878.9</ele>
        <time>2026-01-01T08:10:48Z</time>
      </trkpt>
      <trkpt lat="42.181640" lon="-2.860370">
        <ele>881.5</ele>
        <time>2026-01-01T08:11:27Z</time>
      </trkpt>
      <trkpt lat="42.181382" lon="-2.860641">
        <ele>885.4</ele>
        <time>2026-01-01T08:12:11Z</time>
      </trkpt>
      <trkpt lat="42.181037" lon="-2.860897">
        <ele>887.3</ele>
        <time>2026-01-01T08:13:03Z</time>
      </trkpt>
      <trkpt lat="42.180675" lon="-2.861184">
        <ele>894.3</ele>
        <time>2026-01-01T08:13:59Z</time>
      </trkpt>
      <trkpt lat="42.180278" lon="-2.861478">
        <ele>911.9</ele>
        <time>2026-01-01T08:15:00Z</time>
      </trkpt>
      <trkpt lat="42.179974" lon="-2.861851">
        <ele>915.0</ele>
        <time>2026-01-01T08:15:54Z</time>
      </trkpt>
      <trkpt lat="42.179646" lon="-2.862130">
        <ele>916.1</ele>
        <time>2026-01-01T08:16:46Z</time>
      </trkpt>
      <trkpt lat="42.179445" lon="-2.862433">
        <ele>919.2</ele>
        <time>2026-01-01T08:17:26Z</time>
      </trkpt>
      <trkpt lat="42.179394" lon="-2.862805">
        <ele>924.2</ele>
        <time>2026-01-01T08:18:04Z</time>
      </trkpt>
      <trkpt lat="42.179336" lon="-2.863208">
        <ele>923.6</ele>
        <time>2026-01-01T08:18:28Z</time>
      </trkpt>
      <trkpt lat="42.179371" lon="-2.863604">
        <ele>927.7</ele>
        <time>2026-01-01T08:19:08Z</time>
      </trkpt>
      <trkpt lat="42.179423" lon="-2.864038">
        <ele>942.1</ele>
        <time>2026-01-01T08:19:51Z</time>
      </trkpt>
      <trkpt lat="42.179550" lon="-2.864434">
        <ele>949.8</ele>
        <time>2026-01-01T08:20:34Z</time>
      </trkpt>
      <trkpt lat="42.179728" lon="-2.864806">
        <ele>950.1</ele>
        <time>2026-01-01T08:21:18Z</time>
      </trkpt>
      <trkpt lat="42.179642" lon="-2.865078">
        <ele>951.1</ele>
        <time>2026-01-01T08:21:47Z</time>
      </trkpt>
      <trkpt lat="42.179447" lon="-2.865318">
        <ele>952.6</ele>
        <time>2026-01-01T08:22:22Z</time>
      </trkpt>
      <trkpt lat="42.179194" lon="-2.865620">
        <ele>953.6</ele>
        <time>2026-01-01T08:23:07Z</time>
      </trkpt>
      <trkpt lat="42.179038" lon="-2.865915">
        <ele>954.9</ele>
        <time>2026-01-01T08:23:43Z</time>
      </trkpt>
      <trkpt lat="42.179016" lon="-2.866303">
        <ele>951.9</ele>
        <time>2026-01-01T08:24:06Z</time>
      </trkpt>
      <trkpt lat="42.179010" lon="-2.866745">
        <ele>954.9</ele>
        <time>2026-01-01T08:24:50Z</time>
      </trkpt>
      <trkpt lat="42.179079" lon="-2.867133">
        <ele>952.6</ele>
        <time>2026-01-01T08:25:13Z</time>
      </trkpt>
      <trkpt lat="42.178987" lon="-2.867358">
        <ele>958.6</ele>
        <time>2026-01-01T08:25:39Z</time>
      </trkpt>
      <trkpt lat="42.178896" lon="-2.867614">
        <ele>962.3</ele>
        <time>2026-01-01T08:26:07Z</time>
      </trkpt>
      <trkpt lat="42.178792" lon="-2.867870">
        <ele>969.3</ele>
        <time>2026-01-01T08:26:36Z</time>
      </trkpt>
      <trkpt lat="42.178614" lon="-2.868056">
        <ele>980.6</ele>
        <time>2026-01-01T08:27:06Z</time>
      </trkpt>
      <trkpt lat="42.178465" lon="-2.868095">
        <ele>988.5</ele>
        <time>2026-01-01T08:27:26Z</time>
      </trkpt>
      <trkpt lat="42.178241" lon="-2.868157">
        <ele>1000.4</ele>
        <time>2026-01-01T08:27:57Z</time>
      </trkpt>
      <trkpt lat="42.177965" lon="-2.868351">
        <ele>1014.9</ele>
        <time>2026-01-01T08:28:38Z</time>
      </trkpt>
      <trkpt lat="42.177712" lon="-2.868723">
        <ele>1021.2</ele>
        <time>2026-01-01T08:29:28Z</time>
      </trkpt>
      <trkpt lat="42.177454" lon="-2.869297">
        <ele>1024.3</ele>
        <time>2026-01-01T08:30:34Z</time>
      </trkpt>
      <trkpt lat="42.177402" lon="-2.869848">
        <ele>1024.0</ele>
        <time>2026-01-01T08:31:07Z</time>
      </trkpt>
      <trkpt lat="42.177374" lon="-2.870608">
        <ele>1033.1</ele>
        <time>2026-01-01T08:32:23Z</time>
      </trkpt>
      <trkpt lat="42.177357" lon="-2.871136">
        <ele>1034.6</ele>
        <time>2026-01-01T08:33:15Z</time>
      </trkpt>
      <trkpt lat="42.177179" lon="-2.871609">
        <ele>1039.0</ele>
        <time>2026-01-01T08:34:07Z</time>
      </trkpt>
      <trkpt lat="42.176891" lon="-2.872059">
        <ele>1044.4</ele>
        <time>2026-01-01T08:35:06Z</time>
      </trkpt>
      <trkpt lat="42.176535" lon="-2.872555">
        <ele>1049.8</ele>
        <time>2026-01-01T08:36:14Z</time>
      </trkpt>
      <trkpt lat="42.176339" lon="-2.872982">
        <ele>1051.1</ele>
        <time>2026-01-01T08:37:04Z</time>
      </trkpt>
      <trkpt lat="42.176380" lon="-2.873378">
        <ele>1060.2</ele>
        <time>2026-01-01T08:37:44Z</time>
      </trkpt>
      <trkpt lat="42.176593" lon="-2.873626">
        <ele>1058.7</ele>
        <time>2026-01-01T08:38:06Z</time>
      </trkpt>
      <trkpt lat="42.176766" lon="-2.873928">
        <ele>1063.3</ele>
        <time>2026-01-01T08:38:44Z</time>
      </trkpt>
      <trkpt lat="42.176915" lon="-2.874262">
        <ele>1067.7</ele>
        <time>2026-01-01T08:39:22Z</time>
      </trkpt>
      <trkpt lat="42.176841" lon="-2.874696">
        <ele>1079.3</ele>
        <time>2026-01-01T08:40:06Z</time>
      </trkpt>
      <trkpt lat="42.176715" lon="-2.874976">
        <ele>1077.4</ele>
        <time>2026-01-01T08:40:26Z</time>
      </trkpt>
      <trkpt lat="42.176450" lon="-2.875038">
        <ele>1081.6</ele>
        <time>2026-01-01T08:41:02Z</time>
      </trkpt>
      <trkpt lat="42.176151" lon="-2.875263">
        <ele>1083.2</ele>
        <time>2026-01-01T08:41:47Z</time>
      </trkpt>
      <trkpt lat="42.175772" lon="-2.875550">
        <ele>1085.1</ele>
        <time>2026-01-01T08:42:45Z</time>
      </trkpt>
      <trkpt lat="42.175347" lon="-2.875805">
        <ele>1089.8</ele>
        <time>2026-01-01T08:43:47Z</time>
      </trkpt>
      <trkpt lat="42.174956" lon="-2.876085">
        <ele>1091.3</ele>
        <time>2026-01-01T08:44:47Z</time>
      </trkpt>
      <trkpt lat="42.174697" lon="-2.876325">
        <ele>1093.5</ele>
        <time>2026-01-01T08:45:28Z</time>
      </trkpt>
      <trkpt lat="42.174473" lon="-2.876659">
        <ele>1094.4</ele>
        <time>2026-01-01T08:46:13Z</time>
      </trkpt>
      <trkpt lat="42.174226" lon="-2.877008">
        <ele>1100.9</ele>
        <time>2026-01-01T08:47:01Z</time>
      </trkpt>
      <trkpt lat="42.173973" lon="-2.877357">
        <ele>1105.8</ele>
        <time>2026-01-01T08:47:49Z</time>
      </trkpt>
      <trkpt lat="42.173824" lon="-2.877783">
        <ele>1114.7</ele>
        <time>2026-01-01T08:48:36Z</time>
      </trkpt>
      <trkpt lat="42.173606" lon="-2.878226">
        <ele>1122.8</ele>
        <time>2026-01-01T08:49:28Z</time>
      </trkpt>
      <trkpt lat="42.173353" lon="-2.878450">
        <ele>1125.6</ele>
        <time>2026-01-01T08:50:09Z</time>
      </trkpt>
      <trkpt lat="42.173095" lon="-2.878396">
        <ele>1126.3</ele>
        <time>2026-01-01T08:50:43Z</time>
      </trkpt>
      <trkpt lat="42.172802" lon="-2.878404">
        <ele>1126.5</ele>
        <time>2026-01-01T08:51:22Z</time>
      </trkpt>
      <trkpt lat="42.172537" lon="-2.878280">
        <ele>1121.3</ele>
        <time>2026-01-01T08:51:45Z</time>
      </trkpt>
      <trkpt lat="42.172233" lon="-2.877985">
        <ele>1123.6</ele>
        <time>2026-01-01T08:52:35Z</time>
      </trkpt>
      <trkpt lat="42.171888" lon="-2.877713">
        <ele>1119.7</ele>
        <time>2026-01-01T08:53:07Z</time>
      </trkpt>
      <trkpt lat="42.171612" lon="-2.877480">
        <ele>1118.3</ele>
        <time>2026-01-01T08:53:33Z</time>
      </trkpt>
      <trkpt lat="42.171267" lon="-2.877566">
        <ele>1113.6</ele>
        <time>2026-01-01T08:54:01Z</time>
      </trkpt>
      <trkpt lat="42.170917" lon="-2.877713">
        <ele>1112.2</ele>
        <time>2026-01-01T08:54:30Z</time>
      </trkpt>
      <trkpt lat="42.170577" lon="-2.877813">
        <ele>1112.6</ele>
        <time>2026-01-01T08:55:17Z</time>
      </trkpt>
      <trkpt lat="42.170290" lon="-2.877658">
        <ele>1113.4</ele>
        <time>2026-01-01T08:55:58Z</time>
      </trkpt>
      <trkpt lat="42.170095" lon="-2.877480">
        <ele>1119.9</ele>
        <time>2026-01-01T08:56:29Z</time>
      </trkpt>
      <trkpt lat="42.169894" lon="-2.877270">
        <ele>1120.8</ele>
        <time>2026-01-01T08:57:03Z</time>
      </trkpt>
      <trkpt lat="42.169744" lon="-2.876859">
        <ele>1127.5</ele>
        <time>2026-01-01T08:57:49Z</time>
      </trkpt>
      <trkpt lat="42.169561" lon="-2.876541">
        <ele>1131.3</ele>
        <time>2026-01-01T08:58:29Z</time>
      </trkpt>
      <trkpt lat="42.169383" lon="-2.876308">
        <ele>1129.9</ele>
        <time>2026-01-01T08:58:48Z</time>
      </trkpt>
      <trkpt lat="42.169159" lon="-2.876129">
        <ele>1132.6</ele>
        <time>2026-01-01T08:59:23Z</time>
      </trkpt>
      <trkpt lat="42.168894" lon="-2.876168">
        <ele>1137.8</ele>
        <time>2026-01-01T08:59:59Z</time>
      </trkpt>
      <trkpt lat="42.168682" lon="-2.876261">
        <ele>1133.9</ele>
        <time>2026-01-01T09:00:17Z</time>
      </trkpt>
      <trkpt lat="42.168457" lon="-2.876059">
        <ele>1132.4</ele>
        <time>2026-01-01T09:00:38Z</time>
      </trkpt>
      <trkpt lat="42.168222" lon="-2.875795">
        <ele>1131.6</ele>
        <time>2026-01-01T09:01:03Z</time>
      </trkpt>
      <trkpt lat="42.167980" lon="-2.875462">
        <ele>1136.7</ele>
        <time>2026-01-01T09:01:49Z</time>
      </trkpt>
      <trkpt lat="42.167791" lon="-2.875112">
        <ele>1137.1</ele>
        <time>2026-01-01T09:02:32Z</time>
      </trkpt>
      <trkpt lat="42.167647" lon="-2.874686">
        <ele>1135.5</ele>
        <time>2026-01-01T09:02:59Z</time>
      </trkpt>
      <trkpt lat="42.167435" lon="-2.874383">
        <ele>1134.5</ele>
        <time>2026-01-01T09:03:24Z</time>
      </trkpt>
      <trkpt lat="42.167084" lon="-2.874289">
        <ele>1131.6</ele>
        <time>2026-01-01T09:03:53Z</time>
      </trkpt>
      <trkpt lat="42.166693" lon="-2.874165">
        <ele>1133.2</ele>
        <time>2026-01-01T09:04:46Z</time>
      </trkpt>
      <trkpt lat="42.166256" lon="-2.874072">
        <ele>1134.4</ele>
        <time>2026-01-01T09:05:45Z</time>
      </trkpt>
      <trkpt lat="42.165802" lon="-2.873932">
        <ele>1135.2</ele>
        <time>2026-01-01T09:06:48Z</time>
      </trkpt>
      <trkpt lat="42.165480" lon="-2.873614">
        <ele>1132.4</ele>
        <time>2026-01-01T09:07:19Z</time>
      </trkpt>
      <trkpt lat="42.165262" lon="-2.872993">
        <ele>1130.6</ele>
        <time>2026-01-01T09:08:00Z</time>
      </trkpt>
      <trkpt lat="42.165130" lon="-2.872380">
        <ele>1129.8</ele>
        <time>2026-01-01T09:08:38Z</time>
      </trkpt>
      <trkpt lat="42.165204" lon="-2.871720">
        <ele>1136.2</ele>
        <time>2026-01-01T09:09:44Z</time>
      </trkpt>
      <trkpt lat="42.165222" lon="-2.870983">
        <ele>1136.1</ele>
        <time>2026-01-01T09:10:28Z</time>
      </trkpt>
      <trkpt lat="42.165360" lon="-2.870487">
        <ele>1135.6</ele>
        <time>2026-01-01T09:10:59Z</time>
      </trkpt>
      <trkpt lat="42.165567" lon="-2.870067">
        <ele>1137.1</ele>
        <time>2026-01-01T09:11:49Z</time>
      </trkpt>
      <trkpt lat="42.165642" lon="-2.869695">
        <ele>1137.7</ele>
        <time>2026-01-01T09:12:27Z</time>
      </trkpt>
      <trkpt lat="42.165401" lon="-2.869384">
        <ele>1136.8</ele>
        <time>2026-01-01T09:12:54Z</time>
      </trkpt>
      <trkpt lat="42.165056" lon="-2.869128">
        <ele>1136.3</ele>
        <time>2026-01-01T09:13:26Z</time>
      </trkpt>
      <trkpt lat="42.164740" lon="-2.868911">
        <ele>1136.2</ele>
        <time>2026-01-01T09:13:54Z</time>
      </trkpt>
      <trkpt lat="42.164464" lon="-2.868647">
        <ele>1137.2</ele>
        <time>2026-01-01T09:14:39Z</time>
      </trkpt>
      <trkpt lat="42.164136" lon="-2.868422">
        <ele>1135.8</ele>
        <time>2026-01-01T09:15:09Z</time>
      </trkpt>
      <trkpt lat="42.163705" lon="-2.868429">
        <ele>1130.9</ele>
        <time>2026-01-01T09:15:43Z</time>
      </trkpt>
      <trkpt lat="42.163274" lon="-2.868406">
        <ele>1128.4</ele>
        <time>2026-01-01T09:16:18Z</time>
      </trkpt>
      <trkpt lat="42.163084" lon="-2.868057">
        <ele>1126.5</ele>
        <time>2026-01-01T09:16:43Z</time>
      </trkpt>
      <trkpt lat="42.163061" lon="-2.867715">
        <ele>1126.0</ele>
        <time>2026-01-01T09:17:04Z</time>
      </trkpt>
      <trkpt lat="42.163056" lon="-2.867312">
        <ele>1122.9</ele>
        <time>2026-01-01T09:17:28Z</time>
      </trkpt>
      <trkpt lat="42.163085" lon="-2.866869">
        <ele>1121.0</ele>
        <time>2026-01-01T09:17:54Z</time>
      </trkpt>
      <trkpt lat="42.162981" lon="-2.866381">
        <ele>1116.4</ele>
        <time>2026-01-01T09:18:24Z</time>
      </trkpt>
      <trkpt lat="42.162838" lon="-2.865853">
        <ele>1113.1</ele>
        <time>2026-01-01T09:18:58Z</time>
      </trkpt>
      <trkpt lat="42.162694" lon="-2.865325">
        <ele>1111.9</ele>
        <time>2026-01-01T09:19:31Z</time>
      </trkpt>
      <trkpt lat="42.162597" lon="-2.864797">
        <ele>1109.0</ele>
        <time>2026-01-01T09:20:03Z</time>
      </trkpt>
      <trkpt lat="42.162539" lon="-2.864270">
        <ele>1107.3</ele>
        <time>2026-01-01T09:20:35Z</time>
      </trkpt>
      <trkpt lat="42.162499" lon="-2.863727">
        <ele>1102.6</ele>
        <time>2026-01-01T09:21:07Z</time>
      </trkpt>
      <trkpt lat="42.162522" lon="-2.863338">
        <ele>1099.1</ele>
        <time>2026-01-01T09:21:30Z</time>
      </trkpt>
      <trkpt lat="42.162678" lon="-2.863238">
        <ele>1097.5</ele>
        <time>2026-01-01T09:21:44Z</time>
      </trkpt>
      <trkpt lat="42.162931" lon="-2.863230">
        <ele>1097.4</ele>
        <time>2026-01-01T09:22:04Z</time>
      </trkpt>
      <trkpt lat="42.163104" lon="-2.862865">
        <ele>1094.3</ele>
        <time>2026-01-01T09:22:30Z</time>
      </trkpt>
      <trkpt lat="42.163156" lon="-2.862523">
        <ele>1093.2</ele>
        <time>2026-01-01T09:22:51Z</time>
      </trkpt>
      <trkpt lat="42.163214" lon="-2.862066">
        <ele>1091.2</ele>
        <time>2026-01-01T09:23:18Z</time>
      </trkpt>
      <trkpt lat="42.163289" lon="-2.861584">
        <ele>1088.8</ele>
        <time>2026-01-01T09:23:48Z</time>
      </trkpt>
      <trkpt lat="42.163363" lon="-2.861072">
        <ele>1084.7</ele>
        <time>2026-01-01T09:24:19Z</time>
      </trkpt>
      <trkpt lat="42.163433" lon="-2.860568">
        <ele>1082.9</ele>
        <time>2026-01-01T09:24:49Z</time>
      </trkpt>
      <trkpt lat="42.163502" lon="-2.860125">
        <ele>1081.4</ele>
        <time>2026-01-01T09:25:16Z</time>
      </trkpt>
      <trkpt lat="42.163399" lon="-2.859706">
        <ele>1081.7</ele>
        <time>2026-01-01T09:26:00Z</time>
      </trkpt>
      <trkpt lat="42.163382" lon="-2.859256">
        <ele>1082.1</ele>
        <time>2026-01-01T09:26:44Z</time>
      </trkpt>
      <trkpt lat="42.163474" lon="-2.858853">
        <ele>1082.8</ele>
        <time>2026-01-01T09:27:26Z</time>
      </trkpt>
      <trkpt lat="42.163578" lon="-2.858403">
        <ele>1079.7</ele>
        <time>2026-01-01T09:27:54Z</time>
      </trkpt>
      <trkpt lat="42.163612" lon="-2.858007">
        <ele>1077.0</ele>
        <time>2026-01-01T09:28:17Z</time>
      </trkpt>
      <trkpt lat="42.163629" lon="-2.857533">
        <ele>1074.4</ele>
        <time>2026-01-01T09:28:46Z</time>
      </trkpt>
      <trkpt lat="42.163647" lon="-2.857021">
        <ele>1072.9</ele>
        <time>2026-01-01T09:29:16Z</time>
      </trkpt>
      <trkpt lat="42.163641" lon="-2.856617">
        <ele>1071.5</ele>
        <time>2026-01-01T09:29:40Z</time>
      </trkpt>
      <trkpt lat="42.163515" lon="-2.856493">
        <ele>1071.3</ele>
        <time>2026-01-01T09:29:52Z</time>
      </trkpt>
      <trkpt lat="42.163257" lon="-2.856664">
        <ele>1067.9</ele>
        <time>2026-01-01T09:30:15Z</time>
      </trkpt>
      <trkpt lat="42.163004" lon="-2.856734">
        <ele>1069.2</ele>
        <time>2026-01-01T09:30:50Z</time>
      </trkpt>
      <trkpt lat="42.162751" lon="-2.856803">
        <ele>1070.2</ele>
        <time>2026-01-01T09:31:24Z</time>
      </trkpt>
      <trkpt lat="42.162527" lon="-2.856920">
        <ele>1069.6</ele>
        <time>2026-01-01T09:31:44Z</time>
      </trkpt>
      <trkpt lat="42.162303" lon="-2.857005">
        <ele>1069.5</ele>
        <time>2026-01-01T09:32:02Z</time>
      </trkpt>
      <trkpt lat="42.162096" lon="-2.857067">
        <ele>1069.7</ele>
        <time>2026-01-01T09:32:31Z</time>
      </trkpt>
      <trkpt lat="42.161872" lon="-2.857020">
        <ele>1069.3</ele>
        <time>2026-01-01T09:32:49Z</time>
      </trkpt>
      <trkpt lat="42.161659" lon="-2.856943">
        <ele>1067.6</ele>
        <time>2026-01-01T09:33:06Z</time>
      </trkpt>
      <trkpt lat="42.161441" lon="-2.856881">
        <ele>1066.7</ele>
        <time>2026-01-01T09:33:24Z</time>
      </trkpt>
      <trkpt lat="42.161251" lon="-2.856966">
        <ele>1063.7</ele>
        <time>2026-01-01T09:33:40Z</time>
      </trkpt>
      <trkpt lat="42.161062" lon="-2.857051">
        <ele>1063.7</ele>
        <time>2026-01-01T09:34:07Z</time>
      </trkpt>
      <trkpt lat="42.160855" lon="-2.857136">
        <ele>1061.3</ele>
        <time>2026-01-01T09:34:24Z</time>
      </trkpt>
      <trkpt lat="42.160608" lon="-2.857175">
        <ele>1057.6</ele>
        <time>2026-01-01T09:34:44Z</time>
      </trkpt>
      <trkpt lat="42.160320" lon="-2.857190">
        <ele>1055.5</ele>
        <time>2026-01-01T09:35:07Z</time>
      </trkpt>
      <trkpt lat="42.160079" lon="-2.857144">
        <ele>1052.6</ele>
        <time>2026-01-01T09:35:27Z</time>
      </trkpt>
      <trkpt lat="42.159826" lon="-2.857175">
        <ele>1052.8</ele>
        <time>2026-01-01T09:36:00Z</time>
      </trkpt>
      <trkpt lat="42.159550" lon="-2.857221">
        <ele>1050.6</ele>
        <time>2026-01-01T09:36:23Z</time>
      </trkpt>
      <trkpt lat="42.159280" lon="-2.857104">
        <ele>1045.5</ele>
        <time>2026-01-01T09:36:45Z</time>
      </trkpt>
      <trkpt lat="42.159039" lon="-2.856724">
        <ele>1042.8</ele>
        <time>2026-01-01T09:37:15Z</time>
      </trkpt>
      <trkpt lat="42.158867" lon="-2.856251">
        <ele>1040.2</ele>
        <time>2026-01-01T09:37:46Z</time>
      </trkpt>
      <trkpt lat="42.158763" lon="-2.855700">
        <ele>1037.8</ele>
        <time>2026-01-01T09:38:20Z</time>
      </trkpt>
      <trkpt lat="42.158654" lon="-2.855149">
        <ele>1034.0</ele>
        <time>2026-01-01T09:38:54Z</time>
      </trkpt>
      <trkpt lat="42.158551" lon="-2.854838">
        <ele>1030.7</ele>
        <time>2026-01-01T09:39:14Z</time>
      </trkpt>
      <trkpt lat="42.158672" lon="-2.854559">
        <ele>1028.5</ele>
        <time>2026-01-01T09:39:33Z</time>
      </trkpt>
      <trkpt lat="42.158764" lon="-2.854217">
        <ele>1024.2</ele>
        <time>2026-01-01T09:39:55Z</time>
      </trkpt>
      <trkpt lat="42.158770" lon="-2.853837">
        <ele>1023.2</ele>
        <time>2026-01-01T09:40:18Z</time>
      </trkpt>
      <trkpt lat="42.158707" lon="-2.853534">
        <ele>1021.4</ele>
        <time>2026-01-01T09:40:36Z</time>
      </trkpt>
      <trkpt lat="42.158558" lon="-2.853379">
        <ele>1020.3</ele>
        <time>2026-01-01T09:40:51Z</time>
      </trkpt>
      <trkpt lat="42.158385" lon="-2.853224">
        <ele>1019.0</ele>
        <time>2026-01-01T09:41:08Z</time>
      </trkpt>
      <trkpt lat="42.158351" lon="-2.853038">
        <ele>1017.6</ele>
        <time>2026-01-01T09:41:19Z</time>
      </trkpt>
      <trkpt lat="42.158483" lon="-2.852766">
        <ele>1015.0</ele>
        <time>2026-01-01T09:41:39Z</time>
      </trkpt>
      <trkpt lat="42.158679" lon="-2.852502">
        <ele>1014.3</ele>
        <time>2026-01-01T09:42:01Z</time>
      </trkpt>
      <trkpt lat="42.158628" lon="-2.852223">
        <ele>1012.6</ele>
        <time>2026-01-01T09:42:18Z</time>
      </trkpt>
      <trkpt lat="42.158490" lon="-2.852037">
        <ele>1012.3</ele>
        <time>2026-01-01T09:42:33Z</time>
      </trkpt>
      <trkpt lat="42.158473" lon="-2.851788">
        <ele>1012.1</ele>
        <time>2026-01-01T09:42:48Z</time>
      </trkpt>
      <trkpt lat="42.158404" lon="-2.851454">
        <ele>1009.7</ele>
        <time>2026-01-01T09:43:09Z</time>
      </trkpt>
      <trkpt lat="42.158283" lon="-2.851097">
        <ele>1007.6</ele>
        <time>2026-01-01T09:43:32Z</time>
      </trkpt>
      <trkpt lat="42.158163" lon="-2.850701">
        <ele>1005.6</ele>
        <time>2026-01-01T09:43:58Z</time>
      </trkpt>
      <trkpt lat="42.158031" lon="-2.850306">
        <ele>1002.1</ele>
        <time>2026-01-01T09:44:23Z</time>
      </trkpt>
      <trkpt lat="42.157950" lon="-2.850119">
        <ele>999.1</ele>
        <time>2026-01-01T09:44:36Z</time>
      </trkpt>
      <trkpt lat="42.158106" lon="-2.849840">
        <ele>996.1</ele>
        <time>2026-01-01T09:44:57Z</time>
      </trkpt>
      <trkpt lat="42.158146" lon="-2.849506">
        <ele>988.6</ele>
        <time>2026-01-01T09:45:17Z</time>
      </trkpt>
      <trkpt lat="42.157991" lon="-2.849389">
        <ele>985.0</ele>
        <time>2026-01-01T09:45:31Z</time>
      </trkpt>
      <trkpt lat="42.157600" lon="-2.849459">
        <ele>983.2</ele>
        <time>2026-01-01T09:46:03Z</time>
      </trkpt>
      <trkpt lat="42.157347" lon="-2.849637">
        <ele>980.6</ele>
        <time>2026-01-01T09:46:26Z</time>
      </trkpt>
      <trkpt lat="42.157020" lon="-2.849862">
        <ele>979.5</ele>
        <time>2026-01-01T09:46:55Z</time>
      </trkpt>
      <trkpt lat="42.156801" lon="-2.850297">
        <ele>976.1</ele>
        <time>2026-01-01T09:47:26Z</time>
      </trkpt>
      <trkpt lat="42.156485" lon="-2.851166">
        <ele>970.2</ele>
        <time>2026-01-01T09:48:24Z</time>
      </trkpt>
      <trkpt lat="42.156111" lon="-2.851856">
        <ele>965.0</ele>
        <time>2026-01-01T09:49:14Z</time>
      </trkpt>
      <trkpt lat="42.155513" lon="-2.852283">
        <ele>960.0</ele>
        <time>2026-01-01T09:50:08Z</time>
      </trkpt>
      <trkpt lat="42.156111" lon="-2.851856">
        <ele>965.0</ele>
        <time>2026-01-01T09:51:39Z</time>
      </trkpt>
      <trkpt lat="42.156485" lon="-2.851166">
        <ele>970.2</ele>
        <time>2026-01-01T09:53:03Z</time>
      </trkpt>
      <trkpt lat="42.156801" lon="-2.850297">
        <ele>976.1</ele>
        <time>2026-01-01T09:54:39Z</time>
      </trkpt>
      <trkpt lat="42.157020" lon="-2.849862">
        <ele>979.5</ele>
        <time>2026-01-01T09:55:31Z</time>
      </trkpt>
      <trkpt lat="42.157347" lon="-2.849637">
        <ele>980.6</ele>
        <time>2026-01-01T09:56:20Z</time>
      </trkpt>
      <trkpt lat="42.157600" lon="-2.849459">
        <ele>983.2</ele>
        <time>2026-01-01T09:56:58Z</time>
      </trkpt>
      <trkpt lat="42.157991" lon="-2.849389">
        <ele>985.0</ele>
        <time>2026-01-01T09:57:51Z</time>
      </trkpt>
      <trkpt lat="42.158146" lon="-2.849506">
        <ele>988.6</ele>
        <time>2026-01-01T09:58:14Z</time>
      </trkpt>
      <trkpt lat="42.158106" lon="-2.849840">
        <ele>996.1</ele>
        <time>2026-01-01T09:58:48Z</time>
      </trkpt>
      <trkpt lat="42.157950" lon="-2.850119">
        <ele>999.1</ele>
        <time>2026-01-01T09:59:22Z</time>
      </trkpt>
      <trkpt lat="42.158031" lon="-2.850306">
        <ele>1002.1</ele>
        <time>2026-01-01T09:59:44Z</time>
      </trkpt>
      <trkpt lat="42.158163" lon="-2.850701">
        <ele>1005.6</ele>
        <time>2026-01-01T10:00:27Z</time>
      </trkpt>
      <trkpt lat="42.158283" lon="-2.851097">
        <ele>1007.6</ele>
        <time>2026-01-01T10:01:09Z</time>
      </trkpt>
      <trkpt lat="42.158404" lon="-2.851454">
        <ele>1009.7</ele>
        <time>2026-01-01T10:01:48Z</time>
      </trkpt>
      <trkpt lat="42.158473" lon="-2.851788">
        <ele>1012.1</ele>
        <time>2026-01-01T10:02:22Z</time>
      </trkpt>
      <trkpt lat="42.158490" lon="-2.852037">
        <ele>1012.3</ele>
        <time>2026-01-01T10:02:47Z</time>
      </trkpt>
      <trkpt lat="42.158628" lon="-2.852223">
        <ele>1012.6</ele>
        <time>2026-01-01T10:03:13Z</time>
      </trkpt>
      <trkpt lat="42.158679" lon="-2.852502">
        <ele>1014.3</ele>
        <time>2026-01-01T10:03:41Z</time>
      </trkpt>
      <trkpt lat="42.158483" lon="-2.852766">
        <ele>1015.0</ele>
        <time>2026-01-01T10:04:18Z</time>
      </trkpt>
      <trkpt lat="42.158351" lon="-2.853038">
        <ele>1017.6</ele>
        <time>2026-01-01T10:04:51Z</time>
      </trkpt>
      <trkpt lat="42.158385" lon="-2.853224">
        <ele>1019.0</ele>
        <time>2026-01-01T10:05:09Z</time>
      </trkpt>
      <trkpt lat="42.158558" lon="-2.853379">
        <ele>1020.3</ele>
        <time>2026-01-01T10:05:37Z</time>
      </trkpt>
      <trkpt lat="42.158707" lon="-2.853534">
        <ele>1021.4</ele>
        <time>2026-01-01T10:06:02Z</time>
      </trkpt>
      <trkpt lat="42.158770" lon="-2.853837">
        <ele>1023.2</ele>
        <time>2026-01-01T10:06:33Z</time>
      </trkpt>
      <trkpt lat="42.158764" lon="-2.854217">
        <ele>1024.2</ele>
        <time>2026-01-01T10:07:11Z</time>
      </trkpt>
      <trkpt lat="42.158672" lon="-2.854559">
        <ele>1028.5</ele>
        <time>2026-01-01T10:07:47Z</time>
      </trkpt>
      <trkpt lat="42.158551" lon="-2.854838">
        <ele>1030.7</ele>
        <time>2026-01-01T10:08:19Z</time>
      </trkpt>
      <trkpt lat="42.158654" lon="-2.855149">
        <ele>1034.0</ele>
        <time>2026-01-01T10:08:53Z</time>
      </trkpt>
      <trkpt lat="42.158763" lon="-2.855700">
        <ele>1037.8</ele>
        <time>2026-01-01T10:09:49Z</time>
      </trkpt>
      <trkpt lat="42.158867" lon="-2.856251">
        <ele>1040.2</ele>
        <time>2026-01-01T10:10:45Z</time>
      </trkpt>
      <trkpt lat="42.159039" lon="-2.856724">
        <ele>1042.8</ele>
        <time>2026-01-01T10:11:37Z</time>
      </trkpt>
      <trkpt lat="42.159280" lon="-2.857104">
        <ele>1045.5</ele>
        <time>2026-01-01T10:12:27Z</time>
      </trkpt>
      <trkpt lat="42.159550" lon="-2.857221">
        <ele>1050.6</ele>
        <time>2026-01-01T10:13:05Z</time>
      </trkpt>
      <trkpt lat="42.159826" lon="-2.857175">
        <ele>1052.8</ele>
        <time>2026-01-01T10:13:42Z</time>
      </trkpt>
      <trkpt lat="42.160079" lon="-2.857144">
        <ele>1052.6</ele>
        <time>2026-01-01T10:14:02Z</time>
      </trkpt>
      <trkpt lat="42.160320" lon="-2.857190">
        <ele>1055.5</ele>
        <time>2026-01-01T10:14:35Z</time>
      </trkpt>
      <trkpt lat="42.160608" lon="-2.857175">
        <ele>1057.6</ele>
        <time>2026-01-01T10:15:13Z</time>
      </trkpt>
      <trkpt lat="42.160855" lon="-2.857136">
        <ele>1061.3</ele>
        <time>2026-01-01T10:15:46Z</time>
      </trkpt>
      <trkpt lat="42.161062" lon="-2.857051">
        <ele>1063.7</ele>
        <time>2026-01-01T10:16:15Z</time>
      </trkpt>
      <trkpt lat="42.161251" lon="-2.856966">
        <ele>1063.7</ele>
        <time>2026-01-01T10:16:42Z</time>
      </trkpt>
      <trkpt lat="42.161441" lon="-2.856881">
        <ele>1066.7</ele>
        <time>2026-01-01T10:17:08Z</time>
      </trkpt>
      <trkpt lat="42.161659" lon="-2.856943">
        <ele>1067.6</ele>
        <time>2026-01-01T10:17:38Z</time>
      </trkpt>
      <trkpt lat="42.161872" lon="-2.857020">
        <ele>1069.3</ele>
        <time>2026-01-01T10:18:08Z</time>
      </trkpt>
      <trkpt lat="42.162096" lon="-2.857067">
        <ele>1069.7</ele>
        <time>2026-01-01T10:18:38Z</time>
      </trkpt>
      <trkpt lat="42.162303" lon="-2.857005">
        <ele>1069.5</ele>
        <time>2026-01-01T10:18:55Z</time>
      </trkpt>
      <trkpt lat="42.162527" lon="-2.856920">
        <ele>1069.6</ele>
        <time>2026-01-01T10:19:26Z</time>
      </trkpt>
      <trkpt lat="42.162751" lon="-2.856803">
        <ele>1070.2</ele>
        <time>2026-01-01T10:19:58Z</time>
      </trkpt>
      <trkpt lat="42.163004" lon="-2.856734">
        <ele>1069.2</ele>
        <time>2026-01-01T10:20:19Z</time>
      </trkpt>
      <trkpt lat="42.163257" lon="-2.856664">
        <ele>1067.9</ele>
        <time>2026-01-01T10:20:39Z</time>
      </trkpt>
      <trkpt lat="42.163515" lon="-2.856493">
        <ele>1071.3</ele>
        <time>2026-01-01T10:21:18Z</time>
      </trkpt>
      <trkpt lat="42.163641" lon="-2.856617">
        <ele>1071.5</ele>
        <time>2026-01-01T10:21:38Z</time>
      </trkpt>
      <trkpt lat="42.163647" lon="-2.857021">
        <ele>1072.9</ele>
        <time>2026-01-01T10:22:18Z</time>
      </trkpt>
      <trkpt lat="42.163629" lon="-2.857533">
        <ele>1074.4</ele>
        <time>2026-01-01T10:23:09Z</time>
      </trkpt>
      <trkpt lat="42.163612" lon="-2.858007">
        <ele>1077.0</ele>
        <time>2026-01-01T10:23:56Z</time>
      </trkpt>
      <trkpt lat="42.163578" lon="-2.858403">
        <ele>1079.7</ele>
        <time>2026-01-01T10:24:35Z</time>
      </trkpt>
      <trkpt lat="42.163474" lon="-2.858853">
        <ele>1082.8</ele>
        <time>2026-01-01T10:25:22Z</time>
      </trkpt>
      <trkpt lat="42.163382" lon="-2.859256">
        <ele>1082.1</ele>
        <time>2026-01-01T10:25:47Z</time>
      </trkpt>
      <trkpt lat="42.163399" lon="-2.859706">
        <ele>1081.7</ele>
        <time>2026-01-01T10:26:14Z</time>
      </trkpt>
      <trkpt lat="42.163502" lon="-2.860125">
        <ele>1081.4</ele>
        <time>2026-01-01T10:26:40Z</time>
      </trkpt>
      <trkpt lat="42.163433" lon="-2.860568">
        <ele>1082.9</ele>
        <time>2026-01-01T10:27:25Z</time>
      </trkpt>
      <trkpt lat="42.163363" lon="-2.861072">
        <ele>1084.7</ele>
        <time>2026-01-01T10:28:16Z</time>
      </trkpt>
      <trkpt lat="42.163289" lon="-2.861584">
        <ele>1088.8</ele>
        <time>2026-01-01T10:29:07Z</time>
      </trkpt>
      <trkpt lat="42.163214" lon="-2.862066">
        <ele>1091.2</ele>
        <time>2026-01-01T10:29:56Z</time>
      </trkpt>
      <trkpt lat="42.163156" lon="-2.862523">
        <ele>1093.2</ele>
        <time>2026-01-01T10:30:42Z</time>
      </trkpt>
      <trkpt lat="42.163104" lon="-2.862865">
        <ele>1094.3</ele>
        <time>2026-01-01T10:31:16Z</time>
      </trkpt>
      <trkpt lat="42.162931" lon="-2.863230">
        <ele>1097.4</ele>
        <time>2026-01-01T10:31:59Z</time>
      </trkpt>
      <trkpt lat="42.162678" lon="-2.863238">
        <ele>1097.5</ele>
        <time>2026-01-01T10:32:33Z</time>
      </trkpt>
      <trkpt lat="42.162522" lon="-2.863338">
        <ele>1099.1</ele>
        <time>2026-01-01T10:32:56Z</time>
      </trkpt>
      <trkpt lat="42.162499" lon="-2.863727">
        <ele>1102.6</ele>
        <time>2026-01-01T10:33:34Z</time>
      </trkpt>
      <trkpt lat="42.162539" lon="-2.864270">
        <ele>1107.3</ele>
        <time>2026-01-01T10:34:28Z</time>
      </trkpt>
      <trkpt lat="42.162597" lon="-2.864797">
        <ele>1109.0</ele>
        <time>2026-01-01T10:35:21Z</time>
      </trkpt>
      <trkpt lat="42.162694" lon="-2.865325">
        <ele>1111.9</ele>
        <time>2026-01-01T10:36:15Z</time>
      </trkpt>
      <trkpt lat="42.162838" lon="-2.865853">
        <ele>1113.1</ele>
        <time>2026-01-01T10:37:11Z</time>
      </trkpt>
      <trkpt lat="42.162981" lon="-2.866381">
        <ele>1116.4</ele>
        <time>2026-01-01T10:38:06Z</time>
      </trkpt>
      <trkpt lat="42.163085" lon="-2.866869">
        <ele>1121.0</ele>
        <time>2026-01-01T10:38:56Z</time>
      </trkpt>
      <trkpt lat="42.163056" lon="-2.867312">
        <ele>1122.9</ele>
        <time>2026-01-01T10:39:40Z</time>
      </trkpt>
      <trkpt lat="42.163061" lon="-2.867715">
        <ele>1126.0</ele>
        <time>2026-01-01T10:40:20Z</time>
      </trkpt>
      <trkpt lat="42.163084" lon="-2.868057">
        <ele>1126.5</ele>
        <time>2026-01-01T10:40:54Z</time>
      </trkpt>
      <trkpt lat="42.163274" lon="-2.868406">
        <ele>1128.4</ele>
        <time>2026-01-01T10:41:37Z</time>
      </trkpt>
      <trkpt lat="42.163705" lon="-2.868429">
        <ele>1130.9</ele>
        <time>2026-01-01T10:42:35Z</time>
      </trkpt>
      <trkpt lat="42.164136" lon="-2.868422">
        <ele>1135.8</ele>
        <time>2026-01-01T10:43:32Z</time>
      </trkpt>
      <trkpt lat="42.164464" lon="-2.868647">
        <ele>1137.2</ele>
        <time>2026-01-01T10:44:21Z</time>
      </trkpt>
      <trkpt lat="42.164740" lon="-2.868911">
        <ele>1136.2</ele>
        <time>2026-01-01T10:44:48Z</time>
      </trkpt>
      <trkpt lat="42.165056" lon="-2.869128">
        <ele>1136.3</ele>
        <time>2026-01-01T10:45:36Z</time>
      </trkpt>
      <trkpt lat="42.165401" lon="-2.869384">
        <ele>1136.8</ele>
        <time>2026-01-01T10:46:28Z</time>
      </trkpt>
      <trkpt lat="42.165642" lon="-2.869695">
        <ele>1137.7</ele>
        <time>2026-01-01T10:47:13Z</time>
      </trkpt>
      <trkpt lat="42.165567" lon="-2.870067">
        <ele>1137.1</ele>
        <time>2026-01-01T10:47:36Z</time>
      </trkpt>
      <trkpt lat="42.165360" lon="-2.870487">
        <ele>1135.6</ele>
        <time>2026-01-01T10:48:05Z</time>
      </trkpt>
      <trkpt lat="42.165222" lon="-2.870983">
        <ele>1136.1</ele>
        <time>2026-01-01T10:48:58Z</time>
      </trkpt>
      <trkpt lat="42.165204" lon="-2.871720">
        <ele>1136.2</ele>
        <time>2026-01-01T10:50:11Z</time>
      </trkpt>
      <trkpt lat="42.165130" lon="-2.872380">
        <ele>1129.8</ele>
        <time>2026-01-01T10:50:50Z</time>
      </trkpt>
      <trkpt lat="42.165262" lon="-2.872993">
        <ele>1130.6</ele>
        <time>2026-01-01T10:51:54Z</time>
      </trkpt>
      <trkpt lat="42.165480" lon="-2.873614">
        <ele>1132.4</ele>
        <time>2026-01-01T10:53:02Z</time>
      </trkpt>
      <trkpt lat="42.165802" lon="-2.873932">
        <ele>1135.2</ele>
        <time>2026-01-01T10:53:55Z</time>
      </trkpt>
      <trkpt lat="42.166256" lon="-2.874072">
        <ele>1134.4</ele>
        <time>2026-01-01T10:54:32Z</time>
      </trkpt>
      <trkpt lat="42.166693" lon="-2.874165">
        <ele>1133.2</ele>
        <time>2026-01-01T10:55:07Z</time>
      </trkpt>
      <trkpt lat="42.167084" lon="-2.874289">
        <ele>1131.6</ele>
        <time>2026-01-01T10:55:40Z</time>
      </trkpt>
      <trkpt lat="42.167435" lon="-2.874383">
        <ele>1134.5</ele>
        <time>2026-01-01T10:56:27Z</time>
      </trkpt>
      <trkpt lat="42.167647" lon="-2.874686">
        <ele>1135.5</ele>
        <time>2026-01-01T10:57:09Z</time>
      </trkpt>
      <trkpt lat="42.167791" lon="-2.875112">
        <ele>1137.1</ele>
        <time>2026-01-01T10:57:55Z</time>
      </trkpt>
      <trkpt lat="42.167980" lon="-2.875462">
        <ele>1136.7</ele>
        <time>2026-01-01T10:58:21Z</time>
      </trkpt>
      <trkpt lat="42.168222" lon="-2.875795">
        <ele>1131.6</ele>
        <time>2026-01-01T10:58:48Z</time>
      </trkpt>
      <trkpt lat="42.168457" lon="-2.876059">
        <ele>1132.4</ele>
        <time>2026-01-01T10:59:29Z</time>
      </trkpt>
      <trkpt lat="42.168682" lon="-2.876261">
        <ele>1133.9</ele>
        <time>2026-01-01T11:00:05Z</time>
      </trkpt>
      <trkpt lat="42.168894" lon="-2.876168">
        <ele>1137.8</ele>
        <time>2026-01-01T11:00:35Z</time>
      </trkpt>
      <trkpt lat="42.169159" lon="-2.876129">
        <ele>1132.6</ele>
        <time>2026-01-01T11:00:56Z</time>
      </trkpt>
      <trkpt lat="42.169383" lon="-2.876308">
        <ele>1129.9</ele>
        <time>2026-01-01T11:01:17Z</time>
      </trkpt>
      <trkpt lat="42.169561" lon="-2.876541">
        <ele>1131.3</ele>
        <time>2026-01-01T11:01:50Z</time>
      </trkpt>
      <trkpt lat="42.169744" lon="-2.876859">
        <ele>1127.5</ele>
        <time>2026-01-01T11:02:14Z</time>
      </trkpt>
      <trkpt lat="42.169894" lon="-2.877270">
        <ele>1120.8</ele>
        <time>2026-01-01T11:02:41Z</time>
      </trkpt>
      <trkpt lat="42.170095" lon="-2.877480">
        <ele>1119.9</ele>
        <time>2026-01-01T11:03:02Z</time>
      </trkpt>
      <trkpt lat="42.170290" lon="-2.877658">
        <ele>1113.4</ele>
        <time>2026-01-01T11:03:20Z</time>
      </trkpt>
      <trkpt lat="42.170577" lon="-2.877813">
        <ele>1112.6</ele>
        <time>2026-01-01T11:03:45Z</time>
      </trkpt>
      <trkpt lat="42.170917" lon="-2.877713">
        <ele>1112.2</ele>
        <time>2026-01-01T11:04:13Z</time>
      </trkpt>
      <trkpt lat="42.171267" lon="-2.877566">
        <ele>1113.6</ele>
        <time>2026-01-01T11:05:02Z</time>
      </trkpt>
      <trkpt lat="42.171612" lon="-2.877480">
        <ele>1118.3</ele>
        <time>2026-01-01T11:05:49Z</time>
      </trkpt>
      <trkpt lat="42.171888" lon="-2.877713">
        <ele>1119.7</ele>
        <time>2026-01-01T11:06:32Z</time>
      </trkpt>
      <trkpt lat="42.172233" lon="-2.877985">
        <ele>1123.6</ele>
        <time>2026-01-01T11:07:26Z</time>
      </trkpt>
      <trkpt lat="42.172537" lon="-2.878280">
        <ele>1121.3</ele>
        <time>2026-01-01T11:07:55Z</time>
      </trkpt>
      <trkpt lat="42.172802" lon="-2.878404">
        <ele>1126.5</ele>
        <time>2026-01-01T11:08:33Z</time>
      </trkpt>
      <trkpt lat="42.173095" lon="-2.878396">
        <ele>1126.3</ele>
        <time>2026-01-01T11:08:56Z</time>
      </trkpt>
      <trkpt lat="42.173353" lon="-2.878450">
        <ele>1125.6</ele>
        <time>2026-01-01T11:09:17Z</time>
      </trkpt>
      <trkpt lat="42.173606" lon="-2.878226">
        <ele>1122.8</ele>
        <time>2026-01-01T11:09:42Z</time>
      </trkpt>
      <trkpt lat="42.173824" lon="-2.877783">
        <ele>1114.7</ele>
        <time>2026-01-01T11:10:13Z</time>
      </trkpt>
      <trkpt lat="42.173973" lon="-2.877357">
        <ele>1105.8</ele>
        <time>2026-01-01T11:10:41Z</time>
      </trkpt>
      <trkpt lat="42.174226" lon="-2.877008">
        <ele>1100.9</ele>
        <time>2026-01-01T11:11:10Z</time>
      </trkpt>
      <trkpt lat="42.174473" lon="-2.876659">
        <ele>1094.4</ele>
        <time>2026-01-01T11:11:39Z</time>
      </trkpt>
      <trkpt lat="42.174697" lon="-2.876325">
        <ele>1093.5</ele>
        <time>2026-01-01T11:12:05Z</time>
      </trkpt>
      <trkpt lat="42.174956" lon="-2.876085">
        <ele>1091.3</ele>
        <time>2026-01-01T11:12:30Z</time>
      </trkpt>
      <trkpt lat="42.175347" lon="-2.875805">
        <ele>1089.8</ele>
        <time>2026-01-01T11:13:06Z</time>
      </trkpt>
      <trkpt lat="42.175772" lon="-2.875550">
        <ele>1085.1</ele>
        <time>2026-01-01T11:13:43Z</time>
      </trkpt>
      <trkpt lat="42.176151" lon="-2.875263">
        <ele>1083.2</ele>
        <time>2026-01-01T11:14:18Z</time>
      </trkpt>
      <trkpt lat="42.176450" lon="-2.875038">
        <ele>1081.6</ele>
        <time>2026-01-01T11:14:45Z</time>
      </trkpt>
      <trkpt lat="42.176715" lon="-2.874976">
        <ele>1077.4</ele>
        <time>2026-01-01T11:15:07Z</time>
      </trkpt>
      <trkpt lat="42.176841" lon="-2.874696">
        <ele>1079.3</ele>
        <time>2026-01-01T11:15:39Z</time>
      </trkpt>
      <trkpt lat="42.176915" lon="-2.874262">
        <ele>1067.7</ele>
        <time>2026-01-01T11:16:06Z</time>
      </trkpt>
      <trkpt lat="42.176766" lon="-2.873928">
        <ele>1063.3</ele>
        <time>2026-01-01T11:16:29Z</time>
      </trkpt>
      <trkpt lat="42.176593" lon="-2.873626">
        <ele>1058.7</ele>
        <time>2026-01-01T11:16:51Z</time>
      </trkpt>
      <trkpt lat="42.176380" lon="-2.873378">
        <ele>1060.2</ele>
        <time>2026-01-01T11:17:29Z</time>
      </trkpt>
      <trkpt lat="42.176339" lon="-2.872982">
        <ele>1051.1</ele>
        <time>2026-01-01T11:17:53Z</time>
      </trkpt>
      <trkpt lat="42.176535" lon="-2.872555">
        <ele>1049.8</ele>
        <time>2026-01-01T11:18:23Z</time>
      </trkpt>
      <trkpt lat="42.176891" lon="-2.872059">
        <ele>1044.4</ele>
        <time>2026-01-01T11:19:04Z</time>
      </trkpt>
      <trkpt lat="42.177179" lon="-2.871609">
        <ele>1039.0</ele>
        <time>2026-01-01T11:19:39Z</time>
      </trkpt>
      <trkpt lat="42.177357" lon="-2.871136">
        <ele>1034.6</ele>
        <time>2026-01-01T11:20:10Z</time>
      </trkpt>
      <trkpt lat="42.177374" lon="-2.870608">
        <ele>1033.1</ele>
        <time>2026-01-01T11:20:42Z</time>
      </trkpt>
      <trkpt lat="42.177402" lon="-2.869848">
        <ele>1024.0</ele>
        <time>2026-01-01T11:21:27Z</time>
      </trkpt>
      <trkpt lat="42.177454" lon="-2.869297">
        <ele>1024.3</ele>
        <time>2026-01-01T11:22:22Z</time>
      </trkpt>
      <trkpt lat="42.177712" lon="-2.868723">
        <ele>1021.2</ele>
        <time>2026-01-01T11:23:02Z</time>
      </trkpt>
      <trkpt lat="42.177965" lon="-2.868351">
        <ele>1014.9</ele>
        <time>2026-01-01T11:23:31Z</time>
      </trkpt>
      <trkpt lat="42.178241" lon="-2.868157">
        <ele>1000.4</ele>
        <time>2026-01-01T11:23:56Z</time>
      </trkpt>
      <trkpt lat="42.178465" lon="-2.868095">
        <ele>988.5</ele>
        <time>2026-01-01T11:24:15Z</time>
      </trkpt>
      <trkpt lat="42.178614" lon="-2.868056">
        <ele>980.6</ele>
        <time>2026-01-01T11:24:27Z</time>
      </trkpt>
      <trkpt lat="42.178792" lon="-2.867870">
        <ele>969.3</ele>
        <time>2026-01-01T11:24:45Z</time>
      </trkpt>
      <trkpt lat="42.178896" lon="-2.867614">
        <ele>962.3</ele>
        <time>2026-01-01T11:25:02Z</time>
      </trkpt>
      <trkpt lat="42.178987" lon="-2.867358">
        <ele>958.6</ele>
        <time>2026-01-01T11:25:19Z</time>
      </trkpt>
      <trkpt lat="42.179079" lon="-2.867133">
        <ele>952.6</ele>
        <time>2026-01-01T11:25:34Z</time>
      </trkpt>
      <trkpt lat="42.179010" lon="-2.866745">
        <ele>954.9</ele>
        <time>2026-01-01T11:26:14Z</time>
      </trkpt>
      <trkpt lat="42.179016" lon="-2.866303">
        <ele>951.9</ele>
        <time>2026-01-01T11:26:40Z</time>
      </trkpt>
      <trkpt lat="42.179038" lon="-2.865915">
        <ele>954.9</ele>
        <time>2026-01-01T11:27:18Z</time>
      </trkpt>
      <trkpt lat="42.179194" lon="-2.865620">
        <ele>953.6</ele>
        <time>2026-01-01T11:27:40Z</time>
      </trkpt>
      <trkpt lat="42.179447" lon="-2.865318">
        <ele>952.6</ele>
        <time>2026-01-01T11:28:07Z</time>
      </trkpt>
      <trkpt lat="42.179642" lon="-2.865078">
        <ele>951.1</ele>
        <time>2026-01-01T11:28:28Z</time>
      </trkpt>
      <trkpt lat="42.179728" lon="-2.864806">
        <ele>950.1</ele>
        <time>2026-01-01T11:28:46Z</time>
      </trkpt>
      <trkpt lat="42.179550" lon="-2.864434">
        <ele>949.8</ele>
        <time>2026-01-01T11:29:12Z</time>
      </trkpt>
      <trkpt lat="42.179423" lon="-2.864038">
        <ele>942.1</ele>
        <time>2026-01-01T11:29:38Z</time>
      </trkpt>
      <trkpt lat="42.179371" lon="-2.863604">
        <ele>927.7</ele>
        <time>2026-01-01T11:30:04Z</time>
      </trkpt>
      <trkpt lat="42.179336" lon="-2.863208">
        <ele>923.6</ele>
        <time>2026-01-01T11:30:27Z</time>
      </trkpt>
      <trkpt lat="42.179394" lon="-2.862805">
        <ele>924.2</ele>
        <time>2026-01-01T11:31:08Z</time>
      </trkpt>
      <trkpt lat="42.179445" lon="-2.862433">
        <ele>919.2</ele>
        <time>2026-01-01T11:31:30Z</time>
      </trkpt>
      <trkpt lat="42.179646" lon="-2.862130">
        <ele>916.1</ele>
        <time>2026-01-01T11:31:54Z</time>
      </trkpt>
      <trkpt lat="42.179974" lon="-2.861851">
        <ele>915.0</ele>
        <time>2026-01-01T11:32:25Z</time>
      </trkpt>
      <trkpt lat="42.180278" lon="-2.861478">
        <ele>911.9</ele>
        <time>2026-01-01T11:32:58Z</time>
      </trkpt>
      <trkpt lat="42.180675" lon="-2.861184">
        <ele>894.3</ele>
        <time>2026-01-01T11:33:35Z</time>
      </trkpt>
      <trkpt lat="42.181037" lon="-2.860897">
        <ele>887.3</ele>
        <time>2026-01-01T11:34:08Z</time>
      </trkpt>
      <trkpt lat="42.181382" lon="-2.860641">
        <ele>885.4</ele>
        <time>2026-01-01T11:34:40Z</time>
      </trkpt>
      <trkpt lat="42.181640" lon="-2.860370">
        <ele>881.5</ele>
        <time>2026-01-01T11:35:06Z</time>
      </trkpt>
      <trkpt lat="42.181692" lon="-2.859982">
        <ele>878.9</ele>
        <time>2026-01-01T11:35:29Z</time>
      </trkpt>
      <trkpt lat="42.181697" lon="-2.859477">
        <ele>873.9</ele>
        <time>2026-01-01T11:35:59Z</time>
      </trkpt>
      <trkpt lat="42.181795" lon="-2.858934">
        <ele>861.4</ele>
        <time>2026-01-01T11:36:32Z</time>
      </trkpt>
      <trkpt lat="42.181973" lon="-2.858399">
        <ele>858.4</ele>
        <time>2026-01-01T11:37:07Z</time>
      </trkpt>
      <trkpt lat="42.182134" lon="-2.857872">
        <ele>851.9</ele>
        <time>2026-01-01T11:37:41Z</time>
      </trkpt>
      <trkpt lat="42.182248" lon="-2.857515">
        <ele>841.6</ele>
        <time>2026-01-01T11:38:04Z</time>
      </trkpt>
      <trkpt lat="42.182352" lon="-2.857344">
        <ele>837.7</ele>
        <time>2026-01-01T11:38:17Z</time>
      </trkpt>
      <trkpt lat="42.182438" lon="-2.857461">
        <ele>834.2</ele>
        <time>2026-01-01T11:38:27Z</time>
      </trkpt>
      <trkpt lat="42.182650" lon="-2.858058">
        <ele>823.5</ele>
        <time>2026-01-01T11:39:06Z</time>
      </trkpt>
      <trkpt lat="42.182868" lon="-2.858531">
        <ele>816.5</ele>
        <time>2026-01-01T11:39:39Z</time>
      </trkpt>
      <trkpt lat="42.183075" lon="-2.858958">
        <ele>807.7</ele>
        <time>2026-01-01T11:40:10Z</time>
      </trkpt>
      <trkpt lat="42.183201" lon="-2.859447">
        <ele>797.5</ele>
        <time>2026-01-01T11:40:40Z</time>
      </trkpt>
      <trkpt lat="42.183132" lon="-2.859951">
        <ele>793.7</ele>
        <time>2026-01-01T11:41:11Z</time>
      </trkpt>
      <trkpt lat="42.183149" lon="-2.860487">
        <ele>786.0</ele>
        <time>2026-01-01T11:41:43Z</time>
      </trkpt>
      <trkpt lat="42.183412" lon="-2.860758">
        <ele>790.8</ele>
        <time>2026-01-01T11:42:27Z</time>
      </trkpt>
    </trkseg>
  </trk>
</gpx>
