<?xml version="1.0" encoding="UTF-8" standalone="no" ?>
<gpx xmlns="http://www.topografix.com/GPX/1/1" creator="CompeGPS" version="1.1" xmlns:xsi="http://www.w3.org/2001/XMLSchema-instance" xsi:schemaLocation="http://www.topografix.com/GPX/1/1 http://www.topografix.com/GPX/1/1/gpx.xsd">
  <metadata>
    <time>2026-01-01T08:00:00Z</time>
    <bounds maxlat="42.185252" maxlon="-2.180324" minlat="42.171069" minlon="-2.192454"/>
  </metadata>
  <trk>
    <name>puertas (ida y vuelta)</name>
    <trkseg>
      <trkpt lat="42.185252" lon="-2.180324">
        <ele>704.6</ele>
        <time>2026-01-01T08:00:00Z</time>
      </trkpt>
      <trkpt lat="42.185015" lon="-2.180377">
        <ele>705.5</ele>
        <time>2026-01-01T08:00:32Z</time>
      </trkpt>
      <trkpt lat="42.184817" lon="-2.180375">
        <ele>704.5</ele>
        <time>2026-01-01T08:00:47Z</time>
      </trkpt>
      <trkpt lat="42.184543" lon="-2.180375">
        <ele>702.5</ele>
        <time>2026-01-01T08:01:09Z</time>
      </trkpt>
      <trkpt lat="42.184229" lon="-2.180386">
        <ele>702.6</ele>
        <time>2026-01-01T08:01:51Z</time>
      </trkpt>
      <trkpt lat="42.183992" lon="-2.180400">
        <ele>700.7</ele>
        <time>2026-01-01T08:02:10Z</time>
      </trkpt>
      <trkpt lat="42.183829" lon="-2.180425">
        <ele>700.3</ele>
        <time>2026-01-01T08:02:23Z</time>
      </trkpt>
      <trkpt lat="42.183617" lon="-2.180391">
        <ele>697.4</ele>
        <time>2026-01-01T08:02:40Z</time>
      </trkpt>
      <trkpt lat="42.183434" lon="-2.180543">
        <ele>698.7</ele>
        <time>2026-01-01T08:03:09Z</time>
      </trkpt>
      <trkpt lat="42.183387" lon="-2.180761">
        <ele>700.3</ele>
        <time>2026-01-01T08:03:32Z</time>
      </trkpt>
      <trkpt lat="42.183277" lon="-2.180935">
        <ele>700.4</ele>
        <time>2026-01-01T08:03:54Z</time>
      </trkpt>
      <trkpt lat="42.183169" lon="-2.181065">
        <ele>703.6</ele>
        <time>2026-01-01T08:04:14Z</time>
      </trkpt>
      <trkpt lat="42.183098" lon="-2.180966">
        <ele>704.2</ele>
        <time>2026-01-01T08:04:27Z</time>
      </trkpt>
      <trkpt lat="42.183015" lon="-2.180761">
        <ele>704.5</ele>
        <time>2026-01-01T08:04:50Z</time>
      </trkpt>
      <trkpt lat="42.182955" lon="-2.180688">
        <ele>704.2</ele>
        <time>2026-01-01T08:04:57Z</time>
      </trkpt>
      <trkpt lat="42.182805" lon="-2.180691">
        <ele>705.4</ele>
        <time>2026-01-01T08:05:17Z</time>
      </trkpt>
      <trkpt lat="42.182608" lon="-2.180786">
        <ele>706.7</ele>
        <time>2026-01-01T08:05:45Z</time>
      </trkpt>
      <trkpt lat="42.182331" lon="-2.180932">
        <ele>705.6</ele>
        <time>2026-01-01T08:06:08Z</time>
      </trkpt>
      <trkpt lat="42.182048" lon="-2.181070">
        <ele>704.7</ele>
        <time>2026-01-01T08:06:33Z</time>
      </trkpt>
      <trkpt lat="42.181953" lon="-2.181199">
        <ele>705.1</ele>
        <time>2026-01-01T08:06:51Z</time>
      </trkpt>
      <trkpt lat="42.181936" lon="-2.181392">
        <ele>707.9</ele>
        <time>2026-01-01T08:07:10Z</time>
      </trkpt>
      <trkpt lat="42.181857" lon="-2.181606">
        <ele>709.4</ele>
        <time>2026-01-01T08:07:33Z</time>
      </trkpt>
      <trkpt lat="42.181645" lon="-2.181600">
        <ele>708.9</ele>
        <time>2026-01-01T08:07:50Z</time>
      </trkpt>
      <trkpt lat="42.181394" lon="-2.181513">
        <ele>708.3</ele>
        <time>2026-01-01T08:08:11Z</time>
      </trkpt>
      <trkpt lat="42.181121" lon="-2.181468">
        <ele>709.9</ele>
        <time>2026-01-01T08:08:48Z</time>
      </trkpt>
      <trkpt lat="42.180928" lon="-2.181324">
        <ele>711.2</ele>
        <time>2026-01-01T08:09:17Z</time>
      </trkpt>
      <trkpt lat="42.180789" lon="-2.181206">
        <ele>713.0</ele>
        <time>2026-01-01T08:09:39Z</time>
      </trkpt>
      <trkpt lat="42.180670" lon="-2.181167">
        <ele>714.9</ele>
        <time>2026-01-01T08:09:55Z</time>
      </trkpt>
      <trkpt lat="42.180477" lon="-2.181198">
        <ele>719.1</ele>
        <time>2026-01-01T08:10:21Z</time>
      </trkpt>
      <trkpt lat="42.180219" lon="-2.181248">
        <ele>722.2</ele>
        <time>2026-01-01T08:10:56Z</time>
      </trkpt>
      <trkpt lat="42.179953" lon="-2.181327">
        <ele>724.1</ele>
        <time>2026-01-01T08:11:33Z</time>
      </trkpt>
      <trkpt lat="42.179808" lon="-2.181459">
        <ele>727.3</ele>
        <time>2026-01-01T08:11:56Z</time>
      </trkpt>
      <trkpt lat="42.179636" lon="-2.181552">
        <ele>727.7</ele>
        <time>2026-01-01T08:12:21Z</time>
      </trkpt>
      <trkpt lat="42.179390" lon="-2.181644">
        <ele>728.1</ele>
        <time>2026-01-01T08:12:55Z</time>
      </trkpt>
      <trkpt lat="42.179188" lon="-2.181793">
        <ele>728.2</ele>
        <time>2026-01-01T08:13:25Z</time>
      </trkpt>
      <trkpt lat="42.179039" lon="-2.182052">
        <ele>729.7</ele>
        <time>2026-01-01T08:13:58Z</time>
      </trkpt>
      <trkpt lat="42.178877" lon="-2.182198">
        <ele>728.4</ele>
        <time>2026-01-01T08:14:13Z</time>
      </trkpt>
      <trkpt lat="42.178738" lon="-2.182233">
        <ele>728.8</ele>
        <time>2026-01-01T08:14:32Z</time>
      </trkpt>
      <trkpt lat="42.178504" lon="-2.182248">
        <ele>730.0</ele>
        <time>2026-01-01T08:15:04Z</time>
      </trkpt>
      <trkpt lat="42.178289" lon="-2.182287">
        <ele>731.4</ele>
        <time>2026-01-01T08:15:32Z</time>
      </trkpt>
      <trkpt lat="42.178179" lon="-2.182344">
        <ele>731.4</ele>
        <time>2026-01-01T08:15:48Z</time>
      </trkpt>
      <trkpt lat="42.178053" lon="-2.182451">
        <ele>731.3</ele>
        <time>2026-01-01T08:16:00Z</time>
      </trkpt>
      <trkpt lat="42.177868" lon="-2.182659">
        <ele>732.0</ele>
        <time>2026-01-01T08:16:32Z</time>
      </trkpt>
      <trkpt lat="42.177678" lon="-2.182875">
        <ele>732.8</ele>
        <time>2026-01-01T08:17:05Z</time>
      </trkpt>
      <trkpt lat="42.177565" lon="-2.183015">
        <ele>734.2</ele>
        <time>2026-01-01T08:17:26Z</time>
      </trkpt>
      <trkpt lat="42.177421" lon="-2.183155">
        <ele>732.5</ele>
        <time>2026-01-01T08:17:40Z</time>
      </trkpt>
      <trkpt lat="42.177326" lon="-2.183301">
        <ele>731.7</ele>
        <time>2026-01-01T08:17:52Z</time>
      </trkpt>
      <trkpt lat="42.177262" lon="-2.183486">
        <ele>732.7</ele>
        <time>2026-01-01T08:18:12Z</time>
      </trkpt>
      <trkpt lat="42.177223" lon="-2.183534">
        <ele>732.6</ele>
        <time>2026-01-01T08:18:16Z</time>
      </trkpt>
      <trkpt lat="42.177145" lon="-2.183530">
        <ele>731.6</ele>
        <time>2026-01-01T08:18:22Z</time>
      </trkpt>
      <trkpt lat="42.177065" lon="-2.183507">
        <ele>729.7</ele>
        <time>2026-01-01T08:18:29Z</time>
      </trkpt>
      <trkpt lat="42.177009" lon="-2.183552">
        <ele>729.7</ele>
        <time>2026-01-01T08:18:38Z</time>
      </trkpt>
      <trkpt lat="42.176980" lon="-2.183648">
        <ele>730.6</ele>
        <time>2026-01-01T08:18:48Z</time>
      </trkpt>
      <trkpt lat="42.176965" lon="-2.183793">
        <ele>730.5</ele>
        <time>2026-01-01T08:18:56Z</time>
      </trkpt>
      <trkpt lat="42.176903" lon="-2.183958">
        <ele>730.5</ele>
        <time>2026-01-01T08:19:15Z</time>
      </trkpt>
      <trkpt lat="42.176805" lon="-2.184049">
        <ele>728.9</ele>
        <time>2026-01-01T08:19:24Z</time>
      </trkpt>
      <trkpt lat="42.176702" lon="-2.184105">
        <ele>727.5</ele>
        <time>2026-01-01T08:19:33Z</time>
      </trkpt>
      <trkpt lat="42.176604" lon="-2.184205">
        <ele>727.4</ele>
        <time>2026-01-01T08:19:43Z</time>
      </trkpt>
      <trkpt lat="42.176537" lon="-2.184341">
        <ele>727.7</ele>
        <time>2026-01-01T08:19:59Z</time>
      </trkpt>
      <trkpt lat="42.176413" lon="-2.184426">
        <ele>727.0</ele>
        <time>2026-01-01T08:20:10Z</time>
      </trkpt>
      <trkpt lat="42.176256" lon="-2.184457">
        <ele>724.8</ele>
        <time>2026-01-01T08:20:23Z</time>
      </trkpt>
      <trkpt lat="42.176109" lon="-2.184528">
        <ele>724.8</ele>
        <time>2026-01-01T08:20:44Z</time>
      </trkpt>
      <trkpt lat="42.175984" lon="-2.184644">
        <ele>726.9</ele>
        <time>2026-01-01T08:21:04Z</time>
      </trkpt>
      <trkpt lat="42.175839" lon="-2.184702">
        <ele>727.2</ele>
        <time>2026-01-01T08:21:24Z</time>
      </trkpt>
      <trkpt lat="42.175691" lon="-2.184733">
        <ele>727.3</ele>
        <time>2026-01-01T08:21:44Z</time>
      </trkpt>
      <trkpt lat="42.175536" lon="-2.184773">
        <ele>728.1</ele>
        <time>2026-01-01T08:22:05Z</time>
      </trkpt>
      <trkpt lat="42.175344" lon="-2.184798">
        <ele>728.1</ele>
        <time>2026-01-01T08:22:31Z</time>
      </trkpt>
      <trkpt lat="42.175071" lon="-2.184791">
        <ele>727.3</ele>
        <time>2026-01-01T08:22:53Z</time>
      </trkpt>
      <trkpt lat="42.174832" lon="-2.184874">
        <ele>727.6</ele>
        <time>2026-01-01T08:23:26Z</time>
      </trkpt>
      <trkpt lat="42.174611" lon="-2.184996">
        <ele>726.7</ele>
        <time>2026-01-01T08:23:45Z</time>
      </trkpt>
      <trkpt lat="42.174461" lon="-2.185110">
        <ele>726.0</ele>
        <time>2026-01-01T08:23:59Z</time>
      </trkpt>
      <trkpt lat="42.174390" lon="-2.185339">
        <ele>727.4</ele>
        <time>2026-01-01T08:24:23Z</time>
      </trkpt>
      <trkpt lat="42.174375" lon="-2.185580">
        <ele>731.9</ele>
        <time>2026-01-01T08:24:47Z</time>
      </trkpt>
      <trkpt lat="42.174366" lon="-2.185651">
        <ele>733.2</ele>
        <time>2026-01-01T08:24:54Z</time>
      </trkpt>
      <trkpt lat="42.174356" lon="-2.185731">
        <ele>735.2</ele>
        <time>2026-01-01T08:25:02Z</time>
      </trkpt>
      <trkpt lat="42.174307" lon="-2.185811">
        <ele>735.0</ele>
        <time>2026-01-01T08:25:08Z</time>
      </trkpt>
      <trkpt lat="42.174246" lon="-2.185874">
        <ele>732.8</ele>
        <time>2026-01-01T08:25:15Z</time>
      </trkpt>
      <trkpt lat="42.174169" lon="-2.185912">
        <ele>730.6</ele>
        <time>2026-01-01T08:25:21Z</time>
      </trkpt>
      <trkpt lat="42.174087" lon="-2.185970">
        <ele>730.2</ele>
        <time>2026-01-01T08:25:29Z</time>
      </trkpt>
      <trkpt lat="42.174002" lon="-2.186064">
        <ele>733.3</ele>
        <time>2026-01-01T08:25:43Z</time>
      </trkpt>
      <trkpt lat="42.173950" lon="-2.186081">
        <ele>733.2</ele>
        <time>2026-01-01T08:25:48Z</time>
      </trkpt>
      <trkpt lat="42.173905" lon="-2.186110">
        <ele>733.3</ele>
        <time>2026-01-01T08:25:54Z</time>
      </trkpt>
      <trkpt lat="42.173850" lon="-2.186146">
        <ele>732.8</ele>
        <time>2026-01-01T08:25:59Z</time>
      </trkpt>
      <trkpt lat="42.173807" lon="-2.186212">
        <ele>733.3</ele>
        <time>2026-01-01T08:26:08Z</time>
      </trkpt>
      <trkpt lat="42.173767" lon="-2.186296">
        <ele>733.9</ele>
        <time>2026-01-01T08:26:18Z</time>
      </trkpt>
      <trkpt lat="42.173752" lon="-2.186387">
        <ele>735.9</ele>
        <time>2026-01-01T08:26:27Z</time>
      </trkpt>
      <trkpt lat="42.173763" lon="-2.186503">
        <ele>737.0</ele>
        <time>2026-01-01T08:26:38Z</time>
      </trkpt>
      <trkpt lat="42.173791" lon="-2.186625">
        <ele>737.8</ele>
        <time>2026-01-01T08:26:51Z</time>
      </trkpt>
      <trkpt lat="42.173855" lon="-2.186723">
        <ele>740.0</ele>
        <time>2026-01-01T08:27:04Z</time>
      </trkpt>
      <trkpt lat="42.173931" lon="-2.186836">
        <ele>745.0</ele>
        <time>2026-01-01T08:27:19Z</time>
      </trkpt>
      <trkpt lat="42.173973" lon="-2.186980">
        <ele>749.8</ele>
        <time>2026-01-01T08:27:34Z</time>
      </trkpt>
      <trkpt lat="42.173973" lon="-2.187115">
        <ele>750.7</ele>
        <time>2026-01-01T08:27:48Z</time>
      </trkpt>
      <trkpt lat="42.173993" lon="-2.187228">
        <ele>752.6</ele>
        <time>2026-01-01T08:27:59Z</time>
      </trkpt>
      <trkpt lat="42.173994" lon="-2.187339">
        <ele>753.0</ele>
        <time>2026-01-01T08:28:10Z</time>
      </trkpt>
      <trkpt lat="42.173951" lon="-2.187492">
        <ele>750.4</ele>
        <time>2026-01-01T08:28:20Z</time>
      </trkpt>
      <trkpt lat="42.173932" lon="-2.187620">
        <ele>750.5</ele>
        <time>2026-01-01T08:28:33Z</time>
      </trkpt>
      <trkpt lat="42.173894" lon="-2.187705">
        <ele>749.6</ele>
        <time>2026-01-01T08:28:39Z</time>
      </trkpt>
      <trkpt lat="42.173873" lon="-2.187749">
        <ele>749.4</ele>
        <time>2026-01-01T08:28:42Z</time>
      </trkpt>
      <trkpt lat="42.173826" lon="-2.187790">
        <ele>748.0</ele>
        <time>2026-01-01T08:28:46Z</time>
      </trkpt>
      <trkpt lat="42.173781" lon="-2.187841">
        <ele>746.8</ele>
        <time>2026-01-01T08:28:51Z</time>
      </trkpt>
      <trkpt lat="42.173714" lon="-2.187916">
        <ele>745.0</ele>
        <time>2026-01-01T08:28:58Z</time>
      </trkpt>
      <trkpt lat="42.173638" lon="-2.188004">
        <ele>743.3</ele>
        <time>2026-01-01T08:29:06Z</time>
      </trkpt>
      <trkpt lat="42.173557" lon="-2.188100">
        <ele>742.1</ele>
        <time>2026-01-01T08:29:15Z</time>
      </trkpt>
      <trkpt lat="42.173518" lon="-2.188131">
        <ele>741.6</ele>
        <time>2026-01-01T08:29:18Z</time>
      </trkpt>
      <trkpt lat="42.173473" lon="-2.188125">
        <ele>740.8</ele>
        <time>2026-01-01T08:29:22Z</time>
      </trkpt>
      <trkpt lat="42.173411" lon="-2.188114">
        <ele>740.7</ele>
        <time>2026-01-01T08:29:27Z</time>
      </trkpt>
      <trkpt lat="42.173369" lon="-2.188172">
        <ele>741.1</ele>
        <time>2026-01-01T08:29:35Z</time>
      </trkpt>
      <trkpt lat="42.173336" lon="-2.188289">
        <ele>741.1</ele>
        <time>2026-01-01T08:29:47Z</time>
      </trkpt>
      <trkpt lat="42.173293" lon="-2.188430">
        <ele>742.2</ele>
        <time>2026-01-01T08:30:02Z</time>
      </trkpt>
      <trkpt lat="42.173239" lon="-2.188566">
        <ele>745.6</ele>
        <time>2026-01-01T08:30:18Z</time>
      </trkpt>
      <trkpt lat="42.173206" lon="-2.188665">
        <ele>745.9</ele>
        <time>2026-01-01T08:30:28Z</time>
      </trkpt>
      <trkpt lat="42.173157" lon="-2.188772">
        <ele>746.8</ele>
        <time>2026-01-01T08:30:41Z</time>
      </trkpt>
      <trkpt lat="42.173108" lon="-2.188878">
        <ele>746.0</ele>
        <time>2026-01-01T08:30:48Z</time>
      </trkpt>
      <trkpt lat="42.173055" lon="-2.188982">
        <ele>746.7</ele>
        <time>2026-01-01T08:31:01Z</time>
      </trkpt>
      <trkpt lat="42.172991" lon="-2.189050">
        <ele>748.7</ele>
        <time>2026-01-01T08:31:12Z</time>
      </trkpt>
      <trkpt lat="42.172933" lon="-2.189126">
        <ele>749.7</ele>
        <time>2026-01-01T08:31:22Z</time>
      </trkpt>
      <trkpt lat="42.172864" lon="-2.189217">
        <ele>750.6</ele>
        <time>2026-01-01T08:31:35Z</time>
      </trkpt>
      <trkpt lat="42.172823" lon="-2.189309">
        <ele>750.8</ele>
        <time>2026-01-01T08:31:46Z</time>
      </trkpt>
      <trkpt lat="42.172782" lon="-2.189420">
        <ele>751.0</ele>
        <time>2026-01-01T08:31:58Z</time>
      </trkpt>
      <trkpt lat="42.172723" lon="-2.189529">
        <ele>751.3</ele>
        <time>2026-01-01T08:32:11Z</time>
      </trkpt>
      <trkpt lat="42.172660" lon="-2.189641">
        <ele>753.0</ele>
        <time>2026-01-01T08:32:25Z</time>
      </trkpt>
      <trkpt lat="42.172591" lon="-2.189746">
        <ele>753.7</ele>
        <time>2026-01-01T08:32:39Z</time>
      </trkpt>
      <trkpt lat="42.172527" lon="-2.189843">
        <ele>754.4</ele>
        <time>2026-01-01T08:32:52Z</time>
      </trkpt>
      <trkpt lat="42.172487" lon="-2.189946">
        <ele>753.7</ele>
        <time>2026-01-01T08:32:59Z</time>
      </trkpt>
      <trkpt lat="42.172431" lon="-2.190041">
        <ele>753.6</ele>
        <time>2026-01-01T08:33:06Z</time>
      </trkpt>
      <trkpt lat="42.172370" lon="-2.190138">
        <ele>753.2</ele>
        <time>2026-01-01T08:33:14Z</time>
      </trkpt>
      <trkpt lat="42.172298" lon="-2.190220">
        <ele>753.6</ele>
        <time>2026-01-01T08:33:26Z</time>
      </trkpt>
      <trkpt lat="42.172214" lon="-2.190306">
        <ele>754.3</ele>
        <time>2026-01-01T08:33:40Z</time>
      </trkpt>
      <trkpt lat="42.172115" lon="-2.190428">
        <ele>755.8</ele>
        <time>2026-01-01T08:33:58Z</time>
      </trkpt>
      <trkpt lat="42.172046" lon="-2.190527">
        <ele>756.9</ele>
        <time>2026-01-01T08:34:12Z</time>
      </trkpt>
      <trkpt lat="42.171959" lon="-2.190673">
        <ele>758.5</ele>
        <time>2026-01-01T08:34:30Z</time>
      </trkpt>
      <trkpt lat="42.171879" lon="-2.190829">
        <ele>759.8</ele>
        <time>2026-01-01T08:34:49Z</time>
      </trkpt>
      <trkpt lat="42.171784" lon="-2.191002">
        <ele>761.5</ele>
        <time>2026-01-01T08:35:10Z</time>
      </trkpt>
      <trkpt lat="42.171711" lon="-2.191187">
        <ele>760.2</ele>
        <time>2026-01-01T08:35:23Z</time>
      </trkpt>
      <trkpt lat="42.171611" lon="-2.191392">
        <ele>760.8</ele>
        <time>2026-01-01T08:35:47Z</time>
      </trkpt>
      <trkpt lat="42.171505" lon="-2.191600">
        <ele>763.4</ele>
        <time>2026-01-01T08:36:12Z</time>
      </trkpt>
      <trkpt lat="42.171426" lon="-2.191792">
        <ele>762.3</ele>
        <time>2026-01-01T08:36:25Z</time>
      </trkpt>
      <trkpt lat="42.171359" lon="-2.191942">
        <ele>762.0</ele>
        <time>2026-01-01T08:36:35Z</time>
      </trkpt>
      <trkpt lat="42.171299" lon="-2.192008">
        <ele>763.3</ele>
        <time>2026-01-01T08:36:46Z</time>
      </trkpt>
      <trkpt lat="42.171226" lon="-2.192077">
        <ele>764.7</ele>
        <time>2026-01-01T08:36:58Z</time>
      </trkpt>
      <trkpt lat="42.171170" lon="-2.192161">
        <ele>765.4</ele>
        <time>2026-01-01T08:37:09Z</time>
      </trkpt>
      <trkpt lat="42.171123" lon="-2.192286">
        <ele>766.0</ele>
        <time>2026-01-01T08:37:23Z</time>
      </trkpt>
      <trkpt lat="42.171069" lon="-2.192454">
        <ele>765.4</ele>
        <time>2026-01-01T08:37:33Z</time>
      </trkpt>
      <trkpt lat="42.171123" lon="-2.192286">
        <ele>766.0</ele>
        <time>2026-01-01T08:37:52Z</time>
      </trkpt>
      <trkpt lat="42.171170" lon="-2.192161">
        <ele>765.4</ele>
        <time>2026-01-01T08:38:00Z</time>
      </trkpt>
      <trkpt lat="42.171226" lon="-2.192077">
        <ele>764.7</ele>
        <time>2026-01-01T08:38:07Z</time>
      </trkpt>
      <trkpt lat="42.171299" lon="-2.192008">
        <ele>763.3</ele>
        <time>2026-01-01T08:38:14Z</time>
      </trkpt>
      <trkpt lat="42.171359" lon="-2.191942">
        <ele>762.0</ele>
        <time>2026-01-01T08:38:20Z</time>
      </trkpt>
      <trkpt lat="42.171426" lon="-2.191792">
        <ele>762.3</ele>
        <time>2026-01-01T08:38:37Z</time>
      </trkpt>
      <trkpt lat="42.171505" lon="-2.191600">
        <ele>763.4</ele>
        <time>2026-01-01T08:38:59Z</time>
      </trkpt>
      <trkpt lat="42.171611" lon="-2.191392">
        <ele>760.8</ele>
        <time>2026-01-01T08:39:14Z</time>
      </trkpt>
      <trkpt lat="42.171711" lon="-2.191187">
        <ele>760.2</ele>
        <time>2026-01-01T08:39:29Z</time>
      </trkpt>
      <trkpt lat="42.171784" lon="-2.191002">
        <ele>761.5</ele>
        <time>2026-01-01T08:39:49Z</time>
      </trkpt>
      <trkpt lat="42.171879" lon="-2.190829">
        <ele>759.8</ele>
        <time>2026-01-01T08:40:02Z</time>
      </trkpt>
      <trkpt lat="42.171959" lon="-2.190673">
        <ele>758.5</ele>
        <time>2026-01-01T08:40:13Z</time>
      </trkpt>
      <trkpt lat="42.172046" lon="-2.190527">
        <ele>756.9</ele>
        <time>2026-01-01T08:40:24Z</time>
      </trkpt>
      <trkpt lat="42.172115" lon="-2.190428">
        <ele>755.8</ele>
        <time>2026-01-01T08:40:32Z</time>
      </trkpt>
      <trkpt lat="42.172214" lon="-2.190306">
        <ele>754.3</ele>
        <time>2026-01-01T08:40:43Z</time>
      </trkpt>
      <trkpt lat="42.172298" lon="-2.190220">
        <ele>753.6</ele>
        <time>2026-01-01T08:40:52Z</time>
      </trkpt>
      <trkpt lat="42.172370" lon="-2.190138">
        <ele>753.2</ele>
        <time>2026-01-01T08:40:59Z</time>
      </trkpt>
      <trkpt lat="42.172431" lon="-2.190041">
        <ele>753.6</ele>
        <time>2026-01-01T08:41:12Z</time>
      </trkpt>
      <trkpt lat="42.172487" lon="-2.189946">
        <ele>753.7</ele>
        <time>2026-01-01T08:41:24Z</time>
      </trkpt>
      <trkpt lat="42.172527" lon="-2.189843">
        <ele>754.4</ele>
        <time>2026-01-01T08:41:35Z</time>
      </trkpt>
      <trkpt lat="42.172591" lon="-2.189746">
        <ele>753.7</ele>
        <time>2026-01-01T08:41:43Z</time>
      </trkpt>
      <trkpt lat="42.172660" lon="-2.189641">
        <ele>753.0</ele>
        <time>2026-01-01T08:41:51Z</time>
      </trkpt>
      <trkpt lat="42.172723" lon="-2.189529">
        <ele>751.3</ele>
        <time>2026-01-01T08:42:00Z</time>
      </trkpt>
      <trkpt lat="42.172782" lon="-2.189420">
        <ele>751.0</ele>
        <time>2026-01-01T08:42:08Z</time>
      </trkpt>
      <trkpt lat="42.172823" lon="-2.189309">
        <ele>750.8</ele>
        <time>2026-01-01T08:42:15Z</time>
      </trkpt>
      <trkpt lat="42.172864" lon="-2.189217">
        <ele>750.6</ele>
        <time>2026-01-01T08:42:21Z</time>
      </trkpt>
      <trkpt lat="42.172933" lon="-2.189126">
        <ele>749.7</ele>
        <time>2026-01-01T08:42:29Z</time>
      </trkpt>
      <trkpt lat="42.172991" lon="-2.189050">
        <ele>748.7</ele>
        <time>2026-01-01T08:42:36Z</time>
      </trkpt>
      <trkpt lat="42.173055" lon="-2.188982">
        <ele>746.7</ele>
        <time>2026-01-01T08:42:42Z</time>
      </trkpt>
      <trkpt lat="42.173108" lon="-2.188878">
        <ele>746.0</ele>
        <time>2026-01-01T08:42:50Z</time>
      </trkpt>
      <trkpt lat="42.173157" lon="-2.188772">
        <ele>746.8</ele>
        <time>2026-01-01T08:43:02Z</time>
      </trkpt>
      <trkpt lat="42.173206" lon="-2.188665">
        <ele>745.9</ele>
        <time>2026-01-01T08:43:09Z</time>
      </trkpt>
      <trkpt lat="42.173239" lon="-2.188566">
        <ele>745.6</ele>
        <time>2026-01-01T08:43:16Z</time>
      </trkpt>
      <trkpt lat="42.173293" lon="-2.188430">
        <ele>742.2</ele>
        <time>2026-01-01T08:43:25Z</time>
      </trkpt>
      <trkpt lat="42.173336" lon="-2.188289">
        <ele>741.1</ele>
        <time>2026-01-01T08:43:34Z</time>
      </trkpt>
      <trkpt lat="42.173369" lon="-2.188172">
        <ele>741.1</ele>
        <time>2026-01-01T08:43:46Z</time>
      </trkpt>
      <trkpt lat="42.173411" lon="-2.188114">
        <ele>740.7</ele>
        <time>2026-01-01T08:43:51Z</time>
      </trkpt>
      <trkpt lat="42.173473" lon="-2.188125">
        <ele>740.8</ele>
        <time>2026-01-01T08:44:00Z</time>
      </trkpt>
      <trkpt lat="42.173518" lon="-2.188131">
        <ele>741.6</ele>
        <time>2026-01-01T08:44:06Z</time>
      </trkpt>
      <trkpt lat="42.173557" lon="-2.188100">
        <ele>742.1</ele>
        <time>2026-01-01T08:44:12Z</time>
      </trkpt>
      <trkpt lat="42.173638" lon="-2.188004">
        <ele>743.3</ele>
        <time>2026-01-01T08:44:26Z</time>
      </trkpt>
      <trkpt lat="42.173714" lon="-2.187916">
        <ele>745.0</ele>
        <time>2026-01-01T08:44:39Z</time>
      </trkpt>
      <trkpt lat="42.173781" lon="-2.187841">
        <ele>746.8</ele>
        <time>2026-01-01T08:44:51Z</time>
      </trkpt>
      <trkpt lat="42.173826" lon="-2.187790">
        <ele>748.0</ele>
        <time>2026-01-01T08:44:59Z</time>
      </trkpt>
      <trkpt lat="42.173873" lon="-2.187749">
        <ele>749.4</ele>
        <time>2026-01-01T08:45:06Z</time>
      </trkpt>
      <trkpt lat="42.173894" lon="-2.187705">
        <ele>749.6</ele>
        <time>2026-01-01T08:45:11Z</time>
      </trkpt>
      <trkpt lat="42.173932" lon="-2.187620">
        <ele>750.5</ele>
        <time>2026-01-01T08:45:21Z</time>
      </trkpt>
      <trkpt lat="42.173951" lon="-2.187492">
        <ele>750.4</ele>
        <time>2026-01-01T08:45:29Z</time>
      </trkpt>
      <trkpt lat="42.173994" lon="-2.187339">
        <ele>753.0</ele>
        <time>2026-01-01T08:45:45Z</time>
      </trkpt>
      <trkpt lat="42.173993" lon="-2.187228">
        <ele>752.6</ele>
        <time>2026-01-01T08:45:52Z</time>
      </trkpt>
      <trkpt lat="42.173973" lon="-2.187115">
        <ele>750.7</ele>
        <time>2026-01-01T08:45:59Z</time>
      </trkpt>
      <trkpt lat="42.173973" lon="-2.186980">
        <ele>749.8</ele>
        <time>2026-01-01T08:46:07Z</time>
      </trkpt>
      <trkpt lat="42.173931" lon="-2.186836">
        <ele>745.0</ele>
        <time>2026-01-01T08:46:16Z</time>
      </trkpt>
      <trkpt lat="42.173855" lon="-2.186723">
        <ele>740.0</ele>
        <time>2026-01-01T08:46:25Z</time>
      </trkpt>
      <trkpt lat="42.173791" lon="-2.186625">
        <ele>737.8</ele>
        <time>2026-01-01T08:46:33Z</time>
      </trkpt>
      <trkpt lat="42.173763" lon="-2.186503">
        <ele>737.0</ele>
        <time>2026-01-01T08:46:40Z</time>
      </trkpt>
      <trkpt lat="42.173752" lon="-2.186387">
        <ele>735.9</ele>
        <time>2026-01-01T08:46:47Z</time>
      </trkpt>
      <trkpt lat="42.173767" lon="-2.186296">
        <ele>733.9</ele>
        <time>2026-01-01T08:46:53Z</time>
      </trkpt>
      <trkpt lat="42.173807" lon="-2.186212">
        <ele>733.3</ele>
        <time>2026-01-01T08:46:59Z</time>
      </trkpt>
      <trkpt lat="42.173850" lon="-2.186146">
        <ele>732.8</ele>
        <time>2026-01-01T08:47:04Z</time>
      </trkpt>
      <trkpt lat="42.173905" lon="-2.186110">
        <ele>733.3</ele>
        <time>2026-01-01T08:47:12Z</time>
      </trkpt>
      <trkpt lat="42.173950" lon="-2.186081">
        <ele>733.2</ele>
        <time>2026-01-01T08:47:16Z</time>
      </trkpt>
      <trkpt lat="42.174002" lon="-2.186064">
        <ele>733.3</ele>
        <time>2026-01-01T08:47:23Z</time>
      </trkpt>
      <trkpt lat="42.174087" lon="-2.185970">
        <ele>730.2</ele>
        <time>2026-01-01T08:47:32Z</time>
      </trkpt>
      <trkpt lat="42.174169" lon="-2.185912">
        <ele>730.6</ele>
        <time>2026-01-01T08:47:44Z</time>
      </trkpt>
      <trkpt lat="42.174246" lon="-2.185874">
        <ele>732.8</ele>
        <time>2026-01-01T08:47:55Z</time>
      </trkpt>
      <trkpt lat="42.174307" lon="-2.185811">
        <ele>735.0</ele>
        <time>2026-01-01T08:48:06Z</time>
      </trkpt>
      <trkpt lat="42.174356" lon="-2.185731">
        <ele>735.2</ele>
        <time>2026-01-01T08:48:16Z</time>
      </trkpt>
      <trkpt lat="42.174366" lon="-2.185651">
        <ele>733.2</ele>
        <time>2026-01-01T08:48:21Z</time>
      </trkpt>
      <trkpt lat="42.174375" lon="-2.185580">
        <ele>731.9</ele>
        <time>2026-01-01T08:48:25Z</time>
      </trkpt>
      <trkpt lat="42.174390" lon="-2.185339">
        <ele>727.4</ele>
        <time>2026-01-01T08:48:39Z</time>
      </trkpt>
      <trkpt lat="42.174461" lon="-2.185110">
        <ele>726.0</ele>
        <time>2026-01-01T08:48:54Z</time>
      </trkpt>
      <trkpt lat="42.174611" lon="-2.184996">
        <ele>726.7</ele>
        <time>2026-01-01T08:49:17Z</time>
      </trkpt>
      <trkpt lat="42.174832" lon="-2.184874">
        <ele>727.6</ele>
        <time>2026-01-01T08:49:49Z</time>
      </trkpt>
      <trkpt lat="42.175071" lon="-2.184791">
        <ele>727.3</ele>
        <time>2026-01-01T08:50:09Z</time>
      </trkpt>
      <trkpt lat="42.175344" lon="-2.184798">
        <ele>728.1</ele>
        <time>2026-01-01T08:50:45Z</time>
      </trkpt>
      <trkpt lat="42.175536" lon="-2.184773">
        <ele>728.1</ele>
        <time>2026-01-01T08:51:11Z</time>
      </trkpt>
      <trkpt lat="42.175691" lon="-2.184733">
        <ele>727.3</ele>
        <time>2026-01-01T08:51:23Z</time>
      </trkpt>
      <trkpt lat="42.175839" lon="-2.184702">
        <ele>727.2</ele>
        <time>2026-01-01T08:51:35Z</time>
      </trkpt>
      <trkpt lat="42.175984" lon="-2.184644">
        <ele>726.9</ele>
        <time>2026-01-01T08:51:47Z</time>
      </trkpt>
      <trkpt lat="42.176109" lon="-2.184528">
        <ele>724.8</ele>
        <time>2026-01-01T08:52:00Z</time>
      </trkpt>
      <trkpt lat="42.176256" lon="-2.184457">
        <ele>724.8</ele>
        <time>2026-01-01T08:52:20Z</time>
      </trkpt>
      <trkpt lat="42.176413" lon="-2.184426">
        <ele>727.0</ele>
        <time>2026-01-01T08:52:42Z</time>
      </trkpt>
      <trkpt lat="42.176537" lon="-2.184341">
        <ele>727.7</ele>
        <time>2026-01-01T08:53:00Z</time>
      </trkpt>
      <trkpt lat="42.176604" lon="-2.184205">
        <ele>727.4</ele>
        <time>2026-01-01T08:53:10Z</time>
      </trkpt>
      <trkpt lat="42.176702" lon="-2.184105">
        <ele>727.5</ele>
        <time>2026-01-01T08:53:26Z</time>
      </trkpt>
      <trkpt lat="42.176805" lon="-2.184049">
        <ele>728.9</ele>
        <time>2026-01-01T08:53:41Z</time>
      </trkpt>
      <trkpt lat="42.176903" lon="-2.183958">
        <ele>730.5</ele>
        <time>2026-01-01T08:53:57Z</time>
      </trkpt>
      <trkpt lat="42.176965" lon="-2.183793">
        <ele>730.5</ele>
        <time>2026-01-01T08:54:15Z</time>
      </trkpt>
      <trkpt lat="42.176980" lon="-2.183648">
        <ele>730.6</ele>
        <time>2026-01-01T08:54:30Z</time>
      </trkpt>
      <trkpt lat="42.177009" lon="-2.183552">
        <ele>729.7</ele>
        <time>2026-01-01T08:54:36Z</time>
      </trkpt>
      <trkpt lat="42.177065" lon="-2.183507">
        <ele>729.7</ele>
        <time>2026-01-01T08:54:45Z</time>
      </trkpt>
      <trkpt lat="42.177145" lon="-2.183530">
        <ele>731.6</ele>
        <time>2026-01-01T08:54:55Z</time>
      </trkpt>
      <trkpt lat="42.177223" lon="-2.183534">
        <ele>732.6</ele>
        <time>2026-01-01T08:55:06Z</time>
      </trkpt>
      <trkpt lat="42.177262" lon="-2.183486">
        <ele>732.7</ele>
        <time>2026-01-01T08:55:13Z</time>
      </trkpt>
      <trkpt lat="42.177326" lon="-2.183301">
        <ele>731.7</ele>
        <time>2026-01-01T08:55:25Z</time>
      </trkpt>
      <trkpt lat="42.177421" lon="-2.183155">
        <ele>732.5</ele>
        <time>2026-01-01T08:55:44Z</time>
      </trkpt>
      <trkpt lat="42.177565" lon="-2.183015">
        <ele>734.2</ele>
        <time>2026-01-01T08:56:08Z</time>
      </trkpt>
      <trkpt lat="42.177678" lon="-2.182875">
        <ele>732.8</ele>
        <time>2026-01-01T08:56:20Z</time>
      </trkpt>
      <trkpt lat="42.177868" lon="-2.182659">
        <ele>732.0</ele>
        <time>2026-01-01T08:56:40Z</time>
      </trkpt>
      <trkpt lat="42.178053" lon="-2.182451">
        <ele>731.3</ele>
        <time>2026-01-01T08:56:59Z</time>
      </trkpt>
      <trkpt lat="42.178179" lon="-2.182344">
        <ele>731.4</ele>
        <time>2026-01-01T08:57:19Z</time>
      </trkpt>
      <trkpt lat="42.178289" lon="-2.182287">
        <ele>731.4</ele>
        <time>2026-01-01T08:57:35Z</time>
      </trkpt>
      <trkpt lat="42.178504" lon="-2.182248">
        <ele>730.0</ele>
        <time>2026-01-01T08:57:52Z</time>
      </trkpt>
      <trkpt lat="42.178738" lon="-2.182233">
        <ele>728.8</ele>
        <time>2026-01-01T08:58:11Z</time>
      </trkpt>
      <trkpt lat="42.178877" lon="-2.182198">
        <ele>728.4</ele>
        <time>2026-01-01T08:58:22Z</time>
      </trkpt>
      <trkpt lat="42.179039" lon="-2.182052">
        <ele>729.7</ele>
        <time>2026-01-01T08:58:48Z</time>
      </trkpt>
      <trkpt lat="42.179188" lon="-2.181793">
        <ele>728.2</ele>
        <time>2026-01-01T08:59:08Z</time>
      </trkpt>
      <trkpt lat="42.179390" lon="-2.181644">
        <ele>728.1</ele>
        <time>2026-01-01T08:59:26Z</time>
      </trkpt>
      <trkpt lat="42.179636" lon="-2.181552">
        <ele>727.7</ele>
        <time>2026-01-01T08:59:47Z</time>
      </trkpt>
      <trkpt lat="42.179808" lon="-2.181459">
        <ele>727.3</ele>
        <time>2026-01-01T09:00:02Z</time>
      </trkpt>
      <trkpt lat="42.179953" lon="-2.181327">
        <ele>724.1</ele>
        <time>2026-01-01T09:00:16Z</time>
      </trkpt>
      <trkpt lat="42.180219" lon="-2.181248">
        <ele>722.2</ele>
        <time>2026-01-01T09:00:37Z</time>
      </trkpt>
      <trkpt lat="42.180477" lon="-2.181198">
        <ele>719.1</ele>
        <time>2026-01-01T09:00:58Z</time>
      </trkpt>
      <trkpt lat="42.180670" lon="-2.181167">
        <ele>714.9</ele>
        <time>2026-01-01T09:01:14Z</time>
      </trkpt>
      <trkpt lat="42.180789" lon="-2.181206">
        <ele>713.0</ele>
        <time>2026-01-01T09:01:24Z</time>
      </trkpt>
      <trkpt lat="42.180928" lon="-2.181324">
        <ele>711.2</ele>
        <time>2026-01-01T09:01:37Z</time>
      </trkpt>
      <trkpt lat="42.181121" lon="-2.181468">
        <ele>709.9</ele>
        <time>2026-01-01T09:01:54Z</time>
      </trkpt>
      <trkpt lat="42.181394" lon="-2.181513">
        <ele>708.3</ele>
        <time>2026-01-01T09:02:16Z</time>
      </trkpt>
      <trkpt lat="42.181645" lon="-2.181600">
        <ele>708.9</ele>
        <time>2026-01-01T09:02:51Z</time>
      </trkpt>
      <trkpt lat="42.181857" lon="-2.181606">
        <ele>709.4</ele>
        <time>2026-01-01T09:03:19Z</time>
      </trkpt>
      <trkpt lat="42.181936" lon="-2.181392">
        <ele>707.9</ele>
        <time>2026-01-01T09:03:33Z</time>
      </trkpt>
      <trkpt lat="42.181953" lon="-2.181199">
        <ele>705.1</ele>
        <time>2026-01-01T09:03:45Z</time>
      </trkpt>
      <trkpt lat="42.182048" lon="-2.181070">
        <ele>704.7</ele>
        <time>2026-01-01T09:03:56Z</time>
      </trkpt>
      <trkpt lat="42.182331" lon="-2.180932">
        <ele>705.6</ele>
        <time>2026-01-01T09:04:36Z</time>
      </trkpt>
      <trkpt lat="42.182608" lon="-2.180786">
        <ele>706.7</ele>
        <time>2026-01-01T09:05:16Z</time>
      </trkpt>
      <trkpt lat="42.182805" lon="-2.180691">
        <ele>705.4</ele>
        <time>2026-01-01T09:05:32Z</time>
      </trkpt>
      <trkpt lat="42.182955" lon="-2.180688">
        <ele>704.2</ele>
        <time>2026-01-01T09:05:44Z</time>
      </trkpt>
      <trkpt lat="42.183015" lon="-2.180761">
        <ele>704.5</ele>
        <time>2026-01-01T09:05:55Z</time>
      </trkpt>
      <trkpt lat="42.183098" lon="-2.180966">
        <ele>704.2</ele>
        <time>2026-01-01T09:06:09Z</time>
      </trkpt>
      <trkpt lat="42.183169" lon="-2.181065">
        <ele>703.6</ele>
        <time>2026-01-01T09:06:17Z</time>
      </trkpt>
      <trkpt lat="42.183277" lon="-2.180935">
        <ele>700.4</ele>
        <time>2026-01-01T09:06:29Z</time>
      </trkpt>
      <trkpt lat="42.183387" lon="-2.180761">
        <ele>700.3</ele>
        <time>2026-01-01T09:06:42Z</time>
      </trkpt>
      <trkpt lat="42.183434" lon="-2.180543">
        <ele>698.7</ele>
        <time>2026-01-01T09:06:56Z</time>
      </trkpt>
      <trkpt lat="42.183617" lon="-2.180391">
        <ele>697.4</ele>
        <time>2026-01-01T09:07:13Z</time>
      </trkpt>
      <trkpt lat="42.183829" lon="-2.180425">
        <ele>700.3</ele>
        <time>2026-01-01T09:07:42Z</time>
      </trkpt>
      <trkpt lat="42.183992" lon="-2.180400">
        <ele>700.7</ele>
        <time>2026-01-01T09:08:03Z</time>
      </trkpt>
      <trkpt lat="42.184229" lon="-2.180386">
        <ele>702.6</ele>
        <time>2026-01-01T09:08:35Z</time>
      </trkpt>
      <trkpt lat="42.184543" lon="-2.180375">
        <ele>702.5</ele>
        <time>2026-01-01T09:09:00Z</time>
      </trkpt>
      <trkpt lat="42.184817" lon="-2.180375">
        <ele>704.5</ele>
        <time>2026-01-01T09:09:37Z</time>
      </trkpt>
      <trkpt lat="42.185015" lon="-2.180377">
        <ele>705.5</ele>
        <time>2026-01-01T09:10:03Z</time>
      </trkpt>
      <trkpt lat="42.185252" lon="-2.180324">
        <ele>704.6</ele>
        <time>2026-01-01T09:10:22Z</time>
      </trkpt>
    </trkseg>
  </trk>
</gpx>
