<?xml version="1.0" encoding="UTF-8" standalone="no" ?>
<gpx xmlns="http://www.topografix.com/GPX/1/1" creator="CompeGPS" version="1.1" xmlns:xsi="http://www.w3.org/2001/XMLSchema-instance" xsi:schemaLocation="http://www.topografix.com/GPX/1/1 http://www.topografix.com/GPX/1/1/gpx.xsd">
  <metadata>
    <time>2026-01-01T08:00:00Z</time>
    <bounds maxlat="42.297773" maxlon="-2.413590" minlat="42.286829" minlon="-2.424950"/>
  </metadata>
  <trk>
    <name>leza (ida y vuelta)</name>
    <trkseg>
      <trkpt lat="42.287189" lon="-2.424950">
        <ele>760.6</ele>
        <time>2026-01-01T08:00:00Z</time>
      </trkpt>
      <trkpt lat="42.287100" lon="-2.424775">
        <ele>756.5</ele>
        <time>2026-01-01T08:00:12Z</time>
      </trkpt>
      <trkpt lat="42.287053" lon="-2.424675">
        <ele>753.1</ele>
        <time>2026-01-01T08:00:19Z</time>
      </trkpt>
      <trkpt lat="42.287007" lon="-2.424574">
        <ele>750.1</ele>
        <time>2026-01-01T08:00:26Z</time>
      </trkpt>
      <trkpt lat="42.286974" lon="-2.424485">
        <ele>749.8</ele>
        <time>2026-01-01T08:00:32Z</time>
      </trkpt>
      <trkpt lat="42.286976" lon="-2.424401">
        <ele>750.8</ele>
        <time>2026-01-01T08:00:40Z</time>
      </trkpt>
      <trkpt lat="42.286992" lon="-2.424297">
        <ele>753.3</ele>
        <time>2026-01-01T08:00:51Z</time>
      </trkpt>
      <trkpt lat="42.286985" lon="-2.424162">
        <ele>756.0</ele>
        <time>2026-01-01T08:01:04Z</time>
      </trkpt>
      <trkpt lat="42.286949" lon="-2.424010">
        <ele>758.7</ele>
        <time>2026-01-01T08:01:20Z</time>
      </trkpt>
      <trkpt lat="42.286896" lon="-2.423847">
        <ele>761.9</ele>
        <time>2026-01-01T08:01:37Z</time>
      </trkpt>
      <trkpt lat="42.286861" lon="-2.423750">
        <ele>766.0</ele>
        <time>2026-01-01T08:01:48Z</time>
      </trkpt>
      <trkpt lat="42.286895" lon="-2.423652">
        <ele>769.5</ele>
        <time>2026-01-01T08:01:59Z</time>
      </trkpt>
      <trkpt lat="42.286957" lon="-2.423553">
        <ele>771.2</ele>
        <time>2026-01-01T08:02:12Z</time>
      </trkpt>
      <trkpt lat="42.286947" lon="-2.423461">
        <ele>774.1</ele>
        <time>2026-01-01T08:02:21Z</time>
      </trkpt>
      <trkpt lat="42.286941" lon="-2.423333">
        <ele>776.0</ele>
        <time>2026-01-01T08:02:33Z</time>
      </trkpt>
      <trkpt lat="42.286924" lon="-2.423211">
        <ele>775.5</ele>
        <time>2026-01-01T08:02:41Z</time>
      </trkpt>
      <trkpt lat="42.286880" lon="-2.423087">
        <ele>778.1</ele>
        <time>2026-01-01T08:02:54Z</time>
      </trkpt>
      <trkpt lat="42.286829" lon="-2.422949">
        <ele>781.9</ele>
        <time>2026-01-01T08:03:10Z</time>
      </trkpt>
      <trkpt lat="42.286828" lon="-2.422775">
        <ele>782.2</ele>
        <time>2026-01-01T08:03:27Z</time>
      </trkpt>
      <trkpt lat="42.286840" lon="-2.422585">
        <ele>784.7</ele>
        <time>2026-01-01T08:03:46Z</time>
      </trkpt>
      <trkpt lat="42.286863" lon="-2.422403">
        <ele>789.2</ele>
        <time>2026-01-01T08:04:04Z</time>
      </trkpt>
      <trkpt lat="42.286897" lon="-2.422220">
        <ele>789.0</ele>
        <time>2026-01-01T08:04:15Z</time>
      </trkpt>
      <trkpt lat="42.286934" lon="-2.422016">
        <ele>791.8</ele>
        <time>2026-01-01T08:04:36Z</time>
      </trkpt>
      <trkpt lat="42.286984" lon="-2.421810">
        <ele>794.5</ele>
        <time>2026-01-01T08:04:57Z</time>
      </trkpt>
      <trkpt lat="42.287026" lon="-2.421611">
        <ele>800.6</ele>
        <time>2026-01-01T08:05:18Z</time>
      </trkpt>
      <trkpt lat="42.287132" lon="-2.421450">
        <ele>801.9</ele>
        <time>2026-01-01T08:05:39Z</time>
      </trkpt>
      <trkpt lat="42.287248" lon="-2.421310">
        <ele>801.8</ele>
        <time>2026-01-01T08:05:51Z</time>
      </trkpt>
      <trkpt lat="42.287318" lon="-2.421179">
        <ele>798.7</ele>
        <time>2026-01-01T08:06:01Z</time>
      </trkpt>
      <trkpt lat="42.287342" lon="-2.421059">
        <ele>797.6</ele>
        <time>2026-01-01T08:06:08Z</time>
      </trkpt>
      <trkpt lat="42.287325" lon="-2.420932">
        <ele>802.0</ele>
        <time>2026-01-01T08:06:21Z</time>
      </trkpt>
      <trkpt lat="42.287349" lon="-2.420763">
        <ele>805.8</ele>
        <time>2026-01-01T08:06:38Z</time>
      </trkpt>
      <trkpt lat="42.287395" lon="-2.420589">
        <ele>811.1</ele>
        <time>2026-01-01T08:06:56Z</time>
      </trkpt>
      <trkpt lat="42.287489" lon="-2.420444">
        <ele>814.2</ele>
        <time>2026-01-01T08:07:15Z</time>
      </trkpt>
      <trkpt lat="42.287628" lon="-2.420372">
        <ele>813.3</ele>
        <time>2026-01-01T08:07:27Z</time>
      </trkpt>
      <trkpt lat="42.287767" lon="-2.420319">
        <ele>811.7</ele>
        <time>2026-01-01T08:07:39Z</time>
      </trkpt>
      <trkpt lat="42.287920" lon="-2.420269">
        <ele>810.6</ele>
        <time>2026-01-01T08:07:51Z</time>
      </trkpt>
      <trkpt lat="42.288030" lon="-2.420208">
        <ele>810.1</ele>
        <time>2026-01-01T08:08:01Z</time>
      </trkpt>
      <trkpt lat="42.288082" lon="-2.420150">
        <ele>810.3</ele>
        <time>2026-01-01T08:08:10Z</time>
      </trkpt>
      <trkpt lat="42.288118" lon="-2.420069">
        <ele>811.7</ele>
        <time>2026-01-01T08:08:19Z</time>
      </trkpt>
      <trkpt lat="42.288140" lon="-2.419931">
        <ele>814.5</ele>
        <time>2026-01-01T08:08:33Z</time>
      </trkpt>
      <trkpt lat="42.288169" lon="-2.419771">
        <ele>816.1</ele>
        <time>2026-01-01T08:08:49Z</time>
      </trkpt>
      <trkpt lat="42.288224" lon="-2.419638">
        <ele>816.5</ele>
        <time>2026-01-01T08:09:04Z</time>
      </trkpt>
      <trkpt lat="42.288313" lon="-2.419558">
        <ele>817.2</ele>
        <time>2026-01-01T08:09:19Z</time>
      </trkpt>
      <trkpt lat="42.288418" lon="-2.419498">
        <ele>819.0</ele>
        <time>2026-01-01T08:09:34Z</time>
      </trkpt>
      <trkpt lat="42.288519" lon="-2.419460">
        <ele>819.4</ele>
        <time>2026-01-01T08:09:48Z</time>
      </trkpt>
      <trkpt lat="42.288632" lon="-2.419447">
        <ele>817.3</ele>
        <time>2026-01-01T08:09:57Z</time>
      </trkpt>
      <trkpt lat="42.288755" lon="-2.419445">
        <ele>815.6</ele>
        <time>2026-01-01T08:10:07Z</time>
      </trkpt>
      <trkpt lat="42.288891" lon="-2.419471">
        <ele>816.4</ele>
        <time>2026-01-01T08:10:25Z</time>
      </trkpt>
      <trkpt lat="42.289033" lon="-2.419505">
        <ele>818.9</ele>
        <time>2026-01-01T08:10:44Z</time>
      </trkpt>
      <trkpt lat="42.289158" lon="-2.419525">
        <ele>823.7</ele>
        <time>2026-01-01T08:11:01Z</time>
      </trkpt>
      <trkpt lat="42.289280" lon="-2.419569">
        <ele>825.2</ele>
        <time>2026-01-01T08:11:18Z</time>
      </trkpt>
      <trkpt lat="42.289397" lon="-2.419608">
        <ele>826.1</ele>
        <time>2026-01-01T08:11:34Z</time>
      </trkpt>
      <trkpt lat="42.289518" lon="-2.419653">
        <ele>824.6</ele>
        <time>2026-01-01T08:11:44Z</time>
      </trkpt>
      <trkpt lat="42.289612" lon="-2.419642">
        <ele>823.9</ele>
        <time>2026-01-01T08:11:52Z</time>
      </trkpt>
      <trkpt lat="42.289676" lon="-2.419590">
        <ele>824.0</ele>
        <time>2026-01-01T08:12:02Z</time>
      </trkpt>
      <trkpt lat="42.289712" lon="-2.419435">
        <ele>823.9</ele>
        <time>2026-01-01T08:12:11Z</time>
      </trkpt>
      <trkpt lat="42.289728" lon="-2.419252">
        <ele>824.1</ele>
        <time>2026-01-01T08:12:29Z</time>
      </trkpt>
      <trkpt lat="42.289762" lon="-2.419034">
        <ele>824.5</ele>
        <time>2026-01-01T08:12:51Z</time>
      </trkpt>
      <trkpt lat="42.289804" lon="-2.418790">
        <ele>824.6</ele>
        <time>2026-01-01T08:13:16Z</time>
      </trkpt>
      <trkpt lat="42.289828" lon="-2.418540">
        <ele>824.8</ele>
        <time>2026-01-01T08:13:41Z</time>
      </trkpt>
      <trkpt lat="42.289846" lon="-2.418289">
        <ele>823.0</ele>
        <time>2026-01-01T08:13:56Z</time>
      </trkpt>
      <trkpt lat="42.289833" lon="-2.418091">
        <ele>822.5</ele>
        <time>2026-01-01T08:14:08Z</time>
      </trkpt>
      <trkpt lat="42.289819" lon="-2.417888">
        <ele>823.0</ele>
        <time>2026-01-01T08:14:28Z</time>
      </trkpt>
      <trkpt lat="42.289798" lon="-2.417682">
        <ele>826.9</ele>
        <time>2026-01-01T08:14:48Z</time>
      </trkpt>
      <trkpt lat="42.289795" lon="-2.417578">
        <ele>829.2</ele>
        <time>2026-01-01T08:14:59Z</time>
      </trkpt>
      <trkpt lat="42.289835" lon="-2.417513">
        <ele>830.3</ele>
        <time>2026-01-01T08:15:07Z</time>
      </trkpt>
      <trkpt lat="42.289930" lon="-2.417483">
        <ele>830.9</ele>
        <time>2026-01-01T08:15:20Z</time>
      </trkpt>
      <trkpt lat="42.290032" lon="-2.417469">
        <ele>832.3</ele>
        <time>2026-01-01T08:15:34Z</time>
      </trkpt>
      <trkpt lat="42.290152" lon="-2.417456">
        <ele>833.6</ele>
        <time>2026-01-01T08:15:50Z</time>
      </trkpt>
      <trkpt lat="42.290298" lon="-2.417433">
        <ele>835.7</ele>
        <time>2026-01-01T08:16:09Z</time>
      </trkpt>
      <trkpt lat="42.290448" lon="-2.417411">
        <ele>836.5</ele>
        <time>2026-01-01T08:16:30Z</time>
      </trkpt>
      <trkpt lat="42.290582" lon="-2.417419">
        <ele>836.2</ele>
        <time>2026-01-01T08:16:40Z</time>
      </trkpt>
      <trkpt lat="42.290696" lon="-2.417425">
        <ele>836.8</ele>
        <time>2026-01-01T08:16:56Z</time>
      </trkpt>
      <trkpt lat="42.290795" lon="-2.417482">
        <ele>836.0</ele>
        <time>2026-01-01T08:17:04Z</time>
      </trkpt>
      <trkpt lat="42.290909" lon="-2.417537">
        <ele>835.6</ele>
        <time>2026-01-01T08:17:14Z</time>
      </trkpt>
      <trkpt lat="42.291023" lon="-2.417582">
        <ele>836.3</ele>
        <time>2026-01-01T08:17:30Z</time>
      </trkpt>
      <trkpt lat="42.291145" lon="-2.417628">
        <ele>836.9</ele>
        <time>2026-01-01T08:17:47Z</time>
      </trkpt>
      <trkpt lat="42.291270" lon="-2.417673">
        <ele>837.9</ele>
        <time>2026-01-01T08:18:04Z</time>
      </trkpt>
      <trkpt lat="42.291398" lon="-2.417722">
        <ele>839.1</ele>
        <time>2026-01-01T08:18:22Z</time>
      </trkpt>
      <trkpt lat="42.291533" lon="-2.417777">
        <ele>840.2</ele>
        <time>2026-01-01T08:18:40Z</time>
      </trkpt>
      <trkpt lat="42.291593" lon="-2.417782">
        <ele>840.6</ele>
        <time>2026-01-01T08:18:48Z</time>
      </trkpt>
      <trkpt lat="42.291686" lon="-2.417790">
        <ele>840.2</ele>
        <time>2026-01-01T08:18:56Z</time>
      </trkpt>
      <trkpt lat="42.291763" lon="-2.417761">
        <ele>839.0</ele>
        <time>2026-01-01T08:19:02Z</time>
      </trkpt>
      <trkpt lat="42.291806" lon="-2.417615">
        <ele>839.8</ele>
        <time>2026-01-01T08:19:18Z</time>
      </trkpt>
      <trkpt lat="42.291850" lon="-2.417419">
        <ele>841.6</ele>
        <time>2026-01-01T08:19:38Z</time>
      </trkpt>
      <trkpt lat="42.291911" lon="-2.417204">
        <ele>844.8</ele>
        <time>2026-01-01T08:20:01Z</time>
      </trkpt>
      <trkpt lat="42.291965" lon="-2.417069">
        <ele>846.7</ele>
        <time>2026-01-01T08:20:16Z</time>
      </trkpt>
      <trkpt lat="42.292017" lon="-2.416969">
        <ele>847.8</ele>
        <time>2026-01-01T08:20:28Z</time>
      </trkpt>
      <trkpt lat="42.292119" lon="-2.416870">
        <ele>846.7</ele>
        <time>2026-01-01T08:20:38Z</time>
      </trkpt>
      <trkpt lat="42.292174" lon="-2.416760">
        <ele>848.7</ele>
        <time>2026-01-01T08:20:51Z</time>
      </trkpt>
      <trkpt lat="42.292242" lon="-2.416649">
        <ele>849.3</ele>
        <time>2026-01-01T08:21:05Z</time>
      </trkpt>
      <trkpt lat="42.292328" lon="-2.416556">
        <ele>849.5</ele>
        <time>2026-01-01T08:21:20Z</time>
      </trkpt>
      <trkpt lat="42.292447" lon="-2.416513">
        <ele>846.2</ele>
        <time>2026-01-01T08:21:30Z</time>
      </trkpt>
      <trkpt lat="42.292528" lon="-2.416439">
        <ele>844.2</ele>
        <time>2026-01-01T08:21:38Z</time>
      </trkpt>
      <trkpt lat="42.292597" lon="-2.416326">
        <ele>844.0</ele>
        <time>2026-01-01T08:21:46Z</time>
      </trkpt>
      <trkpt lat="42.292654" lon="-2.416187">
        <ele>844.0</ele>
        <time>2026-01-01T08:22:02Z</time>
      </trkpt>
      <trkpt lat="42.292697" lon="-2.416034">
        <ele>846.3</ele>
        <time>2026-01-01T08:22:18Z</time>
      </trkpt>
      <trkpt lat="42.292750" lon="-2.415961">
        <ele>849.6</ele>
        <time>2026-01-01T08:22:28Z</time>
      </trkpt>
      <trkpt lat="42.292793" lon="-2.415996">
        <ele>848.0</ele>
        <time>2026-01-01T08:22:32Z</time>
      </trkpt>
      <trkpt lat="42.292833" lon="-2.416091">
        <ele>845.4</ele>
        <time>2026-01-01T08:22:39Z</time>
      </trkpt>
      <trkpt lat="42.292872" lon="-2.416180">
        <ele>843.4</ele>
        <time>2026-01-01T08:22:45Z</time>
      </trkpt>
      <trkpt lat="42.292902" lon="-2.416241">
        <ele>843.0</ele>
        <time>2026-01-01T08:22:49Z</time>
      </trkpt>
      <trkpt lat="42.292969" lon="-2.416359">
        <ele>842.7</ele>
        <time>2026-01-01T08:22:58Z</time>
      </trkpt>
      <trkpt lat="42.293052" lon="-2.416484">
        <ele>843.2</ele>
        <time>2026-01-01T08:23:15Z</time>
      </trkpt>
      <trkpt lat="42.293156" lon="-2.416609">
        <ele>845.8</ele>
        <time>2026-01-01T08:23:33Z</time>
      </trkpt>
      <trkpt lat="42.293271" lon="-2.416724">
        <ele>848.8</ele>
        <time>2026-01-01T08:23:52Z</time>
      </trkpt>
      <trkpt lat="42.293386" lon="-2.416866">
        <ele>851.0</ele>
        <time>2026-01-01T08:24:13Z</time>
      </trkpt>
      <trkpt lat="42.293483" lon="-2.416932">
        <ele>853.8</ele>
        <time>2026-01-01T08:24:28Z</time>
      </trkpt>
      <trkpt lat="42.293601" lon="-2.417019">
        <ele>856.5</ele>
        <time>2026-01-01T08:24:46Z</time>
      </trkpt>
      <trkpt lat="42.293740" lon="-2.417113">
        <ele>858.1</ele>
        <time>2026-01-01T08:25:06Z</time>
      </trkpt>
      <trkpt lat="42.293854" lon="-2.417159">
        <ele>858.1</ele>
        <time>2026-01-01T08:25:22Z</time>
      </trkpt>
      <trkpt lat="42.293962" lon="-2.417133">
        <ele>856.5</ele>
        <time>2026-01-01T08:25:31Z</time>
      </trkpt>
      <trkpt lat="42.294036" lon="-2.417069">
        <ele>853.1</ele>
        <time>2026-01-01T08:25:38Z</time>
      </trkpt>
      <trkpt lat="42.294049" lon="-2.416961">
        <ele>855.2</ele>
        <time>2026-01-01T08:25:49Z</time>
      </trkpt>
      <trkpt lat="42.294074" lon="-2.416839">
        <ele>858.2</ele>
        <time>2026-01-01T08:26:01Z</time>
      </trkpt>
      <trkpt lat="42.294098" lon="-2.416717">
        <ele>861.9</ele>
        <time>2026-01-01T08:26:14Z</time>
      </trkpt>
      <trkpt lat="42.294139" lon="-2.416611">
        <ele>865.1</ele>
        <time>2026-01-01T08:26:26Z</time>
      </trkpt>
      <trkpt lat="42.294208" lon="-2.416545">
        <ele>866.2</ele>
        <time>2026-01-01T08:26:37Z</time>
      </trkpt>
      <trkpt lat="42.294337" lon="-2.416518">
        <ele>860.9</ele>
        <time>2026-01-01T08:26:47Z</time>
      </trkpt>
      <trkpt lat="42.294436" lon="-2.416459">
        <ele>856.9</ele>
        <time>2026-01-01T08:26:56Z</time>
      </trkpt>
      <trkpt lat="42.294479" lon="-2.416364">
        <ele>854.3</ele>
        <time>2026-01-01T08:27:03Z</time>
      </trkpt>
      <trkpt lat="42.294499" lon="-2.416251">
        <ele>853.0</ele>
        <time>2026-01-01T08:27:09Z</time>
      </trkpt>
      <trkpt lat="42.294533" lon="-2.416119">
        <ele>853.5</ele>
        <time>2026-01-01T08:27:23Z</time>
      </trkpt>
      <trkpt lat="42.294572" lon="-2.415989">
        <ele>856.2</ele>
        <time>2026-01-01T08:27:37Z</time>
      </trkpt>
      <trkpt lat="42.294640" lon="-2.415860">
        <ele>859.9</ele>
        <time>2026-01-01T08:27:53Z</time>
      </trkpt>
      <trkpt lat="42.294723" lon="-2.415748">
        <ele>862.8</ele>
        <time>2026-01-01T08:28:08Z</time>
      </trkpt>
      <trkpt lat="42.294801" lon="-2.415631">
        <ele>865.2</ele>
        <time>2026-01-01T08:28:24Z</time>
      </trkpt>
      <trkpt lat="42.294877" lon="-2.415538">
        <ele>865.8</ele>
        <time>2026-01-01T08:28:38Z</time>
      </trkpt>
      <trkpt lat="42.294974" lon="-2.415453">
        <ele>865.7</ele>
        <time>2026-01-01T08:28:47Z</time>
      </trkpt>
      <trkpt lat="42.295085" lon="-2.415371">
        <ele>867.6</ele>
        <time>2026-01-01T08:29:04Z</time>
      </trkpt>
      <trkpt lat="42.295214" lon="-2.415295">
        <ele>868.7</ele>
        <time>2026-01-01T08:29:22Z</time>
      </trkpt>
      <trkpt lat="42.295364" lon="-2.415221">
        <ele>869.1</ele>
        <time>2026-01-01T08:29:44Z</time>
      </trkpt>
      <trkpt lat="42.295521" lon="-2.415162">
        <ele>866.3</ele>
        <time>2026-01-01T08:29:57Z</time>
      </trkpt>
      <trkpt lat="42.295665" lon="-2.415116">
        <ele>860.9</ele>
        <time>2026-01-01T08:30:09Z</time>
      </trkpt>
      <trkpt lat="42.295744" lon="-2.415060">
        <ele>856.8</ele>
        <time>2026-01-01T08:30:16Z</time>
      </trkpt>
      <trkpt lat="42.295788" lon="-2.414954">
        <ele>855.7</ele>
        <time>2026-01-01T08:30:23Z</time>
      </trkpt>
      <trkpt lat="42.295828" lon="-2.414847">
        <ele>856.0</ele>
        <time>2026-01-01T08:30:35Z</time>
      </trkpt>
      <trkpt lat="42.295878" lon="-2.414730">
        <ele>855.7</ele>
        <time>2026-01-01T08:30:43Z</time>
      </trkpt>
      <trkpt lat="42.295928" lon="-2.414578">
        <ele>854.8</ele>
        <time>2026-01-01T08:30:53Z</time>
      </trkpt>
      <trkpt lat="42.295969" lon="-2.414394">
        <ele>857.8</ele>
        <time>2026-01-01T08:31:12Z</time>
      </trkpt>
      <trkpt lat="42.296024" lon="-2.414208">
        <ele>863.0</ele>
        <time>2026-01-01T08:31:31Z</time>
      </trkpt>
      <trkpt lat="42.296097" lon="-2.414053">
        <ele>866.8</ele>
        <time>2026-01-01T08:31:50Z</time>
      </trkpt>
      <trkpt lat="42.296212" lon="-2.413985">
        <ele>868.1</ele>
        <time>2026-01-01T08:32:06Z</time>
      </trkpt>
      <trkpt lat="42.296323" lon="-2.413994">
        <ele>867.2</ele>
        <time>2026-01-01T08:32:15Z</time>
      </trkpt>
      <trkpt lat="42.296392" lon="-2.414022">
        <ele>865.2</ele>
        <time>2026-01-01T08:32:21Z</time>
      </trkpt>
      <trkpt lat="42.296468" lon="-2.413994">
        <ele>865.0</ele>
        <time>2026-01-01T08:32:27Z</time>
      </trkpt>
      <trkpt lat="42.296529" lon="-2.413945">
        <ele>865.8</ele>
        <time>2026-01-01T08:32:37Z</time>
      </trkpt>
      <trkpt lat="42.296584" lon="-2.413873">
        <ele>866.2</ele>
        <time>2026-01-01T08:32:47Z</time>
      </trkpt>
      <trkpt lat="42.296640" lon="-2.413797">
        <ele>866.7</ele>
        <time>2026-01-01T08:32:58Z</time>
      </trkpt>
      <trkpt lat="42.296697" lon="-2.413701">
        <ele>869.6</ele>
        <time>2026-01-01T08:33:10Z</time>
      </trkpt>
      <trkpt lat="42.296750" lon="-2.413616">
        <ele>873.5</ele>
        <time>2026-01-01T08:33:21Z</time>
      </trkpt>
      <trkpt lat="42.296807" lon="-2.413590">
        <ele>875.2</ele>
        <time>2026-01-01T08:33:29Z</time>
      </trkpt>
      <trkpt lat="42.296873" lon="-2.413659">
        <ele>874.5</ele>
        <time>2026-01-01T08:33:35Z</time>
      </trkpt>
      <trkpt lat="42.296927" lon="-2.413725">
        <ele>873.7</ele>
        <time>2026-01-01T08:33:41Z</time>
      </trkpt>
      <trkpt lat="42.296989" lon="-2.413832">
        <ele>872.4</ele>
        <time>2026-01-01T08:33:49Z</time>
      </trkpt>
      <trkpt lat="42.297011" lon="-2.413942">
        <ele>870.7</ele>
        <time>2026-01-01T08:33:56Z</time>
      </trkpt>
      <trkpt lat="42.297029" lon="-2.414070">
        <ele>871.0</ele>
        <time>2026-01-01T08:34:09Z</time>
      </trkpt>
      <trkpt lat="42.297050" lon="-2.414197">
        <ele>870.7</ele>
        <time>2026-01-01T08:34:17Z</time>
      </trkpt>
      <trkpt lat="42.297090" lon="-2.414309">
        <ele>872.4</ele>
        <time>2026-01-01T08:34:29Z</time>
      </trkpt>
      <trkpt lat="42.297143" lon="-2.414401">
        <ele>876.2</ele>
        <time>2026-01-01T08:34:40Z</time>
      </trkpt>
      <trkpt lat="42.297204" lon="-2.414463">
        <ele>879.8</ele>
        <time>2026-01-01T08:34:51Z</time>
      </trkpt>
      <trkpt lat="42.297281" lon="-2.414488">
        <ele>885.0</ele>
        <time>2026-01-01T08:35:01Z</time>
      </trkpt>
      <trkpt lat="42.297356" lon="-2.414477">
        <ele>889.8</ele>
        <time>2026-01-01T08:35:11Z</time>
      </trkpt>
      <trkpt lat="42.297416" lon="-2.414457">
        <ele>894.4</ele>
        <time>2026-01-01T08:35:19Z</time>
      </trkpt>
      <trkpt lat="42.297481" lon="-2.414437">
        <ele>899.0</ele>
        <time>2026-01-01T08:35:28Z</time>
      </trkpt>
      <trkpt lat="42.297548" lon="-2.414419">
        <ele>902.0</ele>
        <time>2026-01-01T08:35:37Z</time>
      </trkpt>
      <trkpt lat="42.297619" lon="-2.414415">
        <ele>899.8</ele>
        <time>2026-01-01T08:35:43Z</time>
      </trkpt>
      <trkpt lat="42.297677" lon="-2.414448">
        <ele>895.3</ele>
        <time>2026-01-01T08:35:48Z</time>
      </trkpt>
      <trkpt lat="42.297699" lon="-2.414506">
        <ele>891.0</ele>
        <time>2026-01-01T08:35:52Z</time>
      </trkpt>
      <trkpt lat="42.297717" lon="-2.414557">
        <ele>888.3</ele>
        <time>2026-01-01T08:35:55Z</time>
      </trkpt>
      <trkpt lat="42.297772" lon="-2.414629">
        <ele>885.2</ele>
        <time>2026-01-01T08:36:01Z</time>
      </trkpt>
      <trkpt lat="42.297717" lon="-2.414557">
        <ele>888.3</ele>
        <time>2026-01-01T08:36:12Z</time>
      </trkpt>
      <trkpt lat="42.297699" lon="-2.414506">
        <ele>891.0</ele>
        <time>2026-01-01T08:36:17Z</time>
      </trkpt>
      <trkpt lat="42.297677" lon="-2.414448">
        <ele>895.3</ele>
        <time>2026-01-01T08:36:24Z</time>
      </trkpt>
      <trkpt lat="42.297619" lon="-2.414415">
        <ele>899.8</ele>
        <time>2026-01-01T08:36:32Z</time>
      </trkpt>
      <trkpt lat="42.297548" lon="-2.414419">
        <ele>902.0</ele>
        <time>2026-01-01T08:36:42Z</time>
      </trkpt>
      <trkpt lat="42.297481" lon="-2.414437">
        <ele>899.0</ele>
        <time>2026-01-01T08:36:47Z</time>
      </trkpt>
      <trkpt lat="42.297416" lon="-2.414457">
        <ele>894.4</ele>
        <time>2026-01-01T08:36:52Z</time>
      </trkpt>
      <trkpt lat="42.297356" lon="-2.414477">
        <ele>889.8</ele>
        <time>2026-01-01T08:36:57Z</time>
      </trkpt>
      <trkpt lat="42.297281" lon="-2.414488">
        <ele>885.0</ele>
        <time>2026-01-01T08:37:03Z</time>
      </trkpt>
      <trkpt lat="42.297204" lon="-2.414463">
        <ele>879.8</ele>
        <time>2026-01-01T08:37:10Z</time>
      </trkpt>
      <trkpt lat="42.297143" lon="-2.414401">
        <ele>876.2</ele>
        <time>2026-01-01T08:37:16Z</time>
      </trkpt>
      <trkpt lat="42.297090" lon="-2.414309">
        <ele>872.4</ele>
        <time>2026-01-01T08:37:23Z</time>
      </trkpt>
      <trkpt lat="42.297050" lon="-2.414197">
        <ele>870.7</ele>
        <time>2026-01-01T08:37:30Z</time>
      </trkpt>
      <trkpt lat="42.297029" lon="-2.414070">
        <ele>871.0</ele>
        <time>2026-01-01T08:37:43Z</time>
      </trkpt>
      <trkpt lat="42.297011" lon="-2.413942">
        <ele>870.7</ele>
        <time>2026-01-01T08:37:51Z</time>
      </trkpt>
      <trkpt lat="42.296989" lon="-2.413832">
        <ele>872.4</ele>
        <time>2026-01-01T08:38:02Z</time>
      </trkpt>
      <trkpt lat="42.296927" lon="-2.413725">
        <ele>873.7</ele>
        <time>2026-01-01T08:38:15Z</time>
      </trkpt>
      <trkpt lat="42.296873" lon="-2.413659">
        <ele>874.5</ele>
        <time>2026-01-01T08:38:25Z</time>
      </trkpt>
      <trkpt lat="42.296807" lon="-2.413590">
        <ele>875.2</ele>
        <time>2026-01-01T08:38:36Z</time>
      </trkpt>
      <trkpt lat="42.296750" lon="-2.413616">
        <ele>873.5</ele>
        <time>2026-01-01T08:38:41Z</time>
      </trkpt>
      <trkpt lat="42.296697" lon="-2.413701">
        <ele>869.6</ele>
        <time>2026-01-01T08:38:48Z</time>
      </trkpt>
      <trkpt lat="42.296640" lon="-2.413797">
        <ele>866.7</ele>
        <time>2026-01-01T08:38:55Z</time>
      </trkpt>
      <trkpt lat="42.296584" lon="-2.413873">
        <ele>866.2</ele>
        <time>2026-01-01T08:39:01Z</time>
      </trkpt>
      <trkpt lat="42.296529" lon="-2.413945">
        <ele>865.8</ele>
        <time>2026-01-01T08:39:07Z</time>
      </trkpt>
      <trkpt lat="42.296468" lon="-2.413994">
        <ele>865.0</ele>
        <time>2026-01-01T08:39:13Z</time>
      </trkpt>
      <trkpt lat="42.296392" lon="-2.414022">
        <ele>865.2</ele>
        <time>2026-01-01T08:39:24Z</time>
      </trkpt>
      <trkpt lat="42.296323" lon="-2.413994">
        <ele>867.2</ele>
        <time>2026-01-01T08:39:33Z</time>
      </trkpt>
      <trkpt lat="42.296212" lon="-2.413985">
        <ele>868.1</ele>
        <time>2026-01-01T08:39:48Z</time>
      </trkpt>
      <trkpt lat="42.296097" lon="-2.414053">
        <ele>866.8</ele>
        <time>2026-01-01T08:39:58Z</time>
      </trkpt>
      <trkpt lat="42.296024" lon="-2.414208">
        <ele>863.0</ele>
        <time>2026-01-01T08:40:09Z</time>
      </trkpt>
      <trkpt lat="42.295969" lon="-2.414394">
        <ele>857.8</ele>
        <time>2026-01-01T08:40:21Z</time>
      </trkpt>
      <trkpt lat="42.295928" lon="-2.414578">
        <ele>854.8</ele>
        <time>2026-01-01T08:40:32Z</time>
      </trkpt>
      <trkpt lat="42.295878" lon="-2.414730">
        <ele>855.7</ele>
        <time>2026-01-01T08:40:49Z</time>
      </trkpt>
      <trkpt lat="42.295828" lon="-2.414847">
        <ele>856.0</ele>
        <time>2026-01-01T08:41:02Z</time>
      </trkpt>
      <trkpt lat="42.295788" lon="-2.414954">
        <ele>855.7</ele>
        <time>2026-01-01T08:41:09Z</time>
      </trkpt>
      <trkpt lat="42.295744" lon="-2.415060">
        <ele>856.8</ele>
        <time>2026-01-01T08:41:21Z</time>
      </trkpt>
      <trkpt lat="42.295665" lon="-2.415116">
        <ele>860.9</ele>
        <time>2026-01-01T08:41:33Z</time>
      </trkpt>
      <trkpt lat="42.295521" lon="-2.415162">
        <ele>866.3</ele>
        <time>2026-01-01T08:41:53Z</time>
      </trkpt>
      <trkpt lat="42.295364" lon="-2.415221">
        <ele>869.1</ele>
        <time>2026-01-01T08:42:14Z</time>
      </trkpt>
      <trkpt lat="42.295214" lon="-2.415295">
        <ele>868.7</ele>
        <time>2026-01-01T08:42:27Z</time>
      </trkpt>
      <trkpt lat="42.295085" lon="-2.415371">
        <ele>867.6</ele>
        <time>2026-01-01T08:42:38Z</time>
      </trkpt>
      <trkpt lat="42.294974" lon="-2.415453">
        <ele>865.7</ele>
        <time>2026-01-01T08:42:49Z</time>
      </trkpt>
      <trkpt lat="42.294877" lon="-2.415538">
        <ele>865.8</ele>
        <time>2026-01-01T08:43:04Z</time>
      </trkpt>
      <trkpt lat="42.294801" lon="-2.415631">
        <ele>865.2</ele>
        <time>2026-01-01T08:43:12Z</time>
      </trkpt>
      <trkpt lat="42.294723" lon="-2.415748">
        <ele>862.8</ele>
        <time>2026-01-01T08:43:22Z</time>
      </trkpt>
      <trkpt lat="42.294640" lon="-2.415860">
        <ele>859.9</ele>
        <time>2026-01-01T08:43:31Z</time>
      </trkpt>
      <trkpt lat="42.294572" lon="-2.415989">
        <ele>856.2</ele>
        <time>2026-01-01T08:43:40Z</time>
      </trkpt>
      <trkpt lat="42.294533" lon="-2.416119">
        <ele>853.5</ele>
        <time>2026-01-01T08:43:49Z</time>
      </trkpt>
      <trkpt lat="42.294499" lon="-2.416251">
        <ele>853.0</ele>
        <time>2026-01-01T08:43:57Z</time>
      </trkpt>
      <trkpt lat="42.294479" lon="-2.416364">
        <ele>854.3</ele>
        <time>2026-01-01T08:44:08Z</time>
      </trkpt>
      <trkpt lat="42.294436" lon="-2.416459">
        <ele>856.9</ele>
        <time>2026-01-01T08:44:19Z</time>
      </trkpt>
      <trkpt lat="42.294337" lon="-2.416518">
        <ele>860.9</ele>
        <time>2026-01-01T08:44:34Z</time>
      </trkpt>
      <trkpt lat="42.294208" lon="-2.416545">
        <ele>866.2</ele>
        <time>2026-01-01T08:44:51Z</time>
      </trkpt>
      <trkpt lat="42.294139" lon="-2.416611">
        <ele>865.1</ele>
        <time>2026-01-01T08:44:58Z</time>
      </trkpt>
      <trkpt lat="42.294098" lon="-2.416717">
        <ele>861.9</ele>
        <time>2026-01-01T08:45:05Z</time>
      </trkpt>
      <trkpt lat="42.294074" lon="-2.416839">
        <ele>858.2</ele>
        <time>2026-01-01T08:45:13Z</time>
      </trkpt>
      <trkpt lat="42.294049" lon="-2.416961">
        <ele>855.2</ele>
        <time>2026-01-01T08:45:20Z</time>
      </trkpt>
      <trkpt lat="42.294036" lon="-2.417069">
        <ele>853.1</ele>
        <time>2026-01-01T08:45:27Z</time>
      </trkpt>
      <trkpt lat="42.293962" lon="-2.417133">
        <ele>856.5</ele>
        <time>2026-01-01T08:45:38Z</time>
      </trkpt>
      <trkpt lat="42.293854" lon="-2.417159">
        <ele>858.1</ele>
        <time>2026-01-01T08:45:53Z</time>
      </trkpt>
      <trkpt lat="42.293740" lon="-2.417113">
        <ele>858.1</ele>
        <time>2026-01-01T08:46:09Z</time>
      </trkpt>
      <trkpt lat="42.293601" lon="-2.417019">
        <ele>856.5</ele>
        <time>2026-01-01T08:46:21Z</time>
      </trkpt>
      <trkpt lat="42.293483" lon="-2.416932">
        <ele>853.8</ele>
        <time>2026-01-01T08:46:32Z</time>
      </trkpt>
      <trkpt lat="42.293386" lon="-2.416866">
        <ele>851.0</ele>
        <time>2026-01-01T08:46:41Z</time>
      </trkpt>
      <trkpt lat="42.293271" lon="-2.416724">
        <ele>848.8</ele>
        <time>2026-01-01T08:46:53Z</time>
      </trkpt>
      <trkpt lat="42.293156" lon="-2.416609">
        <ele>845.8</ele>
        <time>2026-01-01T08:47:05Z</time>
      </trkpt>
      <trkpt lat="42.293052" lon="-2.416484">
        <ele>843.2</ele>
        <time>2026-01-01T08:47:16Z</time>
      </trkpt>
      <trkpt lat="42.292969" lon="-2.416359">
        <ele>842.7</ele>
        <time>2026-01-01T08:47:26Z</time>
      </trkpt>
      <trkpt lat="42.292902" lon="-2.416241">
        <ele>843.0</ele>
        <time>2026-01-01T08:47:40Z</time>
      </trkpt>
      <trkpt lat="42.292872" lon="-2.416180">
        <ele>843.4</ele>
        <time>2026-01-01T08:47:48Z</time>
      </trkpt>
      <trkpt lat="42.292833" lon="-2.416091">
        <ele>845.4</ele>
        <time>2026-01-01T08:47:58Z</time>
      </trkpt>
      <trkpt lat="42.292793" lon="-2.415996">
        <ele>848.0</ele>
        <time>2026-01-01T08:48:09Z</time>
      </trkpt>
      <trkpt lat="42.292750" lon="-2.415961">
        <ele>849.6</ele>
        <time>2026-01-01T08:48:15Z</time>
      </trkpt>
      <trkpt lat="42.292697" lon="-2.416034">
        <ele>846.3</ele>
        <time>2026-01-01T08:48:21Z</time>
      </trkpt>
      <trkpt lat="42.292654" lon="-2.416187">
        <ele>844.0</ele>
        <time>2026-01-01T08:48:31Z</time>
      </trkpt>
      <trkpt lat="42.292597" lon="-2.416326">
        <ele>844.0</ele>
        <time>2026-01-01T08:48:47Z</time>
      </trkpt>
      <trkpt lat="42.292528" lon="-2.416439">
        <ele>844.2</ele>
        <time>2026-01-01T08:49:01Z</time>
      </trkpt>
      <trkpt lat="42.292447" lon="-2.416513">
        <ele>846.2</ele>
        <time>2026-01-01T08:49:14Z</time>
      </trkpt>
      <trkpt lat="42.292328" lon="-2.416556">
        <ele>849.5</ele>
        <time>2026-01-01T08:49:31Z</time>
      </trkpt>
      <trkpt lat="42.292242" lon="-2.416649">
        <ele>849.3</ele>
        <time>2026-01-01T08:49:39Z</time>
      </trkpt>
      <trkpt lat="42.292174" lon="-2.416760">
        <ele>848.7</ele>
        <time>2026-01-01T08:49:48Z</time>
      </trkpt>
      <trkpt lat="42.292119" lon="-2.416870">
        <ele>846.7</ele>
        <time>2026-01-01T08:49:56Z</time>
      </trkpt>
      <trkpt lat="42.292017" lon="-2.416969">
        <ele>847.8</ele>
        <time>2026-01-01T08:50:13Z</time>
      </trkpt>
      <trkpt lat="42.291965" lon="-2.417069">
        <ele>846.7</ele>
        <time>2026-01-01T08:50:20Z</time>
      </trkpt>
      <trkpt lat="42.291911" lon="-2.417204">
        <ele>844.8</ele>
        <time>2026-01-01T08:50:29Z</time>
      </trkpt>
      <trkpt lat="42.291850" lon="-2.417419">
        <ele>841.6</ele>
        <time>2026-01-01T08:50:43Z</time>
      </trkpt>
      <trkpt lat="42.291806" lon="-2.417615">
        <ele>839.8</ele>
        <time>2026-01-01T08:50:55Z</time>
      </trkpt>
      <trkpt lat="42.291763" lon="-2.417761">
        <ele>839.0</ele>
        <time>2026-01-01T08:51:04Z</time>
      </trkpt>
      <trkpt lat="42.291686" lon="-2.417790">
        <ele>840.2</ele>
        <time>2026-01-01T08:51:15Z</time>
      </trkpt>
      <trkpt lat="42.291593" lon="-2.417782">
        <ele>840.6</ele>
        <time>2026-01-01T08:51:27Z</time>
      </trkpt>
      <trkpt lat="42.291533" lon="-2.417777">
        <ele>840.2</ele>
        <time>2026-01-01T08:51:32Z</time>
      </trkpt>
      <trkpt lat="42.291398" lon="-2.417722">
        <ele>839.1</ele>
        <time>2026-01-01T08:51:43Z</time>
      </trkpt>
      <trkpt lat="42.291270" lon="-2.417673">
        <ele>837.9</ele>
        <time>2026-01-01T08:51:54Z</time>
      </trkpt>
      <trkpt lat="42.291145" lon="-2.417628">
        <ele>836.9</ele>
        <time>2026-01-01T08:52:04Z</time>
      </trkpt>
      <trkpt lat="42.291023" lon="-2.417582">
        <ele>836.3</ele>
        <time>2026-01-01T08:52:14Z</time>
      </trkpt>
      <trkpt lat="42.290909" lon="-2.417537">
        <ele>835.6</ele>
        <time>2026-01-01T08:52:24Z</time>
      </trkpt>
      <trkpt lat="42.290795" lon="-2.417482">
        <ele>836.0</ele>
        <time>2026-01-01T08:52:40Z</time>
      </trkpt>
      <trkpt lat="42.290696" lon="-2.417425">
        <ele>836.8</ele>
        <time>2026-01-01T08:52:54Z</time>
      </trkpt>
      <trkpt lat="42.290582" lon="-2.417419">
        <ele>836.2</ele>
        <time>2026-01-01T08:53:04Z</time>
      </trkpt>
      <trkpt lat="42.290448" lon="-2.417411">
        <ele>836.5</ele>
        <time>2026-01-01T08:53:21Z</time>
      </trkpt>
      <trkpt lat="42.290298" lon="-2.417433">
        <ele>835.7</ele>
        <time>2026-01-01T08:53:33Z</time>
      </trkpt>
      <trkpt lat="42.290152" lon="-2.417456">
        <ele>833.6</ele>
        <time>2026-01-01T08:53:45Z</time>
      </trkpt>
      <trkpt lat="42.290032" lon="-2.417469">
        <ele>832.3</ele>
        <time>2026-01-01T08:53:55Z</time>
      </trkpt>
      <trkpt lat="42.289930" lon="-2.417483">
        <ele>830.9</ele>
        <time>2026-01-01T08:54:03Z</time>
      </trkpt>
      <trkpt lat="42.289835" lon="-2.417513">
        <ele>830.3</ele>
        <time>2026-01-01T08:54:11Z</time>
      </trkpt>
      <trkpt lat="42.289795" lon="-2.417578">
        <ele>829.2</ele>
        <time>2026-01-01T08:54:16Z</time>
      </trkpt>
      <trkpt lat="42.289798" lon="-2.417682">
        <ele>826.9</ele>
        <time>2026-01-01T08:54:22Z</time>
      </trkpt>
      <trkpt lat="42.289819" lon="-2.417888">
        <ele>823.0</ele>
        <time>2026-01-01T08:54:34Z</time>
      </trkpt>
      <trkpt lat="42.289833" lon="-2.418091">
        <ele>822.5</ele>
        <time>2026-01-01T08:54:46Z</time>
      </trkpt>
      <trkpt lat="42.289846" lon="-2.418289">
        <ele>823.0</ele>
        <time>2026-01-01T08:55:06Z</time>
      </trkpt>
      <trkpt lat="42.289828" lon="-2.418540">
        <ele>824.8</ele>
        <time>2026-01-01T08:55:31Z</time>
      </trkpt>
      <trkpt lat="42.289804" lon="-2.418790">
        <ele>824.6</ele>
        <time>2026-01-01T08:55:46Z</time>
      </trkpt>
      <trkpt lat="42.289762" lon="-2.419034">
        <ele>824.5</ele>
        <time>2026-01-01T08:56:01Z</time>
      </trkpt>
      <trkpt lat="42.289728" lon="-2.419252">
        <ele>824.1</ele>
        <time>2026-01-01T08:56:14Z</time>
      </trkpt>
      <trkpt lat="42.289712" lon="-2.419435">
        <ele>823.9</ele>
        <time>2026-01-01T08:56:25Z</time>
      </trkpt>
      <trkpt lat="42.289676" lon="-2.419590">
        <ele>824.0</ele>
        <time>2026-01-01T08:56:41Z</time>
      </trkpt>
      <trkpt lat="42.289612" lon="-2.419642">
        <ele>823.9</ele>
        <time>2026-01-01T08:56:47Z</time>
      </trkpt>
      <trkpt lat="42.289518" lon="-2.419653">
        <ele>824.6</ele>
        <time>2026-01-01T08:56:59Z</time>
      </trkpt>
      <trkpt lat="42.289397" lon="-2.419608">
        <ele>826.1</ele>
        <time>2026-01-01T08:57:16Z</time>
      </trkpt>
      <trkpt lat="42.289280" lon="-2.419569">
        <ele>825.2</ele>
        <time>2026-01-01T08:57:26Z</time>
      </trkpt>
      <trkpt lat="42.289158" lon="-2.419525">
        <ele>823.7</ele>
        <time>2026-01-01T08:57:36Z</time>
      </trkpt>
      <trkpt lat="42.289033" lon="-2.419505">
        <ele>818.9</ele>
        <time>2026-01-01T08:57:46Z</time>
      </trkpt>
      <trkpt lat="42.288891" lon="-2.419471">
        <ele>816.4</ele>
        <time>2026-01-01T08:57:58Z</time>
      </trkpt>
      <trkpt lat="42.288755" lon="-2.419445">
        <ele>815.6</ele>
        <time>2026-01-01T08:58:09Z</time>
      </trkpt>
      <trkpt lat="42.288632" lon="-2.419447">
        <ele>817.3</ele>
        <time>2026-01-01T08:58:25Z</time>
      </trkpt>
      <trkpt lat="42.288519" lon="-2.419460">
        <ele>819.4</ele>
        <time>2026-01-01T08:58:40Z</time>
      </trkpt>
      <trkpt lat="42.288418" lon="-2.419498">
        <ele>819.0</ele>
        <time>2026-01-01T08:58:49Z</time>
      </trkpt>
      <trkpt lat="42.288313" lon="-2.419558">
        <ele>817.2</ele>
        <time>2026-01-01T08:58:58Z</time>
      </trkpt>
      <trkpt lat="42.288224" lon="-2.419638">
        <ele>816.5</ele>
        <time>2026-01-01T08:59:06Z</time>
      </trkpt>
      <trkpt lat="42.288169" lon="-2.419771">
        <ele>816.1</ele>
        <time>2026-01-01T08:59:15Z</time>
      </trkpt>
      <trkpt lat="42.288140" lon="-2.419931">
        <ele>814.5</ele>
        <time>2026-01-01T08:59:25Z</time>
      </trkpt>
      <trkpt lat="42.288118" lon="-2.420069">
        <ele>811.7</ele>
        <time>2026-01-01T08:59:33Z</time>
      </trkpt>
      <trkpt lat="42.288082" lon="-2.420150">
        <ele>810.3</ele>
        <time>2026-01-01T08:59:39Z</time>
      </trkpt>
      <trkpt lat="42.288030" lon="-2.420208">
        <ele>810.1</ele>
        <time>2026-01-01T08:59:44Z</time>
      </trkpt>
      <trkpt lat="42.287920" lon="-2.420269">
        <ele>810.6</ele>
        <time>2026-01-01T09:00:00Z</time>
      </trkpt>
      <trkpt lat="42.287767" lon="-2.420319">
        <ele>811.7</ele>
        <time>2026-01-01T09:00:21Z</time>
      </trkpt>
      <trkpt lat="42.287628" lon="-2.420372">
        <ele>813.3</ele>
        <time>2026-01-01T09:00:40Z</time>
      </trkpt>
      <trkpt lat="42.287489" lon="-2.420444">
        <ele>814.2</ele>
        <time>2026-01-01T09:01:00Z</time>
      </trkpt>
      <trkpt lat="42.287395" lon="-2.420589">
        <ele>811.1</ele>
        <time>2026-01-01T09:01:12Z</time>
      </trkpt>
      <trkpt lat="42.287349" lon="-2.420763">
        <ele>805.8</ele>
        <time>2026-01-01T09:01:23Z</time>
      </trkpt>
      <trkpt lat="42.287325" lon="-2.420932">
        <ele>802.0</ele>
        <time>2026-01-01T09:01:33Z</time>
      </trkpt>
      <trkpt lat="42.287342" lon="-2.421059">
        <ele>797.6</ele>
        <time>2026-01-01T09:01:41Z</time>
      </trkpt>
      <trkpt lat="42.287318" lon="-2.421179">
        <ele>798.7</ele>
        <time>2026-01-01T09:01:53Z</time>
      </trkpt>
      <trkpt lat="42.287248" lon="-2.421310">
        <ele>801.8</ele>
        <time>2026-01-01T09:02:09Z</time>
      </trkpt>
      <trkpt lat="42.287132" lon="-2.421450">
        <ele>801.9</ele>
        <time>2026-01-01T09:02:30Z</time>
      </trkpt>
      <trkpt lat="42.287026" lon="-2.421611">
        <ele>800.6</ele>
        <time>2026-01-01T09:02:42Z</time>
      </trkpt>
      <trkpt lat="42.286984" lon="-2.421810">
        <ele>794.5</ele>
        <time>2026-01-01T09:02:55Z</time>
      </trkpt>
      <trkpt lat="42.286934" lon="-2.422016">
        <ele>791.8</ele>
        <time>2026-01-01T09:03:07Z</time>
      </trkpt>
      <trkpt lat="42.286897" lon="-2.422220">
        <ele>789.0</ele>
        <time>2026-01-01T09:03:20Z</time>
      </trkpt>
      <trkpt lat="42.286863" lon="-2.422403">
        <ele>789.2</ele>
        <time>2026-01-01T09:03:38Z</time>
      </trkpt>
      <trkpt lat="42.286840" lon="-2.422585">
        <ele>784.7</ele>
        <time>2026-01-01T09:03:49Z</time>
      </trkpt>
      <trkpt lat="42.286828" lon="-2.422775">
        <ele>782.2</ele>
        <time>2026-01-01T09:04:01Z</time>
      </trkpt>
      <trkpt lat="42.286829" lon="-2.422949">
        <ele>781.9</ele>
        <time>2026-01-01T09:04:11Z</time>
      </trkpt>
      <trkpt lat="42.286880" lon="-2.423087">
        <ele>778.1</ele>
        <time>2026-01-01T09:04:20Z</time>
      </trkpt>
      <trkpt lat="42.286924" lon="-2.423211">
        <ele>775.5</ele>
        <time>2026-01-01T09:04:28Z</time>
      </trkpt>
      <trkpt lat="42.286941" lon="-2.423333">
        <ele>776.0</ele>
        <time>2026-01-01T09:04:41Z</time>
      </trkpt>
      <trkpt lat="42.286947" lon="-2.423461">
        <ele>774.1</ele>
        <time>2026-01-01T09:04:48Z</time>
      </trkpt>
      <trkpt lat="42.286957" lon="-2.423553">
        <ele>771.2</ele>
        <time>2026-01-01T09:04:54Z</time>
      </trkpt>
      <trkpt lat="42.286895" lon="-2.423652">
        <ele>769.5</ele>
        <time>2026-01-01T09:05:01Z</time>
      </trkpt>
      <trkpt lat="42.286861" lon="-2.423750">
        <ele>766.0</ele>
        <time>2026-01-01T09:05:08Z</time>
      </trkpt>
      <trkpt lat="42.286896" lon="-2.423847">
        <ele>761.9</ele>
        <time>2026-01-01T09:05:14Z</time>
      </trkpt>
      <trkpt lat="42.286949" lon="-2.424010">
        <ele>758.7</ele>
        <time>2026-01-01T09:05:25Z</time>
      </trkpt>
      <trkpt lat="42.286985" lon="-2.424162">
        <ele>756.0</ele>
        <time>2026-01-01T09:05:34Z</time>
      </trkpt>
      <trkpt lat="42.286992" lon="-2.424297">
        <ele>753.3</ele>
        <time>2026-01-01T09:05:42Z</time>
      </trkpt>
      <trkpt lat="42.286976" lon="-2.424401">
        <ele>750.8</ele>
        <time>2026-01-01T09:05:48Z</time>
      </trkpt>
      <trkpt lat="42.286974" lon="-2.424485">
        <ele>749.8</ele>
        <time>2026-01-01T09:05:53Z</time>
      </trkpt>
      <trkpt lat="42.287007" lon="-2.424574">
        <ele>750.1</ele>
        <time>2026-01-01T09:06:03Z</time>
      </trkpt>
      <trkpt lat="42.287053" lon="-2.424675">
        <ele>753.1</ele>
        <time>2026-01-01T09:06:15Z</time>
      </trkpt>
      <trkpt lat="42.287100" lon="-2.424775">
        <ele>756.5</ele>
        <time>2026-01-01T09:06:27Z</time>
      </trkpt>
      <trkpt lat="42.287189" lon="-2.424950">
        <ele>760.6</ele>
        <time>2026-01-01T09:06:48Z</time>
      </trkpt>
    </trkseg>
  </trk>
</gpx>
