<?xml version="1.0" encoding="UTF-8" standalone="no" ?>
<gpx xmlns="http://www.topografix.com/GPX/1/1" creator="CompeGPS" version="1.1" xmlns:xsi="http://www.w3.org/2001/XMLSchema-instance" xsi:schemaLocation="http://www.topografix.com/GPX/1/1 http://www.topografix.com/GPX/1/1/gpx.xsd">
  <metadata>
    <time>2026-01-01T08:00:00Z</time>
    <bounds maxlat="42.242739" maxlon="-2.474689" minlat="42.227977" minlon="-2.518141"/>
  </metadata>
  <trk>
    <name>torre (ida y vuelta)</name>
    <trkseg>
      <trkpt lat="42.230895" lon="-2.474689">
        <ele>820.5</ele>
        <time>2026-01-01T08:00:00Z</time>
      </trkpt>
      <trkpt lat="42.229926" lon="-2.475785">
        <ele>824.4</ele>
        <time>2026-01-01T08:02:48Z</time>
      </trkpt>
      <trkpt lat="42.229643" lon="-2.476113">
        <ele>827.2</ele>
        <time>2026-01-01T08:03:38Z</time>
      </trkpt>
      <trkpt lat="42.229179" lon="-2.476781">
        <ele>826.8</ele>
        <time>2026-01-01T08:04:32Z</time>
      </trkpt>
      <trkpt lat="42.228734" lon="-2.477710">
        <ele>828.1</ele>
        <time>2026-01-01T08:06:22Z</time>
      </trkpt>
      <trkpt lat="42.228269" lon="-2.478652">
        <ele>833.3</ele>
        <time>2026-01-01T08:08:13Z</time>
      </trkpt>
      <trkpt lat="42.227976" lon="-2.479184">
        <ele>831.1</ele>
        <time>2026-01-01T08:08:53Z</time>
      </trkpt>
      <trkpt lat="42.228118" lon="-2.479634">
        <ele>830.8</ele>
        <time>2026-01-01T08:09:22Z</time>
      </trkpt>
      <trkpt lat="42.228503" lon="-2.480098">
        <ele>835.5</ele>
        <time>2026-01-01T08:10:31Z</time>
      </trkpt>
      <trkpt lat="42.228887" lon="-2.480426">
        <ele>841.0</ele>
        <time>2026-01-01T08:11:31Z</time>
      </trkpt>
      <trkpt lat="42.229413" lon="-2.481258">
        <ele>847.1</ele>
        <time>2026-01-01T08:13:19Z</time>
      </trkpt>
      <trkpt lat="42.229807" lon="-2.481695">
        <ele>851.3</ele>
        <time>2026-01-01T08:14:27Z</time>
      </trkpt>
      <trkpt lat="42.230323" lon="-2.481709">
        <ele>858.7</ele>
        <time>2026-01-01T08:15:36Z</time>
      </trkpt>
      <trkpt lat="42.230828" lon="-2.481927">
        <ele>866.6</ele>
        <time>2026-01-01T08:16:47Z</time>
      </trkpt>
      <trkpt lat="42.231314" lon="-2.482459">
        <ele>872.0</ele>
        <time>2026-01-01T08:18:10Z</time>
      </trkpt>
      <trkpt lat="42.231840" lon="-2.483060">
        <ele>877.9</ele>
        <time>2026-01-01T08:19:42Z</time>
      </trkpt>
      <trkpt lat="42.232295" lon="-2.483865">
        <ele>889.3</ele>
        <time>2026-01-01T08:21:22Z</time>
      </trkpt>
      <trkpt lat="42.232669" lon="-2.484643">
        <ele>896.3</ele>
        <time>2026-01-01T08:22:54Z</time>
      </trkpt>
      <trkpt lat="42.233083" lon="-2.485558">
        <ele>905.9</ele>
        <time>2026-01-01T08:24:40Z</time>
      </trkpt>
      <trkpt lat="42.233518" lon="-2.486513">
        <ele>912.9</ele>
        <time>2026-01-01T08:26:31Z</time>
      </trkpt>
      <trkpt lat="42.233832" lon="-2.487510">
        <ele>922.7</ele>
        <time>2026-01-01T08:28:18Z</time>
      </trkpt>
      <trkpt lat="42.234226" lon="-2.488533">
        <ele>933.9</ele>
        <time>2026-01-01T08:30:12Z</time>
      </trkpt>
      <trkpt lat="42.234641" lon="-2.489489">
        <ele>943.5</ele>
        <time>2026-01-01T08:32:01Z</time>
      </trkpt>
      <trkpt lat="42.235197" lon="-2.490185">
        <ele>949.5</ele>
        <time>2026-01-01T08:33:42Z</time>
      </trkpt>
      <trkpt lat="42.235834" lon="-2.490676">
        <ele>958.9</ele>
        <time>2026-01-01T08:35:20Z</time>
      </trkpt>
      <trkpt lat="42.236299" lon="-2.491222">
        <ele>969.6</ele>
        <time>2026-01-01T08:36:42Z</time>
      </trkpt>
      <trkpt lat="42.236673" lon="-2.492000">
        <ele>978.9</ele>
        <time>2026-01-01T08:38:14Z</time>
      </trkpt>
      <trkpt lat="42.236896" lon="-2.492833">
        <ele>987.0</ele>
        <time>2026-01-01T08:39:42Z</time>
      </trkpt>
      <trkpt lat="42.237068" lon="-2.493515">
        <ele>996.4</ele>
        <time>2026-01-01T08:40:53Z</time>
      </trkpt>
      <trkpt lat="42.237340" lon="-2.493897">
        <ele>1006.9</ele>
        <time>2026-01-01T08:41:45Z</time>
      </trkpt>
      <trkpt lat="42.237573" lon="-2.494430">
        <ele>1013.8</ele>
        <time>2026-01-01T08:42:46Z</time>
      </trkpt>
      <trkpt lat="42.237806" lon="-2.494730">
        <ele>1020.8</ele>
        <time>2026-01-01T08:43:29Z</time>
      </trkpt>
      <trkpt lat="42.237644" lon="-2.495249">
        <ele>1022.3</ele>
        <time>2026-01-01T08:44:25Z</time>
      </trkpt>
      <trkpt lat="42.237695" lon="-2.495740">
        <ele>1029.3</ele>
        <time>2026-01-01T08:45:14Z</time>
      </trkpt>
      <trkpt lat="42.237917" lon="-2.495726">
        <ele>1038.0</ele>
        <time>2026-01-01T08:45:43Z</time>
      </trkpt>
      <trkpt lat="42.238130" lon="-2.495494">
        <ele>1041.7</ele>
        <time>2026-01-01T08:46:20Z</time>
      </trkpt>
      <trkpt lat="42.238383" lon="-2.495207">
        <ele>1045.5</ele>
        <time>2026-01-01T08:47:04Z</time>
      </trkpt>
      <trkpt lat="42.238595" lon="-2.495234">
        <ele>1052.6</ele>
        <time>2026-01-01T08:47:32Z</time>
      </trkpt>
      <trkpt lat="42.238484" lon="-2.495548">
        <ele>1056.3</ele>
        <time>2026-01-01T08:48:07Z</time>
      </trkpt>
      <trkpt lat="42.238414" lon="-2.495999">
        <ele>1058.4</ele>
        <time>2026-01-01T08:48:52Z</time>
      </trkpt>
      <trkpt lat="42.238565" lon="-2.496354">
        <ele>1063.7</ele>
        <time>2026-01-01T08:49:33Z</time>
      </trkpt>
      <trkpt lat="42.238748" lon="-2.496736">
        <ele>1069.1</ele>
        <time>2026-01-01T08:50:18Z</time>
      </trkpt>
      <trkpt lat="42.238940" lon="-2.497200">
        <ele>1079.3</ele>
        <time>2026-01-01T08:51:10Z</time>
      </trkpt>
      <trkpt lat="42.239061" lon="-2.496913">
        <ele>1084.0</ele>
        <time>2026-01-01T08:51:43Z</time>
      </trkpt>
      <trkpt lat="42.239102" lon="-2.496544">
        <ele>1086.9</ele>
        <time>2026-01-01T08:52:20Z</time>
      </trkpt>
      <trkpt lat="42.239294" lon="-2.496831">
        <ele>1093.5</ele>
        <time>2026-01-01T08:52:58Z</time>
      </trkpt>
      <trkpt lat="42.239466" lon="-2.497349">
        <ele>1100.1</ele>
        <time>2026-01-01T08:53:54Z</time>
      </trkpt>
      <trkpt lat="42.239537" lon="-2.498018">
        <ele>1105.8</ele>
        <time>2026-01-01T08:55:01Z</time>
      </trkpt>
      <trkpt lat="42.239659" lon="-2.498905">
        <ele>1118.9</ele>
        <time>2026-01-01T08:56:30Z</time>
      </trkpt>
      <trkpt lat="42.239710" lon="-2.499383">
        <ele>1123.3</ele>
        <time>2026-01-01T08:57:18Z</time>
      </trkpt>
      <trkpt lat="42.240084" lon="-2.499656">
        <ele>1128.7</ele>
        <time>2026-01-01T08:58:14Z</time>
      </trkpt>
      <trkpt lat="42.240417" lon="-2.500120">
        <ele>1134.8</ele>
        <time>2026-01-01T08:59:18Z</time>
      </trkpt>
      <trkpt lat="42.240610" lon="-2.500734">
        <ele>1136.8</ele>
        <time>2026-01-01T09:00:24Z</time>
      </trkpt>
      <trkpt lat="42.240570" lon="-2.501362">
        <ele>1139.5</ele>
        <time>2026-01-01T09:01:26Z</time>
      </trkpt>
      <trkpt lat="42.240418" lon="-2.501990">
        <ele>1140.4</ele>
        <time>2026-01-01T09:02:32Z</time>
      </trkpt>
      <trkpt lat="42.240459" lon="-2.502577">
        <ele>1144.5</ele>
        <time>2026-01-01T09:03:30Z</time>
      </trkpt>
      <trkpt lat="42.240712" lon="-2.503055">
        <ele>1143.7</ele>
        <time>2026-01-01T09:04:05Z</time>
      </trkpt>
      <trkpt lat="42.241147" lon="-2.503300">
        <ele>1142.0</ele>
        <time>2026-01-01T09:04:42Z</time>
      </trkpt>
      <trkpt lat="42.241703" lon="-2.503464">
        <ele>1138.9</ele>
        <time>2026-01-01T09:05:28Z</time>
      </trkpt>
      <trkpt lat="42.242127" lon="-2.503873">
        <ele>1134.8</ele>
        <time>2026-01-01T09:06:10Z</time>
      </trkpt>
      <trkpt lat="42.242522" lon="-2.504365">
        <ele>1128.3</ele>
        <time>2026-01-01T09:06:53Z</time>
      </trkpt>
      <trkpt lat="42.242472" lon="-2.504993">
        <ele>1124.5</ele>
        <time>2026-01-01T09:07:30Z</time>
      </trkpt>
      <trkpt lat="42.242259" lon="-2.505730">
        <ele>1125.9</ele>
        <time>2026-01-01T09:08:48Z</time>
      </trkpt>
      <trkpt lat="42.241987" lon="-2.506549">
        <ele>1126.7</ele>
        <time>2026-01-01T09:10:17Z</time>
      </trkpt>
      <trkpt lat="42.241674" lon="-2.506985">
        <ele>1128.5</ele>
        <time>2026-01-01T09:11:17Z</time>
      </trkpt>
      <trkpt lat="42.241270" lon="-2.507135">
        <ele>1131.1</ele>
        <time>2026-01-01T09:12:13Z</time>
      </trkpt>
      <trkpt lat="42.240957" lon="-2.507149">
        <ele>1134.3</ele>
        <time>2026-01-01T09:12:55Z</time>
      </trkpt>
      <trkpt lat="42.240856" lon="-2.507367">
        <ele>1139.9</ele>
        <time>2026-01-01T09:13:20Z</time>
      </trkpt>
      <trkpt lat="42.240917" lon="-2.507763">
        <ele>1143.9</ele>
        <time>2026-01-01T09:14:00Z</time>
      </trkpt>
      <trkpt lat="42.240977" lon="-2.508363">
        <ele>1147.9</ele>
        <time>2026-01-01T09:15:00Z</time>
      </trkpt>
      <trkpt lat="42.241008" lon="-2.508950">
        <ele>1153.6</ele>
        <time>2026-01-01T09:15:58Z</time>
      </trkpt>
      <trkpt lat="42.241150" lon="-2.509537">
        <ele>1158.5</ele>
        <time>2026-01-01T09:16:59Z</time>
      </trkpt>
      <trkpt lat="42.241140" lon="-2.509933">
        <ele>1160.3</ele>
        <time>2026-01-01T09:17:38Z</time>
      </trkpt>
      <trkpt lat="42.240958" lon="-2.510301">
        <ele>1166.2</ele>
        <time>2026-01-01T09:18:22Z</time>
      </trkpt>
      <trkpt lat="42.240746" lon="-2.510643">
        <ele>1171.2</ele>
        <time>2026-01-01T09:19:06Z</time>
      </trkpt>
      <trkpt lat="42.240787" lon="-2.511107">
        <ele>1172.0</ele>
        <time>2026-01-01T09:19:52Z</time>
      </trkpt>
      <trkpt lat="42.241100" lon="-2.511625">
        <ele>1170.7</ele>
        <time>2026-01-01T09:20:32Z</time>
      </trkpt>
      <trkpt lat="42.241353" lon="-2.512226">
        <ele>1167.6</ele>
        <time>2026-01-01T09:21:13Z</time>
      </trkpt>
      <trkpt lat="42.241758" lon="-2.512854">
        <ele>1158.9</ele>
        <time>2026-01-01T09:22:02Z</time>
      </trkpt>
      <trkpt lat="42.242182" lon="-2.513550">
        <ele>1149.4</ele>
        <time>2026-01-01T09:22:55Z</time>
      </trkpt>
      <trkpt lat="42.242526" lon="-2.513946">
        <ele>1149.1</ele>
        <time>2026-01-01T09:23:32Z</time>
      </trkpt>
      <trkpt lat="42.242738" lon="-2.514451">
        <ele>1146.9</ele>
        <time>2026-01-01T09:24:06Z</time>
      </trkpt>
      <trkpt lat="42.242627" lon="-2.514833">
        <ele>1139.0</ele>
        <time>2026-01-01T09:24:30Z</time>
      </trkpt>
      <trkpt lat="42.242456" lon="-2.515229">
        <ele>1138.1</ele>
        <time>2026-01-01T09:24:58Z</time>
      </trkpt>
      <trkpt lat="42.242183" lon="-2.515556">
        <ele>1139.8</ele>
        <time>2026-01-01T09:25:46Z</time>
      </trkpt>
      <trkpt lat="42.241998" lon="-2.515727">
        <ele>1142.1</ele>
        <time>2026-01-01T09:26:16Z</time>
      </trkpt>
      <trkpt lat="42.241866" lon="-2.515911">
        <ele>1141.1</ele>
        <time>2026-01-01T09:26:31Z</time>
      </trkpt>
      <trkpt lat="42.241722" lon="-2.516162">
        <ele>1140.1</ele>
        <time>2026-01-01T09:26:50Z</time>
      </trkpt>
      <trkpt lat="42.241665" lon="-2.516502">
        <ele>1144.1</ele>
        <time>2026-01-01T09:27:25Z</time>
      </trkpt>
      <trkpt lat="42.241652" lon="-2.516903">
        <ele>1147.4</ele>
        <time>2026-01-01T09:28:04Z</time>
      </trkpt>
      <trkpt lat="42.241620" lon="-2.517177">
        <ele>1149.9</ele>
        <time>2026-01-01T09:28:32Z</time>
      </trkpt>
      <trkpt lat="42.241599" lon="-2.517500">
        <ele>1154.7</ele>
        <time>2026-01-01T09:29:04Z</time>
      </trkpt>
      <trkpt lat="42.241562" lon="-2.517845">
        <ele>1157.1</ele>
        <time>2026-01-01T09:29:38Z</time>
      </trkpt>
      <trkpt lat="42.241542" lon="-2.518141">
        <ele>1159.0</ele>
        <time>2026-01-01T09:30:07Z</time>
      </trkpt>
      <trkpt lat="42.241562" lon="-2.517845">
        <ele>1157.1</ele>
        <time>2026-01-01T09:30:25Z</time>
      </trkpt>
      <trkpt lat="42.241599" lon="-2.517500">
        <ele>1154.7</ele>
        <time>2026-01-01T09:30:46Z</time>
      </trkpt>
      <trkpt lat="42.241620" lon="-2.517177">
        <ele>1149.9</ele>
        <time>2026-01-01T09:31:05Z</time>
      </trkpt>
      <trkpt lat="42.241652" lon="-2.516903">
        <ele>1147.4</ele>
        <time>2026-01-01T09:31:21Z</time>
      </trkpt>
      <trkpt lat="42.241665" lon="-2.516502">
        <ele>1144.1</ele>
        <time>2026-01-01T09:31:45Z</time>
      </trkpt>
      <trkpt lat="42.241722" lon="-2.516162">
        <ele>1140.1</ele>
        <time>2026-01-01T09:32:06Z</time>
      </trkpt>
      <trkpt lat="42.241866" lon="-2.515911">
        <ele>1141.1</ele>
        <time>2026-01-01T09:32:37Z</time>
      </trkpt>
      <trkpt lat="42.241998" lon="-2.515727">
        <ele>1142.1</ele>
        <time>2026-01-01T09:33:03Z</time>
      </trkpt>
      <trkpt lat="42.242183" lon="-2.515556">
        <ele>1139.8</ele>
        <time>2026-01-01T09:33:21Z</time>
      </trkpt>
      <trkpt lat="42.242456" lon="-2.515229">
        <ele>1138.1</ele>
        <time>2026-01-01T09:33:50Z</time>
      </trkpt>
      <trkpt lat="42.242627" lon="-2.514833">
        <ele>1139.0</ele>
        <time>2026-01-01T09:34:35Z</time>
      </trkpt>
      <trkpt lat="42.242738" lon="-2.514451">
        <ele>1146.9</ele>
        <time>2026-01-01T09:35:16Z</time>
      </trkpt>
      <trkpt lat="42.242526" lon="-2.513946">
        <ele>1149.1</ele>
        <time>2026-01-01T09:36:13Z</time>
      </trkpt>
      <trkpt lat="42.242182" lon="-2.513550">
        <ele>1149.4</ele>
        <time>2026-01-01T09:37:13Z</time>
      </trkpt>
      <trkpt lat="42.241758" lon="-2.512854">
        <ele>1158.9</ele>
        <time>2026-01-01T09:38:42Z</time>
      </trkpt>
      <trkpt lat="42.241353" lon="-2.512226">
        <ele>1167.6</ele>
        <time>2026-01-01T09:40:05Z</time>
      </trkpt>
      <trkpt lat="42.241100" lon="-2.511625">
        <ele>1170.7</ele>
        <time>2026-01-01T09:41:13Z</time>
      </trkpt>
      <trkpt lat="42.240787" lon="-2.511107">
        <ele>1172.0</ele>
        <time>2026-01-01T09:42:19Z</time>
      </trkpt>
      <trkpt lat="42.240746" lon="-2.510643">
        <ele>1171.2</ele>
        <time>2026-01-01T09:42:47Z</time>
      </trkpt>
      <trkpt lat="42.240958" lon="-2.510301">
        <ele>1166.2</ele>
        <time>2026-01-01T09:43:13Z</time>
      </trkpt>
      <trkpt lat="42.241140" lon="-2.509933">
        <ele>1160.3</ele>
        <time>2026-01-01T09:43:39Z</time>
      </trkpt>
      <trkpt lat="42.241150" lon="-2.509537">
        <ele>1158.5</ele>
        <time>2026-01-01T09:44:03Z</time>
      </trkpt>
      <trkpt lat="42.241008" lon="-2.508950">
        <ele>1153.6</ele>
        <time>2026-01-01T09:44:39Z</time>
      </trkpt>
      <trkpt lat="42.240977" lon="-2.508363">
        <ele>1147.9</ele>
        <time>2026-01-01T09:45:14Z</time>
      </trkpt>
      <trkpt lat="42.240917" lon="-2.507763">
        <ele>1143.9</ele>
        <time>2026-01-01T09:45:50Z</time>
      </trkpt>
      <trkpt lat="42.240856" lon="-2.507367">
        <ele>1139.9</ele>
        <time>2026-01-01T09:46:14Z</time>
      </trkpt>
      <trkpt lat="42.240957" lon="-2.507149">
        <ele>1134.3</ele>
        <time>2026-01-01T09:46:29Z</time>
      </trkpt>
      <trkpt lat="42.241270" lon="-2.507135">
        <ele>1131.1</ele>
        <time>2026-01-01T09:46:54Z</time>
      </trkpt>
      <trkpt lat="42.241674" lon="-2.506985">
        <ele>1128.5</ele>
        <time>2026-01-01T09:47:28Z</time>
      </trkpt>
      <trkpt lat="42.241987" lon="-2.506549">
        <ele>1126.7</ele>
        <time>2026-01-01T09:48:04Z</time>
      </trkpt>
      <trkpt lat="42.242259" lon="-2.505730">
        <ele>1125.9</ele>
        <time>2026-01-01T09:48:57Z</time>
      </trkpt>
      <trkpt lat="42.242472" lon="-2.504993">
        <ele>1124.5</ele>
        <time>2026-01-01T09:49:44Z</time>
      </trkpt>
      <trkpt lat="42.242522" lon="-2.504365">
        <ele>1128.3</ele>
        <time>2026-01-01T09:50:46Z</time>
      </trkpt>
      <trkpt lat="42.242127" lon="-2.503873">
        <ele>1134.8</ele>
        <time>2026-01-01T09:51:58Z</time>
      </trkpt>
      <trkpt lat="42.241703" lon="-2.503464">
        <ele>1138.9</ele>
        <time>2026-01-01T09:53:08Z</time>
      </trkpt>
      <trkpt lat="42.241147" lon="-2.503300">
        <ele>1142.0</ele>
        <time>2026-01-01T09:54:24Z</time>
      </trkpt>
      <trkpt lat="42.240712" lon="-2.503055">
        <ele>1143.7</ele>
        <time>2026-01-01T09:55:26Z</time>
      </trkpt>
      <trkpt lat="42.240459" lon="-2.502577">
        <ele>1144.5</ele>
        <time>2026-01-01T09:56:24Z</time>
      </trkpt>
      <trkpt lat="42.240418" lon="-2.501990">
        <ele>1140.4</ele>
        <time>2026-01-01T09:56:59Z</time>
      </trkpt>
      <trkpt lat="42.240570" lon="-2.501362">
        <ele>1139.5</ele>
        <time>2026-01-01T09:57:39Z</time>
      </trkpt>
      <trkpt lat="42.240610" lon="-2.500734">
        <ele>1136.8</ele>
        <time>2026-01-01T09:58:16Z</time>
      </trkpt>
      <trkpt lat="42.240417" lon="-2.500120">
        <ele>1134.8</ele>
        <time>2026-01-01T09:58:55Z</time>
      </trkpt>
      <trkpt lat="42.240084" lon="-2.499656">
        <ele>1128.7</ele>
        <time>2026-01-01T09:59:34Z</time>
      </trkpt>
      <trkpt lat="42.239710" lon="-2.499383">
        <ele>1123.3</ele>
        <time>2026-01-01T10:00:08Z</time>
      </trkpt>
      <trkpt lat="42.239659" lon="-2.498905">
        <ele>1118.9</ele>
        <time>2026-01-01T10:00:36Z</time>
      </trkpt>
      <trkpt lat="42.239537" lon="-2.498018">
        <ele>1105.8</ele>
        <time>2026-01-01T10:01:30Z</time>
      </trkpt>
      <trkpt lat="42.239466" lon="-2.497349">
        <ele>1100.1</ele>
        <time>2026-01-01T10:02:10Z</time>
      </trkpt>
      <trkpt lat="42.239294" lon="-2.496831">
        <ele>1093.5</ele>
        <time>2026-01-01T10:02:44Z</time>
      </trkpt>
      <trkpt lat="42.239102" lon="-2.496544">
        <ele>1086.9</ele>
        <time>2026-01-01T10:03:07Z</time>
      </trkpt>
      <trkpt lat="42.239061" lon="-2.496913">
        <ele>1084.0</ele>
        <time>2026-01-01T10:03:29Z</time>
      </trkpt>
      <trkpt lat="42.238940" lon="-2.497200">
        <ele>1079.3</ele>
        <time>2026-01-01T10:03:48Z</time>
      </trkpt>
      <trkpt lat="42.238748" lon="-2.496736">
        <ele>1069.1</ele>
        <time>2026-01-01T10:04:20Z</time>
      </trkpt>
      <trkpt lat="42.238565" lon="-2.496354">
        <ele>1063.7</ele>
        <time>2026-01-01T10:04:47Z</time>
      </trkpt>
      <trkpt lat="42.238414" lon="-2.495999">
        <ele>1058.4</ele>
        <time>2026-01-01T10:05:11Z</time>
      </trkpt>
      <trkpt lat="42.238484" lon="-2.495548">
        <ele>1056.3</ele>
        <time>2026-01-01T10:05:38Z</time>
      </trkpt>
      <trkpt lat="42.238595" lon="-2.495234">
        <ele>1052.6</ele>
        <time>2026-01-01T10:05:59Z</time>
      </trkpt>
      <trkpt lat="42.238383" lon="-2.495207">
        <ele>1045.5</ele>
        <time>2026-01-01T10:06:16Z</time>
      </trkpt>
      <trkpt lat="42.238130" lon="-2.495494">
        <ele>1041.7</ele>
        <time>2026-01-01T10:06:42Z</time>
      </trkpt>
      <trkpt lat="42.237917" lon="-2.495726">
        <ele>1038.0</ele>
        <time>2026-01-01T10:07:04Z</time>
      </trkpt>
      <trkpt lat="42.237695" lon="-2.495740">
        <ele>1029.3</ele>
        <time>2026-01-01T10:07:22Z</time>
      </trkpt>
      <trkpt lat="42.237644" lon="-2.495249">
        <ele>1022.3</ele>
        <time>2026-01-01T10:07:52Z</time>
      </trkpt>
      <trkpt lat="42.237806" lon="-2.494730">
        <ele>1020.8</ele>
        <time>2026-01-01T10:08:25Z</time>
      </trkpt>
      <trkpt lat="42.237573" lon="-2.494430">
        <ele>1013.8</ele>
        <time>2026-01-01T10:08:51Z</time>
      </trkpt>
      <trkpt lat="42.237340" lon="-2.493897">
        <ele>1006.9</ele>
        <time>2026-01-01T10:09:27Z</time>
      </trkpt>
      <trkpt lat="42.237068" lon="-2.493515">
        <ele>996.4</ele>
        <time>2026-01-01T10:09:59Z</time>
      </trkpt>
      <trkpt lat="42.236896" lon="-2.492833">
        <ele>987.0</ele>
        <time>2026-01-01T10:10:41Z</time>
      </trkpt>
      <trkpt lat="42.236673" lon="-2.492000">
        <ele>978.9</ele>
        <time>2026-01-01T10:11:34Z</time>
      </trkpt>
      <trkpt lat="42.236299" lon="-2.491222">
        <ele>969.6</ele>
        <time>2026-01-01T10:12:29Z</time>
      </trkpt>
      <trkpt lat="42.235834" lon="-2.490676">
        <ele>958.9</ele>
        <time>2026-01-01T10:13:18Z</time>
      </trkpt>
      <trkpt lat="42.235197" lon="-2.490185">
        <ele>949.5</ele>
        <time>2026-01-01T10:14:17Z</time>
      </trkpt>
      <trkpt lat="42.234641" lon="-2.489489">
        <ele>943.5</ele>
        <time>2026-01-01T10:15:18Z</time>
      </trkpt>
      <trkpt lat="42.234226" lon="-2.488533">
        <ele>933.9</ele>
        <time>2026-01-01T10:16:23Z</time>
      </trkpt>
      <trkpt lat="42.233832" lon="-2.487510">
        <ele>922.7</ele>
        <time>2026-01-01T10:17:32Z</time>
      </trkpt>
      <trkpt lat="42.233518" lon="-2.486513">
        <ele>912.9</ele>
        <time>2026-01-01T10:18:36Z</time>
      </trkpt>
      <trkpt lat="42.233083" lon="-2.485558">
        <ele>905.9</ele>
        <time>2026-01-01T10:19:42Z</time>
      </trkpt>
      <trkpt lat="42.232669" lon="-2.484643">
        <ele>896.3</ele>
        <time>2026-01-01T10:20:46Z</time>
      </trkpt>
      <trkpt lat="42.232295" lon="-2.483865">
        <ele>889.3</ele>
        <time>2026-01-01T10:21:41Z</time>
      </trkpt>
      <trkpt lat="42.231840" lon="-2.483060">
        <ele>877.9</ele>
        <time>2026-01-01T10:22:41Z</time>
      </trkpt>
      <trkpt lat="42.231314" lon="-2.482459">
        <ele>872.0</ele>
        <time>2026-01-01T10:23:36Z</time>
      </trkpt>
      <trkpt lat="42.230828" lon="-2.481927">
        <ele>866.6</ele>
        <time>2026-01-01T10:24:26Z</time>
      </trkpt>
      <trkpt lat="42.230323" lon="-2.481709">
        <ele>858.7</ele>
        <time>2026-01-01T10:25:09Z</time>
      </trkpt>
      <trkpt lat="42.229807" lon="-2.481695">
        <ele>851.3</ele>
        <time>2026-01-01T10:25:50Z</time>
      </trkpt>
      <trkpt lat="42.229413" lon="-2.481258">
        <ele>847.1</ele>
        <time>2026-01-01T10:26:31Z</time>
      </trkpt>
      <trkpt lat="42.228887" lon="-2.480426">
        <ele>841.0</ele>
        <time>2026-01-01T10:27:36Z</time>
      </trkpt>
      <trkpt lat="42.228503" lon="-2.480098">
        <ele>835.5</ele>
        <time>2026-01-01T10:28:12Z</time>
      </trkpt>
      <trkpt lat="42.228118" lon="-2.479634">
        <ele>830.8</ele>
        <time>2026-01-01T10:28:53Z</time>
      </trkpt>
      <trkpt lat="42.227976" lon="-2.479184">
        <ele>831.1</ele>
        <time>2026-01-01T10:29:42Z</time>
      </trkpt>
      <trkpt lat="42.228269" lon="-2.478652">
        <ele>833.3</ele>
        <time>2026-01-01T10:30:47Z</time>
      </trkpt>
      <trkpt lat="42.228734" lon="-2.477710">
        <ele>828.1</ele>
        <time>2026-01-01T10:31:54Z</time>
      </trkpt>
      <trkpt lat="42.229179" lon="-2.476781">
        <ele>826.8</ele>
        <time>2026-01-01T10:33:00Z</time>
      </trkpt>
      <trkpt lat="42.229643" lon="-2.476113">
        <ele>827.2</ele>
        <time>2026-01-01T10:34:30Z</time>
      </trkpt>
      <trkpt lat="42.229926" lon="-2.475785">
        <ele>824.4</ele>
        <time>2026-01-01T10:35:00Z</time>
      </trkpt>
      <trkpt lat="42.230895" lon="-2.474689">
        <ele>820.5</ele>
        <time>2026-01-01T10:36:41Z</time>
      </trkpt>
    </trkseg>
  </trk>
</gpx>
