<?xml version="1.0" encoding="UTF-8" standalone="no" ?>
<gpx xmlns="http://www.topografix.com/GPX/1/1" creator="CompeGPS" version="1.1" xmlns:xsi="http://www.w3.org/2001/XMLSchema-instance" xsi:schemaLocation="http://www.topografix.com/GPX/1/1 http://www.topografix.com/GPX/1/1/gpx.xsd">
  <metadata>
    <time>2026-01-01T08:00:00Z</time>
    <bounds maxlat="42.161888" maxlon="-2.744239" minlat="42.125100" minlon="-2.770216"/>
  </metadata>
  <trk>
    <name>drome (ida y vuelta)</name>
    <trkseg>
      <trkpt lat="42.161888" lon="-2.757169">
        <ele>1414.0</ele>
        <time>2026-01-01T08:00:00Z</time>
      </trkpt>
      <trkpt lat="42.161426" lon="-2.756839">
        <ele>1414.3</ele>
        <time>2026-01-01T08:01:09Z</time>
      </trkpt>
      <trkpt lat="42.161129" lon="-2.756545">
        <ele>1415.5</ele>
        <time>2026-01-01T08:01:58Z</time>
      </trkpt>
      <trkpt lat="42.160972" lon="-2.756203">
        <ele>1417.5</ele>
        <time>2026-01-01T08:02:38Z</time>
      </trkpt>
      <trkpt lat="42.160859" lon="-2.755627">
        <ele>1419.9</ele>
        <time>2026-01-01T08:03:37Z</time>
      </trkpt>
      <trkpt lat="42.160702" lon="-2.755038">
        <ele>1422.5</ele>
        <time>2026-01-01T08:04:39Z</time>
      </trkpt>
      <trkpt lat="42.160493" lon="-2.754414">
        <ele>1432.0</ele>
        <time>2026-01-01T08:05:47Z</time>
      </trkpt>
      <trkpt lat="42.160231" lon="-2.754178">
        <ele>1434.5</ele>
        <time>2026-01-01T08:06:29Z</time>
      </trkpt>
      <trkpt lat="42.159996" lon="-2.753907">
        <ele>1437.0</ele>
        <time>2026-01-01T08:07:10Z</time>
      </trkpt>
      <trkpt lat="42.159761" lon="-2.753460">
        <ele>1441.1</ele>
        <time>2026-01-01T08:08:04Z</time>
      </trkpt>
      <trkpt lat="42.159438" lon="-2.753001">
        <ele>1446.9</ele>
        <time>2026-01-01T08:09:07Z</time>
      </trkpt>
      <trkpt lat="42.159063" lon="-2.752636">
        <ele>1449.1</ele>
        <time>2026-01-01T08:10:09Z</time>
      </trkpt>
      <trkpt lat="42.158679" lon="-2.752365">
        <ele>1453.3</ele>
        <time>2026-01-01T08:11:06Z</time>
      </trkpt>
      <trkpt lat="42.158304" lon="-2.752000">
        <ele>1457.9</ele>
        <time>2026-01-01T08:12:08Z</time>
      </trkpt>
      <trkpt lat="42.157911" lon="-2.751600">
        <ele>1463.1</ele>
        <time>2026-01-01T08:13:14Z</time>
      </trkpt>
      <trkpt lat="42.157502" lon="-2.751176">
        <ele>1468.0</ele>
        <time>2026-01-01T08:14:23Z</time>
      </trkpt>
      <trkpt lat="42.157205" lon="-2.751034">
        <ele>1470.9</ele>
        <time>2026-01-01T08:15:05Z</time>
      </trkpt>
      <trkpt lat="42.156734" lon="-2.750975">
        <ele>1477.2</ele>
        <time>2026-01-01T08:16:08Z</time>
      </trkpt>
      <trkpt lat="42.156176" lon="-2.750893">
        <ele>1488.6</ele>
        <time>2026-01-01T08:17:23Z</time>
      </trkpt>
      <trkpt lat="42.155644" lon="-2.750669">
        <ele>1497.2</ele>
        <time>2026-01-01T08:18:37Z</time>
      </trkpt>
      <trkpt lat="42.155120" lon="-2.750316">
        <ele>1504.0</ele>
        <time>2026-01-01T08:19:55Z</time>
      </trkpt>
      <trkpt lat="42.154623" lon="-2.749845">
        <ele>1513.1</ele>
        <time>2026-01-01T08:21:16Z</time>
      </trkpt>
      <trkpt lat="42.154317" lon="-2.749445">
        <ele>1518.1</ele>
        <time>2026-01-01T08:22:13Z</time>
      </trkpt>
      <trkpt lat="42.153759" lon="-2.749139">
        <ele>1526.2</ele>
        <time>2026-01-01T08:23:33Z</time>
      </trkpt>
      <trkpt lat="42.152913" lon="-2.748703">
        <ele>1534.8</ele>
        <time>2026-01-01T08:25:34Z</time>
      </trkpt>
      <trkpt lat="42.151996" lon="-2.748267">
        <ele>1545.5</ele>
        <time>2026-01-01T08:27:44Z</time>
      </trkpt>
      <trkpt lat="42.151255" lon="-2.747737">
        <ele>1554.9</ele>
        <time>2026-01-01T08:29:36Z</time>
      </trkpt>
      <trkpt lat="42.150513" lon="-2.747313">
        <ele>1564.1</ele>
        <time>2026-01-01T08:31:23Z</time>
      </trkpt>
      <trkpt lat="42.150016" lon="-2.747195">
        <ele>1570.1</ele>
        <time>2026-01-01T08:32:31Z</time>
      </trkpt>
      <trkpt lat="42.149850" lon="-2.747148">
        <ele>1571.8</ele>
        <time>2026-01-01T08:32:53Z</time>
      </trkpt>
      <trkpt lat="42.149650" lon="-2.747136">
        <ele>1572.5</ele>
        <time>2026-01-01T08:33:20Z</time>
      </trkpt>
      <trkpt lat="42.149467" lon="-2.746912">
        <ele>1572.9</ele>
        <time>2026-01-01T08:33:53Z</time>
      </trkpt>
      <trkpt lat="42.149249" lon="-2.746606">
        <ele>1572.1</ele>
        <time>2026-01-01T08:34:18Z</time>
      </trkpt>
      <trkpt lat="42.148961" lon="-2.746288">
        <ele>1573.5</ele>
        <time>2026-01-01T08:35:08Z</time>
      </trkpt>
      <trkpt lat="42.148673" lon="-2.745935">
        <ele>1576.7</ele>
        <time>2026-01-01T08:36:00Z</time>
      </trkpt>
      <trkpt lat="42.148271" lon="-2.745676">
        <ele>1579.1</ele>
        <time>2026-01-01T08:36:59Z</time>
      </trkpt>
      <trkpt lat="42.147774" lon="-2.745417">
        <ele>1581.7</ele>
        <time>2026-01-01T08:38:10Z</time>
      </trkpt>
      <trkpt lat="42.147277" lon="-2.745146">
        <ele>1579.4</ele>
        <time>2026-01-01T08:38:53Z</time>
      </trkpt>
      <trkpt lat="42.146858" lon="-2.744852">
        <ele>1582.3</ele>
        <time>2026-01-01T08:39:56Z</time>
      </trkpt>
      <trkpt lat="42.146404" lon="-2.744757">
        <ele>1583.1</ele>
        <time>2026-01-01T08:40:58Z</time>
      </trkpt>
      <trkpt lat="42.145925" lon="-2.744746">
        <ele>1583.6</ele>
        <time>2026-01-01T08:42:02Z</time>
      </trkpt>
      <trkpt lat="42.145558" lon="-2.744804">
        <ele>1583.0</ele>
        <time>2026-01-01T08:42:31Z</time>
      </trkpt>
      <trkpt lat="42.145288" lon="-2.744628">
        <ele>1583.3</ele>
        <time>2026-01-01T08:43:11Z</time>
      </trkpt>
      <trkpt lat="42.144974" lon="-2.744439">
        <ele>1579.1</ele>
        <time>2026-01-01T08:43:39Z</time>
      </trkpt>
      <trkpt lat="42.144572" lon="-2.744286">
        <ele>1578.0</ele>
        <time>2026-01-01T08:44:12Z</time>
      </trkpt>
      <trkpt lat="42.144127" lon="-2.744239">
        <ele>1577.5</ele>
        <time>2026-01-01T08:44:48Z</time>
      </trkpt>
      <trkpt lat="42.143621" lon="-2.744439">
        <ele>1574.7</ele>
        <time>2026-01-01T08:45:30Z</time>
      </trkpt>
      <trkpt lat="42.143097" lon="-2.744698">
        <ele>1574.2</ele>
        <time>2026-01-01T08:46:15Z</time>
      </trkpt>
      <trkpt lat="42.142661" lon="-2.744839">
        <ele>1573.1</ele>
        <time>2026-01-01T08:46:51Z</time>
      </trkpt>
      <trkpt lat="42.142269" lon="-2.744969">
        <ele>1573.6</ele>
        <time>2026-01-01T08:47:45Z</time>
      </trkpt>
      <trkpt lat="42.142024" lon="-2.745251">
        <ele>1571.8</ele>
        <time>2026-01-01T08:48:10Z</time>
      </trkpt>
      <trkpt lat="42.141876" lon="-2.745604">
        <ele>1568.1</ele>
        <time>2026-01-01T08:48:34Z</time>
      </trkpt>
      <trkpt lat="42.141667" lon="-2.745933">
        <ele>1568.5</ele>
        <time>2026-01-01T08:49:17Z</time>
      </trkpt>
      <trkpt lat="42.141248" lon="-2.746345">
        <ele>1569.1</ele>
        <time>2026-01-01T08:50:27Z</time>
      </trkpt>
      <trkpt lat="42.140760" lon="-2.746851">
        <ele>1569.2</ele>
        <time>2026-01-01T08:51:49Z</time>
      </trkpt>
      <trkpt lat="42.140236" lon="-2.747181">
        <ele>1568.8</ele>
        <time>2026-01-01T08:52:35Z</time>
      </trkpt>
      <trkpt lat="42.139800" lon="-2.747605">
        <ele>1568.5</ele>
        <time>2026-01-01T08:53:18Z</time>
      </trkpt>
      <trkpt lat="42.139460" lon="-2.748111">
        <ele>1569.8</ele>
        <time>2026-01-01T08:54:26Z</time>
      </trkpt>
      <trkpt lat="42.139303" lon="-2.748711">
        <ele>1569.6</ele>
        <time>2026-01-01T08:55:03Z</time>
      </trkpt>
      <trkpt lat="42.139224" lon="-2.749170">
        <ele>1568.7</ele>
        <time>2026-01-01T08:55:31Z</time>
      </trkpt>
      <trkpt lat="42.138945" lon="-2.749558">
        <ele>1571.8</ele>
        <time>2026-01-01T08:56:25Z</time>
      </trkpt>
      <trkpt lat="42.138491" lon="-2.750041">
        <ele>1576.1</ele>
        <time>2026-01-01T08:57:42Z</time>
      </trkpt>
      <trkpt lat="42.137968" lon="-2.750677">
        <ele>1580.1</ele>
        <time>2026-01-01T08:59:16Z</time>
      </trkpt>
      <trkpt lat="42.137505" lon="-2.751336">
        <ele>1584.9</ele>
        <time>2026-01-01T09:00:46Z</time>
      </trkpt>
      <trkpt lat="42.137183" lon="-2.751924">
        <ele>1586.0</ele>
        <time>2026-01-01T09:01:58Z</time>
      </trkpt>
      <trkpt lat="42.137094" lon="-2.752230">
        <ele>1585.3</ele>
        <time>2026-01-01T09:02:18Z</time>
      </trkpt>
      <trkpt lat="42.136912" lon="-2.752456">
        <ele>1586.5</ele>
        <time>2026-01-01T09:02:51Z</time>
      </trkpt>
      <trkpt lat="42.136692" lon="-2.752705">
        <ele>1586.0</ele>
        <time>2026-01-01T09:03:14Z</time>
      </trkpt>
      <trkpt lat="42.136519" lon="-2.752998">
        <ele>1586.4</ele>
        <time>2026-01-01T09:03:51Z</time>
      </trkpt>
      <trkpt lat="42.136380" lon="-2.753255">
        <ele>1592.1</ele>
        <time>2026-01-01T09:04:22Z</time>
      </trkpt>
      <trkpt lat="42.136111" lon="-2.753501">
        <ele>1598.2</ele>
        <time>2026-01-01T09:05:05Z</time>
      </trkpt>
      <trkpt lat="42.135911" lon="-2.753654">
        <ele>1600.2</ele>
        <time>2026-01-01T09:05:36Z</time>
      </trkpt>
      <trkpt lat="42.135537" lon="-2.753689">
        <ele>1600.4</ele>
        <time>2026-01-01T09:06:26Z</time>
      </trkpt>
      <trkpt lat="42.135042" lon="-2.753783">
        <ele>1603.7</ele>
        <time>2026-01-01T09:07:33Z</time>
      </trkpt>
      <trkpt lat="42.134555" lon="-2.753853">
        <ele>1605.8</ele>
        <time>2026-01-01T09:08:38Z</time>
      </trkpt>
      <trkpt lat="42.134277" lon="-2.754181">
        <ele>1608.3</ele>
        <time>2026-01-01T09:09:28Z</time>
      </trkpt>
      <trkpt lat="42.134017" lon="-2.754392">
        <ele>1609.3</ele>
        <time>2026-01-01T09:10:08Z</time>
      </trkpt>
      <trkpt lat="42.133660" lon="-2.754521">
        <ele>1612.3</ele>
        <time>2026-01-01T09:10:57Z</time>
      </trkpt>
      <trkpt lat="42.133365" lon="-2.754650">
        <ele>1611.2</ele>
        <time>2026-01-01T09:11:22Z</time>
      </trkpt>
      <trkpt lat="42.133061" lon="-2.755189">
        <ele>1615.6</ele>
        <time>2026-01-01T09:12:29Z</time>
      </trkpt>
      <trkpt lat="42.132687" lon="-2.755587">
        <ele>1617.9</ele>
        <time>2026-01-01T09:13:33Z</time>
      </trkpt>
      <trkpt lat="42.132252" lon="-2.755775">
        <ele>1619.7</ele>
        <time>2026-01-01T09:14:34Z</time>
      </trkpt>
      <trkpt lat="42.131870" lon="-2.755950">
        <ele>1622.7</ele>
        <time>2026-01-01T09:15:28Z</time>
      </trkpt>
      <trkpt lat="42.131435" lon="-2.756443">
        <ele>1627.0</ele>
        <time>2026-01-01T09:16:43Z</time>
      </trkpt>
      <trkpt lat="42.130897" lon="-2.757064">
        <ele>1629.4</ele>
        <time>2026-01-01T09:18:18Z</time>
      </trkpt>
      <trkpt lat="42.130349" lon="-2.757791">
        <ele>1626.6</ele>
        <time>2026-01-01T09:19:19Z</time>
      </trkpt>
      <trkpt lat="42.129758" lon="-2.758518">
        <ele>1626.7</ele>
        <time>2026-01-01T09:21:06Z</time>
      </trkpt>
      <trkpt lat="42.129115" lon="-2.759174">
        <ele>1625.3</ele>
        <time>2026-01-01T09:22:11Z</time>
      </trkpt>
      <trkpt lat="42.128706" lon="-2.759760">
        <ele>1627.8</ele>
        <time>2026-01-01T09:23:30Z</time>
      </trkpt>
      <trkpt lat="42.128237" lon="-2.760323">
        <ele>1628.7</ele>
        <time>2026-01-01T09:24:54Z</time>
      </trkpt>
      <trkpt lat="42.127690" lon="-2.760897">
        <ele>1625.5</ele>
        <time>2026-01-01T09:25:50Z</time>
      </trkpt>
      <trkpt lat="42.127124" lon="-2.761319">
        <ele>1622.4</ele>
        <time>2026-01-01T09:26:41Z</time>
      </trkpt>
      <trkpt lat="42.126716" lon="-2.761718">
        <ele>1622.1</ele>
        <time>2026-01-01T09:27:22Z</time>
      </trkpt>
      <trkpt lat="42.126438" lon="-2.762257">
        <ele>1622.7</ele>
        <time>2026-01-01T09:28:27Z</time>
      </trkpt>
      <trkpt lat="42.126108" lon="-2.762949">
        <ele>1621.8</ele>
        <time>2026-01-01T09:29:16Z</time>
      </trkpt>
      <trkpt lat="42.125751" lon="-2.763687">
        <ele>1620.2</ele>
        <time>2026-01-01T09:30:08Z</time>
      </trkpt>
      <trkpt lat="42.125439" lon="-2.764496">
        <ele>1618.8</ele>
        <time>2026-01-01T09:31:02Z</time>
      </trkpt>
      <trkpt lat="42.125230" lon="-2.765399">
        <ele>1616.6</ele>
        <time>2026-01-01T09:31:58Z</time>
      </trkpt>
      <trkpt lat="42.125100" lon="-2.766290">
        <ele>1614.7</ele>
        <time>2026-01-01T09:32:52Z</time>
      </trkpt>
      <trkpt lat="42.125230" lon="-2.766934">
        <ele>1615.6</ele>
        <time>2026-01-01T09:33:58Z</time>
      </trkpt>
      <trkpt lat="42.125413" lon="-2.767520">
        <ele>1620.3</ele>
        <time>2026-01-01T09:35:01Z</time>
      </trkpt>
      <trkpt lat="42.125475" lon="-2.767803">
        <ele>1623.2</ele>
        <time>2026-01-01T09:35:30Z</time>
      </trkpt>
      <trkpt lat="42.125559" lon="-2.768097">
        <ele>1626.6</ele>
        <time>2026-01-01T09:36:01Z</time>
      </trkpt>
      <trkpt lat="42.125555" lon="-2.768474">
        <ele>1628.4</ele>
        <time>2026-01-01T09:36:39Z</time>
      </trkpt>
      <trkpt lat="42.125524" lon="-2.768941">
        <ele>1630.1</ele>
        <time>2026-01-01T09:37:25Z</time>
      </trkpt>
      <trkpt lat="42.125507" lon="-2.769444">
        <ele>1633.6</ele>
        <time>2026-01-01T09:38:15Z</time>
      </trkpt>
      <trkpt lat="42.125529" lon="-2.769917">
        <ele>1637.2</ele>
        <time>2026-01-01T09:39:02Z</time>
      </trkpt>
      <trkpt lat="42.125600" lon="-2.770216">
        <ele>1639.5</ele>
        <time>2026-01-01T09:39:33Z</time>
      </trkpt>
      <trkpt lat="42.125529" lon="-2.769917">
        <ele>1637.2</ele>
        <time>2026-01-01T09:39:52Z</time>
      </trkpt>
      <trkpt lat="42.125507" lon="-2.769444">
        <ele>1633.6</ele>
        <time>2026-01-01T09:40:20Z</time>
      </trkpt>
      <trkpt lat="42.125524" lon="-2.768941">
        <ele>1630.1</ele>
        <time>2026-01-01T09:40:50Z</time>
      </trkpt>
      <trkpt lat="42.125555" lon="-2.768474">
        <ele>1628.4</ele>
        <time>2026-01-01T09:41:18Z</time>
      </trkpt>
      <trkpt lat="42.125559" lon="-2.768097">
        <ele>1626.6</ele>
        <time>2026-01-01T09:41:40Z</time>
      </trkpt>
      <trkpt lat="42.125475" lon="-2.767803">
        <ele>1623.2</ele>
        <time>2026-01-01T09:41:59Z</time>
      </trkpt>
      <trkpt lat="42.125413" lon="-2.767520">
        <ele>1620.3</ele>
        <time>2026-01-01T09:42:16Z</time>
      </trkpt>
      <trkpt lat="42.125230" lon="-2.766934">
        <ele>1615.6</ele>
        <time>2026-01-01T09:42:54Z</time>
      </trkpt>
      <trkpt lat="42.125100" lon="-2.766290">
        <ele>1614.7</ele>
        <time>2026-01-01T09:43:34Z</time>
      </trkpt>
      <trkpt lat="42.125230" lon="-2.765399">
        <ele>1616.6</ele>
        <time>2026-01-01T09:45:03Z</time>
      </trkpt>
      <trkpt lat="42.125439" lon="-2.764496">
        <ele>1618.8</ele>
        <time>2026-01-01T09:46:37Z</time>
      </trkpt>
      <trkpt lat="42.125751" lon="-2.763687">
        <ele>1620.2</ele>
        <time>2026-01-01T09:48:07Z</time>
      </trkpt>
      <trkpt lat="42.126108" lon="-2.762949">
        <ele>1621.8</ele>
        <time>2026-01-01T09:49:34Z</time>
      </trkpt>
      <trkpt lat="42.126438" lon="-2.762257">
        <ele>1622.7</ele>
        <time>2026-01-01T09:50:56Z</time>
      </trkpt>
      <trkpt lat="42.126716" lon="-2.761718">
        <ele>1622.1</ele>
        <time>2026-01-01T09:51:35Z</time>
      </trkpt>
      <trkpt lat="42.127124" lon="-2.761319">
        <ele>1622.4</ele>
        <time>2026-01-01T09:52:42Z</time>
      </trkpt>
      <trkpt lat="42.127690" lon="-2.760897">
        <ele>1625.5</ele>
        <time>2026-01-01T09:54:08Z</time>
      </trkpt>
      <trkpt lat="42.128237" lon="-2.760323">
        <ele>1628.7</ele>
        <time>2026-01-01T09:55:41Z</time>
      </trkpt>
      <trkpt lat="42.128706" lon="-2.759760">
        <ele>1627.8</ele>
        <time>2026-01-01T09:56:31Z</time>
      </trkpt>
      <trkpt lat="42.129115" lon="-2.759174">
        <ele>1625.3</ele>
        <time>2026-01-01T09:57:19Z</time>
      </trkpt>
      <trkpt lat="42.129758" lon="-2.758518">
        <ele>1626.7</ele>
        <time>2026-01-01T09:59:07Z</time>
      </trkpt>
      <trkpt lat="42.130349" lon="-2.757791">
        <ele>1626.6</ele>
        <time>2026-01-01T10:00:11Z</time>
      </trkpt>
      <trkpt lat="42.130897" lon="-2.757064">
        <ele>1629.4</ele>
        <time>2026-01-01T10:01:53Z</time>
      </trkpt>
      <trkpt lat="42.131435" lon="-2.756443">
        <ele>1627.0</ele>
        <time>2026-01-01T10:02:50Z</time>
      </trkpt>
      <trkpt lat="42.131870" lon="-2.755950">
        <ele>1622.7</ele>
        <time>2026-01-01T10:03:35Z</time>
      </trkpt>
      <trkpt lat="42.132252" lon="-2.755775">
        <ele>1619.7</ele>
        <time>2026-01-01T10:04:08Z</time>
      </trkpt>
      <trkpt lat="42.132687" lon="-2.755587">
        <ele>1617.9</ele>
        <time>2026-01-01T10:04:44Z</time>
      </trkpt>
      <trkpt lat="42.133061" lon="-2.755189">
        <ele>1615.6</ele>
        <time>2026-01-01T10:05:22Z</time>
      </trkpt>
      <trkpt lat="42.133365" lon="-2.754650">
        <ele>1611.2</ele>
        <time>2026-01-01T10:06:03Z</time>
      </trkpt>
      <trkpt lat="42.133660" lon="-2.754521">
        <ele>1612.3</ele>
        <time>2026-01-01T10:06:44Z</time>
      </trkpt>
      <trkpt lat="42.134017" lon="-2.754392">
        <ele>1609.3</ele>
        <time>2026-01-01T10:07:14Z</time>
      </trkpt>
      <trkpt lat="42.134277" lon="-2.754181">
        <ele>1608.3</ele>
        <time>2026-01-01T10:07:38Z</time>
      </trkpt>
      <trkpt lat="42.134555" lon="-2.753853">
        <ele>1605.8</ele>
        <time>2026-01-01T10:08:07Z</time>
      </trkpt>
      <trkpt lat="42.135042" lon="-2.753783">
        <ele>1603.7</ele>
        <time>2026-01-01T10:08:47Z</time>
      </trkpt>
      <trkpt lat="42.135537" lon="-2.753689">
        <ele>1600.4</ele>
        <time>2026-01-01T10:09:27Z</time>
      </trkpt>
      <trkpt lat="42.135911" lon="-2.753654">
        <ele>1600.2</ele>
        <time>2026-01-01T10:09:57Z</time>
      </trkpt>
      <trkpt lat="42.136111" lon="-2.753501">
        <ele>1598.2</ele>
        <time>2026-01-01T10:10:15Z</time>
      </trkpt>
      <trkpt lat="42.136380" lon="-2.753255">
        <ele>1592.1</ele>
        <time>2026-01-01T10:10:41Z</time>
      </trkpt>
      <trkpt lat="42.136519" lon="-2.752998">
        <ele>1586.4</ele>
        <time>2026-01-01T10:11:00Z</time>
      </trkpt>
      <trkpt lat="42.136692" lon="-2.752705">
        <ele>1586.0</ele>
        <time>2026-01-01T10:11:22Z</time>
      </trkpt>
      <trkpt lat="42.136912" lon="-2.752456">
        <ele>1586.5</ele>
        <time>2026-01-01T10:12:01Z</time>
      </trkpt>
      <trkpt lat="42.137094" lon="-2.752230">
        <ele>1585.3</ele>
        <time>2026-01-01T10:12:20Z</time>
      </trkpt>
      <trkpt lat="42.137183" lon="-2.751924">
        <ele>1586.0</ele>
        <time>2026-01-01T10:12:53Z</time>
      </trkpt>
      <trkpt lat="42.137505" lon="-2.751336">
        <ele>1584.9</ele>
        <time>2026-01-01T10:13:36Z</time>
      </trkpt>
      <trkpt lat="42.137968" lon="-2.750677">
        <ele>1580.1</ele>
        <time>2026-01-01T10:14:30Z</time>
      </trkpt>
      <trkpt lat="42.138491" lon="-2.750041">
        <ele>1576.1</ele>
        <time>2026-01-01T10:15:27Z</time>
      </trkpt>
      <trkpt lat="42.138945" lon="-2.749558">
        <ele>1571.8</ele>
        <time>2026-01-01T10:16:13Z</time>
      </trkpt>
      <trkpt lat="42.139224" lon="-2.749170">
        <ele>1568.7</ele>
        <time>2026-01-01T10:16:45Z</time>
      </trkpt>
      <trkpt lat="42.139303" lon="-2.748711">
        <ele>1569.6</ele>
        <time>2026-01-01T10:17:32Z</time>
      </trkpt>
      <trkpt lat="42.139460" lon="-2.748111">
        <ele>1569.8</ele>
        <time>2026-01-01T10:18:34Z</time>
      </trkpt>
      <trkpt lat="42.139800" lon="-2.747605">
        <ele>1568.5</ele>
        <time>2026-01-01T10:19:15Z</time>
      </trkpt>
      <trkpt lat="42.140236" lon="-2.747181">
        <ele>1568.8</ele>
        <time>2026-01-01T10:20:27Z</time>
      </trkpt>
      <trkpt lat="42.140760" lon="-2.746851">
        <ele>1569.2</ele>
        <time>2026-01-01T10:21:44Z</time>
      </trkpt>
      <trkpt lat="42.141248" lon="-2.746345">
        <ele>1569.1</ele>
        <time>2026-01-01T10:22:33Z</time>
      </trkpt>
      <trkpt lat="42.141667" lon="-2.745933">
        <ele>1568.5</ele>
        <time>2026-01-01T10:23:15Z</time>
      </trkpt>
      <trkpt lat="42.141876" lon="-2.745604">
        <ele>1568.1</ele>
        <time>2026-01-01T10:23:40Z</time>
      </trkpt>
      <trkpt lat="42.142024" lon="-2.745251">
        <ele>1571.8</ele>
        <time>2026-01-01T10:24:21Z</time>
      </trkpt>
      <trkpt lat="42.142269" lon="-2.744969">
        <ele>1573.6</ele>
        <time>2026-01-01T10:25:04Z</time>
      </trkpt>
      <trkpt lat="42.142661" lon="-2.744839">
        <ele>1573.1</ele>
        <time>2026-01-01T10:25:36Z</time>
      </trkpt>
      <trkpt lat="42.143097" lon="-2.744698">
        <ele>1574.2</ele>
        <time>2026-01-01T10:26:36Z</time>
      </trkpt>
      <trkpt lat="42.143621" lon="-2.744439">
        <ele>1574.7</ele>
        <time>2026-01-01T10:27:50Z</time>
      </trkpt>
      <trkpt lat="42.144127" lon="-2.744239">
        <ele>1577.5</ele>
        <time>2026-01-01T10:29:00Z</time>
      </trkpt>
      <trkpt lat="42.144572" lon="-2.744286">
        <ele>1578.0</ele>
        <time>2026-01-01T10:30:00Z</time>
      </trkpt>
      <trkpt lat="42.144974" lon="-2.744439">
        <ele>1579.1</ele>
        <time>2026-01-01T10:30:56Z</time>
      </trkpt>
      <trkpt lat="42.145288" lon="-2.744628">
        <ele>1583.3</ele>
        <time>2026-01-01T10:31:42Z</time>
      </trkpt>
      <trkpt lat="42.145558" lon="-2.744804">
        <ele>1583.0</ele>
        <time>2026-01-01T10:32:06Z</time>
      </trkpt>
      <trkpt lat="42.145925" lon="-2.744746">
        <ele>1583.6</ele>
        <time>2026-01-01T10:32:55Z</time>
      </trkpt>
      <trkpt lat="42.146404" lon="-2.744757">
        <ele>1583.1</ele>
        <time>2026-01-01T10:33:33Z</time>
      </trkpt>
      <trkpt lat="42.146858" lon="-2.744852">
        <ele>1582.3</ele>
        <time>2026-01-01T10:34:10Z</time>
      </trkpt>
      <trkpt lat="42.147277" lon="-2.745146">
        <ele>1579.4</ele>
        <time>2026-01-01T10:34:48Z</time>
      </trkpt>
      <trkpt lat="42.147774" lon="-2.745417">
        <ele>1581.7</ele>
        <time>2026-01-01T10:35:59Z</time>
      </trkpt>
      <trkpt lat="42.148271" lon="-2.745676">
        <ele>1579.1</ele>
        <time>2026-01-01T10:36:42Z</time>
      </trkpt>
      <trkpt lat="42.148673" lon="-2.745935">
        <ele>1576.7</ele>
        <time>2026-01-01T10:37:18Z</time>
      </trkpt>
      <trkpt lat="42.148961" lon="-2.746288">
        <ele>1573.5</ele>
        <time>2026-01-01T10:37:49Z</time>
      </trkpt>
      <trkpt lat="42.149249" lon="-2.746606">
        <ele>1572.1</ele>
        <time>2026-01-01T10:38:19Z</time>
      </trkpt>
      <trkpt lat="42.149467" lon="-2.746912">
        <ele>1572.9</ele>
        <time>2026-01-01T10:39:01Z</time>
      </trkpt>
      <trkpt lat="42.149650" lon="-2.747136">
        <ele>1572.5</ele>
        <time>2026-01-01T10:39:21Z</time>
      </trkpt>
      <trkpt lat="42.149850" lon="-2.747148">
        <ele>1571.8</ele>
        <time>2026-01-01T10:39:37Z</time>
      </trkpt>
      <trkpt lat="42.150016" lon="-2.747195">
        <ele>1570.1</ele>
        <time>2026-01-01T10:39:50Z</time>
      </trkpt>
      <trkpt lat="42.150513" lon="-2.747313">
        <ele>1564.1</ele>
        <time>2026-01-01T10:40:31Z</time>
      </trkpt>
      <trkpt lat="42.151255" lon="-2.747737">
        <ele>1554.9</ele>
        <time>2026-01-01T10:41:35Z</time>
      </trkpt>
      <trkpt lat="42.151996" lon="-2.748267">
        <ele>1545.5</ele>
        <time>2026-01-01T10:42:42Z</time>
      </trkpt>
      <trkpt lat="42.152913" lon="-2.748703">
        <ele>1534.8</ele>
        <time>2026-01-01T10:44:00Z</time>
      </trkpt>
      <trkpt lat="42.153759" lon="-2.749139">
        <ele>1526.2</ele>
        <time>2026-01-01T10:45:13Z</time>
      </trkpt>
      <trkpt lat="42.154317" lon="-2.749445">
        <ele>1518.1</ele>
        <time>2026-01-01T10:46:01Z</time>
      </trkpt>
      <trkpt lat="42.154623" lon="-2.749845">
        <ele>1513.1</ele>
        <time>2026-01-01T10:46:35Z</time>
      </trkpt>
      <trkpt lat="42.155120" lon="-2.750316">
        <ele>1504.0</ele>
        <time>2026-01-01T10:47:23Z</time>
      </trkpt>
      <trkpt lat="42.155644" lon="-2.750669">
        <ele>1497.2</ele>
        <time>2026-01-01T10:48:10Z</time>
      </trkpt>
      <trkpt lat="42.156176" lon="-2.750893">
        <ele>1488.6</ele>
        <time>2026-01-01T10:48:55Z</time>
      </trkpt>
      <trkpt lat="42.156734" lon="-2.750975">
        <ele>1477.2</ele>
        <time>2026-01-01T10:49:40Z</time>
      </trkpt>
      <trkpt lat="42.157205" lon="-2.751034">
        <ele>1470.9</ele>
        <time>2026-01-01T10:50:18Z</time>
      </trkpt>
      <trkpt lat="42.157502" lon="-2.751176">
        <ele>1468.0</ele>
        <time>2026-01-01T10:50:43Z</time>
      </trkpt>
      <trkpt lat="42.157911" lon="-2.751600">
        <ele>1463.1</ele>
        <time>2026-01-01T10:51:24Z</time>
      </trkpt>
      <trkpt lat="42.158304" lon="-2.752000">
        <ele>1457.9</ele>
        <time>2026-01-01T10:52:04Z</time>
      </trkpt>
      <trkpt lat="42.158679" lon="-2.752365">
        <ele>1453.3</ele>
        <time>2026-01-01T10:52:41Z</time>
      </trkpt>
      <trkpt lat="42.159063" lon="-2.752636">
        <ele>1449.1</ele>
        <time>2026-01-01T10:53:15Z</time>
      </trkpt>
      <trkpt lat="42.159438" lon="-2.753001">
        <ele>1446.9</ele>
        <time>2026-01-01T10:53:52Z</time>
      </trkpt>
      <trkpt lat="42.159761" lon="-2.753460">
        <ele>1441.1</ele>
        <time>2026-01-01T10:54:30Z</time>
      </trkpt>
      <trkpt lat="42.159996" lon="-2.753907">
        <ele>1437.0</ele>
        <time>2026-01-01T10:55:03Z</time>
      </trkpt>
      <trkpt lat="42.160231" lon="-2.754178">
        <ele>1434.5</ele>
        <time>2026-01-01T10:55:27Z</time>
      </trkpt>
      <trkpt lat="42.160493" lon="-2.754414">
        <ele>1432.0</ele>
        <time>2026-01-01T10:55:53Z</time>
      </trkpt>
      <trkpt lat="42.160702" lon="-2.755038">
        <ele>1422.5</ele>
        <time>2026-01-01T10:56:33Z</time>
      </trkpt>
      <trkpt lat="42.160859" lon="-2.755627">
        <ele>1419.9</ele>
        <time>2026-01-01T10:57:10Z</time>
      </trkpt>
      <trkpt lat="42.160972" lon="-2.756203">
        <ele>1417.5</ele>
        <time>2026-01-01T10:57:46Z</time>
      </trkpt>
      <trkpt lat="42.161129" lon="-2.756545">
        <ele>1415.5</ele>
        <time>2026-01-01T10:58:10Z</time>
      </trkpt>
      <trkpt lat="42.161426" lon="-2.756839">
        <ele>1414.3</ele>
        <time>2026-01-01T10:58:39Z</time>
      </trkpt>
      <trkpt lat="42.161888" lon="-2.757169">
        <ele>1414.0</ele>
        <time>2026-01-01T10:59:21Z</time>
      </trkpt>
    </trkseg>
  </trk>
</gpx>
