<?xml version="1.0" encoding="UTF-8" standalone="no" ?>
<gpx xmlns="http://www.topografix.com/GPX/1/1" creator="CompeGPS" version="1.1" xmlns:xsi="http://www.w3.org/2001/XMLSchema-instance" xsi:schemaLocation="http://www.topografix.com/GPX/1/1 http://www.topografix.com/GPX/1/1/gpx.xsd">
  <metadata>
    <time>2026-01-01T08:00:00Z</time>
    <bounds maxlat="42.314055" maxlon="-2.545742" minlat="42.312070" minlon="-2.546862"/>
  </metadata>
  <trk>
    <name>saneste33 (ida y vuelta)</name>
    <trkseg>
      <trkpt lat="42.312070" lon="-2.545745">
        <ele>612.9</ele>
        <time>2026-01-01T08:00:00Z</time>
      </trkpt>
      <trkpt lat="42.312177" lon="-2.545855">
        <ele>616.1</ele>
        <time>2026-01-01T08:00:17Z</time>
      </trkpt>
      <trkpt lat="42.312216" lon="-2.545883">
        <ele>618.2</ele>
        <time>2026-01-01T08:00:23Z</time>
      </trkpt>
      <trkpt lat="42.312267" lon="-2.545889">
        <ele>620.8</ele>
        <time>2026-01-01T08:00:30Z</time>
      </trkpt>
      <trkpt lat="42.312319" lon="-2.545914">
        <ele>622.6</ele>
        <time>2026-01-01T08:00:38Z</time>
      </trkpt>
      <trkpt lat="42.312370" lon="-2.545914">
        <ele>623.7</ele>
        <time>2026-01-01T08:00:44Z</time>
      </trkpt>
      <trkpt lat="42.312412" lon="-2.545906">
        <ele>625.6</ele>
        <time>2026-01-01T08:00:50Z</time>
      </trkpt>
      <trkpt lat="42.312444" lon="-2.545962">
        <ele>627.4</ele>
        <time>2026-01-01T08:00:57Z</time>
      </trkpt>
      <trkpt lat="42.312490" lon="-2.545989">
        <ele>630.5</ele>
        <time>2026-01-01T08:01:04Z</time>
      </trkpt>
      <trkpt lat="42.312535" lon="-2.545903">
        <ele>633.4</ele>
        <time>2026-01-01T08:01:14Z</time>
      </trkpt>
      <trkpt lat="42.312596" lon="-2.545801">
        <ele>636.7</ele>
        <time>2026-01-01T08:01:27Z</time>
      </trkpt>
      <trkpt lat="42.312642" lon="-2.545744">
        <ele>639.4</ele>
        <time>2026-01-01T08:01:35Z</time>
      </trkpt>
      <trkpt lat="42.312692" lon="-2.545742">
        <ele>643.2</ele>
        <time>2026-01-01T08:01:42Z</time>
      </trkpt>
      <trkpt lat="42.312728" lon="-2.545870">
        <ele>646.6</ele>
        <time>2026-01-01T08:01:56Z</time>
      </trkpt>
      <trkpt lat="42.312771" lon="-2.546037">
        <ele>649.4</ele>
        <time>2026-01-01T08:02:13Z</time>
      </trkpt>
      <trkpt lat="42.312793" lon="-2.546092">
        <ele>650.9</ele>
        <time>2026-01-01T08:02:19Z</time>
      </trkpt>
      <trkpt lat="42.312828" lon="-2.546148">
        <ele>653.2</ele>
        <time>2026-01-01T08:02:26Z</time>
      </trkpt>
      <trkpt lat="42.312860" lon="-2.546185">
        <ele>655.0</ele>
        <time>2026-01-01T08:02:32Z</time>
      </trkpt>
      <trkpt lat="42.312873" lon="-2.546225">
        <ele>656.1</ele>
        <time>2026-01-01T08:02:36Z</time>
      </trkpt>
      <trkpt lat="42.312911" lon="-2.546239">
        <ele>658.3</ele>
        <time>2026-01-01T08:02:42Z</time>
      </trkpt>
      <trkpt lat="42.312940" lon="-2.546162">
        <ele>659.7</ele>
        <time>2026-01-01T08:02:50Z</time>
      </trkpt>
      <trkpt lat="42.312970" lon="-2.546138">
        <ele>661.5</ele>
        <time>2026-01-01T08:02:55Z</time>
      </trkpt>
      <trkpt lat="42.312981" lon="-2.546221">
        <ele>662.8</ele>
        <time>2026-01-01T08:03:03Z</time>
      </trkpt>
      <trkpt lat="42.313017" lon="-2.546217">
        <ele>665.0</ele>
        <time>2026-01-01T08:03:08Z</time>
      </trkpt>
      <trkpt lat="42.313052" lon="-2.546172">
        <ele>666.6</ele>
        <time>2026-01-01T08:03:14Z</time>
      </trkpt>
      <trkpt lat="42.313087" lon="-2.546115">
        <ele>668.6</ele>
        <time>2026-01-01T08:03:22Z</time>
      </trkpt>
      <trkpt lat="42.313127" lon="-2.546182">
        <ele>670.4</ele>
        <time>2026-01-01T08:03:30Z</time>
      </trkpt>
      <trkpt lat="42.313161" lon="-2.546245">
        <ele>672.4</ele>
        <time>2026-01-01T08:03:38Z</time>
      </trkpt>
      <trkpt lat="42.313198" lon="-2.546322">
        <ele>674.7</ele>
        <time>2026-01-01T08:03:47Z</time>
      </trkpt>
      <trkpt lat="42.313231" lon="-2.546369">
        <ele>676.7</ele>
        <time>2026-01-01T08:03:53Z</time>
      </trkpt>
      <trkpt lat="42.313263" lon="-2.546310">
        <ele>679.2</ele>
        <time>2026-01-01T08:04:00Z</time>
      </trkpt>
      <trkpt lat="42.313286" lon="-2.546220">
        <ele>679.5</ele>
        <time>2026-01-01T08:04:10Z</time>
      </trkpt>
      <trkpt lat="42.313325" lon="-2.546128">
        <ele>681.9</ele>
        <time>2026-01-01T08:04:20Z</time>
      </trkpt>
      <trkpt lat="42.313364" lon="-2.546118">
        <ele>685.4</ele>
        <time>2026-01-01T08:04:26Z</time>
      </trkpt>
      <trkpt lat="42.313424" lon="-2.546228">
        <ele>688.3</ele>
        <time>2026-01-01T08:04:39Z</time>
      </trkpt>
      <trkpt lat="42.313483" lon="-2.546274">
        <ele>692.6</ele>
        <time>2026-01-01T08:04:48Z</time>
      </trkpt>
      <trkpt lat="42.313518" lon="-2.546215">
        <ele>696.5</ele>
        <time>2026-01-01T08:04:56Z</time>
      </trkpt>
      <trkpt lat="42.313536" lon="-2.546156">
        <ele>698.9</ele>
        <time>2026-01-01T08:05:02Z</time>
      </trkpt>
      <trkpt lat="42.313518" lon="-2.546095">
        <ele>697.0</ele>
        <time>2026-01-01T08:05:06Z</time>
      </trkpt>
      <trkpt lat="42.313547" lon="-2.546067">
        <ele>699.2</ele>
        <time>2026-01-01T08:05:11Z</time>
      </trkpt>
      <trkpt lat="42.313589" lon="-2.546101">
        <ele>701.9</ele>
        <time>2026-01-01T08:05:17Z</time>
      </trkpt>
      <trkpt lat="42.313606" lon="-2.546166">
        <ele>703.3</ele>
        <time>2026-01-01T08:05:24Z</time>
      </trkpt>
      <trkpt lat="42.313630" lon="-2.546251">
        <ele>704.0</ele>
        <time>2026-01-01T08:05:33Z</time>
      </trkpt>
      <trkpt lat="42.313650" lon="-2.546267">
        <ele>704.9</ele>
        <time>2026-01-01T08:05:36Z</time>
      </trkpt>
      <trkpt lat="42.313680" lon="-2.546166">
        <ele>707.0</ele>
        <time>2026-01-01T08:05:47Z</time>
      </trkpt>
      <trkpt lat="42.313683" lon="-2.546294">
        <ele>706.1</ele>
        <time>2026-01-01T08:05:54Z</time>
      </trkpt>
      <trkpt lat="42.313734" lon="-2.546227">
        <ele>708.9</ele>
        <time>2026-01-01T08:06:04Z</time>
      </trkpt>
      <trkpt lat="42.313781" lon="-2.546390">
        <ele>709.4</ele>
        <time>2026-01-01T08:06:21Z</time>
      </trkpt>
      <trkpt lat="42.313820" lon="-2.546472">
        <ele>710.7</ele>
        <time>2026-01-01T08:06:31Z</time>
      </trkpt>
      <trkpt lat="42.313876" lon="-2.546586">
        <ele>714.1</ele>
        <time>2026-01-01T08:06:44Z</time>
      </trkpt>
      <trkpt lat="42.313913" lon="-2.546697">
        <ele>716.6</ele>
        <time>2026-01-01T08:06:56Z</time>
      </trkpt>
      <trkpt lat="42.313926" lon="-2.546746">
        <ele>717.8</ele>
        <time>2026-01-01T08:07:01Z</time>
      </trkpt>
      <trkpt lat="42.313953" lon="-2.546798">
        <ele>719.7</ele>
        <time>2026-01-01T08:07:08Z</time>
      </trkpt>
      <trkpt lat="42.313972" lon="-2.546822">
        <ele>721.0</ele>
        <time>2026-01-01T08:07:11Z</time>
      </trkpt>
      <trkpt lat="42.314010" lon="-2.546851">
        <ele>731.2</ele>
        <time>2026-01-01T08:07:17Z</time>
      </trkpt>
      <trkpt lat="42.314030" lon="-2.546862">
        <ele>745.1</ele>
        <time>2026-01-01T08:07:20Z</time>
      </trkpt>
      <trkpt lat="42.314055" lon="-2.546804">
        <ele>757.1</ele>
        <time>2026-01-01T08:07:26Z</time>
      </trkpt>
      <trkpt lat="42.314030" lon="-2.546862">
        <ele>745.1</ele>
        <time>2026-01-01T08:07:30Z</time>
      </trkpt>
      <trkpt lat="42.314010" lon="-2.546851">
        <ele>731.2</ele>
        <time>2026-01-01T08:07:32Z</time>
      </trkpt>
      <trkpt lat="42.313972" lon="-2.546822">
        <ele>721.0</ele>
        <time>2026-01-01T08:07:36Z</time>
      </trkpt>
      <trkpt lat="42.313953" lon="-2.546798">
        <ele>719.7</ele>
        <time>2026-01-01T08:07:38Z</time>
      </trkpt>
      <trkpt lat="42.313926" lon="-2.546746">
        <ele>717.8</ele>
        <time>2026-01-01T08:07:41Z</time>
      </trkpt>
      <trkpt lat="42.313913" lon="-2.546697">
        <ele>716.6</ele>
        <time>2026-01-01T08:07:45Z</time>
      </trkpt>
      <trkpt lat="42.313876" lon="-2.546586">
        <ele>714.1</ele>
        <time>2026-01-01T08:07:52Z</time>
      </trkpt>
      <trkpt lat="42.313820" lon="-2.546472">
        <ele>710.7</ele>
        <time>2026-01-01T08:08:00Z</time>
      </trkpt>
      <trkpt lat="42.313781" lon="-2.546390">
        <ele>709.4</ele>
        <time>2026-01-01T08:08:06Z</time>
      </trkpt>
      <trkpt lat="42.313734" lon="-2.546227">
        <ele>708.9</ele>
        <time>2026-01-01T08:08:16Z</time>
      </trkpt>
      <trkpt lat="42.313683" lon="-2.546294">
        <ele>706.1</ele>
        <time>2026-01-01T08:08:22Z</time>
      </trkpt>
      <trkpt lat="42.313680" lon="-2.546166">
        <ele>707.0</ele>
        <time>2026-01-01T08:08:34Z</time>
      </trkpt>
      <trkpt lat="42.313650" lon="-2.546267">
        <ele>704.9</ele>
        <time>2026-01-01T08:08:41Z</time>
      </trkpt>
      <trkpt lat="42.313630" lon="-2.546251">
        <ele>704.0</ele>
        <time>2026-01-01T08:08:43Z</time>
      </trkpt>
      <trkpt lat="42.313606" lon="-2.546166">
        <ele>703.3</ele>
        <time>2026-01-01T08:08:48Z</time>
      </trkpt>
      <trkpt lat="42.313589" lon="-2.546101">
        <ele>701.9</ele>
        <time>2026-01-01T08:08:52Z</time>
      </trkpt>
      <trkpt lat="42.313547" lon="-2.546067">
        <ele>699.2</ele>
        <time>2026-01-01T08:08:56Z</time>
      </trkpt>
      <trkpt lat="42.313518" lon="-2.546095">
        <ele>697.0</ele>
        <time>2026-01-01T08:08:59Z</time>
      </trkpt>
      <trkpt lat="42.313536" lon="-2.546156">
        <ele>698.9</ele>
        <time>2026-01-01T08:09:05Z</time>
      </trkpt>
      <trkpt lat="42.313518" lon="-2.546215">
        <ele>696.5</ele>
        <time>2026-01-01T08:09:09Z</time>
      </trkpt>
      <trkpt lat="42.313483" lon="-2.546274">
        <ele>692.6</ele>
        <time>2026-01-01T08:09:14Z</time>
      </trkpt>
      <trkpt lat="42.313424" lon="-2.546228">
        <ele>688.3</ele>
        <time>2026-01-01T08:09:19Z</time>
      </trkpt>
      <trkpt lat="42.313364" lon="-2.546118">
        <ele>685.4</ele>
        <time>2026-01-01T08:09:27Z</time>
      </trkpt>
      <trkpt lat="42.313325" lon="-2.546128">
        <ele>681.9</ele>
        <time>2026-01-01T08:09:30Z</time>
      </trkpt>
      <trkpt lat="42.313286" lon="-2.546220">
        <ele>679.5</ele>
        <time>2026-01-01T08:09:37Z</time>
      </trkpt>
      <trkpt lat="42.313263" lon="-2.546310">
        <ele>679.2</ele>
        <time>2026-01-01T08:09:42Z</time>
      </trkpt>
      <trkpt lat="42.313231" lon="-2.546369">
        <ele>676.7</ele>
        <time>2026-01-01T08:09:47Z</time>
      </trkpt>
      <trkpt lat="42.313198" lon="-2.546322">
        <ele>674.7</ele>
        <time>2026-01-01T08:09:50Z</time>
      </trkpt>
      <trkpt lat="42.313161" lon="-2.546245">
        <ele>672.4</ele>
        <time>2026-01-01T08:09:56Z</time>
      </trkpt>
      <trkpt lat="42.313127" lon="-2.546182">
        <ele>670.4</ele>
        <time>2026-01-01T08:10:00Z</time>
      </trkpt>
      <trkpt lat="42.313087" lon="-2.546115">
        <ele>668.6</ele>
        <time>2026-01-01T08:10:06Z</time>
      </trkpt>
      <trkpt lat="42.313052" lon="-2.546172">
        <ele>666.6</ele>
        <time>2026-01-01T08:10:10Z</time>
      </trkpt>
      <trkpt lat="42.313017" lon="-2.546217">
        <ele>665.0</ele>
        <time>2026-01-01T08:10:14Z</time>
      </trkpt>
      <trkpt lat="42.312981" lon="-2.546221">
        <ele>662.8</ele>
        <time>2026-01-01T08:10:17Z</time>
      </trkpt>
      <trkpt lat="42.312970" lon="-2.546138">
        <ele>661.5</ele>
        <time>2026-01-01T08:10:22Z</time>
      </trkpt>
      <trkpt lat="42.312940" lon="-2.546162">
        <ele>659.7</ele>
        <time>2026-01-01T08:10:25Z</time>
      </trkpt>
      <trkpt lat="42.312911" lon="-2.546239">
        <ele>658.3</ele>
        <time>2026-01-01T08:10:30Z</time>
      </trkpt>
      <trkpt lat="42.312873" lon="-2.546225">
        <ele>656.1</ele>
        <time>2026-01-01T08:10:33Z</time>
      </trkpt>
      <trkpt lat="42.312860" lon="-2.546185">
        <ele>655.0</ele>
        <time>2026-01-01T08:10:35Z</time>
      </trkpt>
      <trkpt lat="42.312828" lon="-2.546148">
        <ele>653.2</ele>
        <time>2026-01-01T08:10:39Z</time>
      </trkpt>
      <trkpt lat="42.312793" lon="-2.546092">
        <ele>650.9</ele>
        <time>2026-01-01T08:10:43Z</time>
      </trkpt>
      <trkpt lat="42.312771" lon="-2.546037">
        <ele>649.4</ele>
        <time>2026-01-01T08:10:47Z</time>
      </trkpt>
      <trkpt lat="42.312728" lon="-2.545870">
        <ele>646.6</ele>
        <time>2026-01-01T08:10:57Z</time>
      </trkpt>
      <trkpt lat="42.312692" lon="-2.545742">
        <ele>643.2</ele>
        <time>2026-01-01T08:11:05Z</time>
      </trkpt>
      <trkpt lat="42.312642" lon="-2.545744">
        <ele>639.4</ele>
        <time>2026-01-01T08:11:09Z</time>
      </trkpt>
      <trkpt lat="42.312596" lon="-2.545801">
        <ele>636.7</ele>
        <time>2026-01-01T08:11:14Z</time>
      </trkpt>
      <trkpt lat="42.312535" lon="-2.545903">
        <ele>633.4</ele>
        <time>2026-01-01T08:11:22Z</time>
      </trkpt>
      <trkpt lat="42.312490" lon="-2.545989">
        <ele>630.5</ele>
        <time>2026-01-01T08:11:28Z</time>
      </trkpt>
      <trkpt lat="42.312444" lon="-2.545962">
        <ele>627.4</ele>
        <time>2026-01-01T08:11:32Z</time>
      </trkpt>
      <trkpt lat="42.312412" lon="-2.545906">
        <ele>625.6</ele>
        <time>2026-01-01T08:11:37Z</time>
      </trkpt>
      <trkpt lat="42.312370" lon="-2.545914">
        <ele>623.7</ele>
        <time>2026-01-01T08:11:40Z</time>
      </trkpt>
      <trkpt lat="42.312319" lon="-2.545914">
        <ele>622.6</ele>
        <time>2026-01-01T08:11:44Z</time>
      </trkpt>
      <trkpt lat="42.312267" lon="-2.545889">
        <ele>620.8</ele>
        <time>2026-01-01T08:11:48Z</time>
      </trkpt>
      <trkpt lat="42.312216" lon="-2.545883">
        <ele>618.2</ele>
        <time>2026-01-01T08:11:53Z</time>
      </trkpt>
      <trkpt lat="42.312177" lon="-2.545855">
        <ele>616.1</ele>
        <time>2026-01-01T08:11:56Z</time>
      </trkpt>
      <trkpt lat="42.312070" lon="-2.545745">
        <ele>612.9</ele>
        <time>2026-01-01T08:12:07Z</time>
      </trkpt>
    </trkseg>
  </trk>
</gpx>
