<?xml version="1.0" encoding="UTF-8" standalone="no" ?>
<gpx xmlns="http://www.topografix.com/GPX/1/1" creator="CompeGPS" version="1.1" xmlns:xsi="http://www.w3.org/2001/XMLSchema-instance" xsi:schemaLocation="http://www.topografix.com/GPX/1/1 http://www.topografix.com/GPX/1/1/gpx.xsd">
  <metadata>
    <time>2026-01-01T08:00:00Z</time>
    <bounds maxlat="42.347866" maxlon="-2.402085" minlat="42.345957" minlon="-2.413547"/>
  </metadata>
  <trk>
    <name>sanpru (ida y vuelta)</name>
    <trkseg>
      <trkpt lat="42.345957" lon="-2.402085">
        <ele>563.6</ele>
        <time>2026-01-01T08:00:00Z</time>
      </trkpt>
      <trkpt lat="42.346243" lon="-2.402494">
        <ele>574.2</ele>
        <time>2026-01-01T08:00:55Z</time>
      </trkpt>
      <trkpt lat="42.346430" lon="-2.402827">
        <ele>578.2</ele>
        <time>2026-01-01T08:01:36Z</time>
      </trkpt>
      <trkpt lat="42.346578" lon="-2.403174">
        <ele>579.0</ele>
        <time>2026-01-01T08:02:16Z</time>
      </trkpt>
      <trkpt lat="42.346766" lon="-2.403480">
        <ele>584.2</ele>
        <time>2026-01-01T08:02:55Z</time>
      </trkpt>
      <trkpt lat="42.346885" lon="-2.403694">
        <ele>587.9</ele>
        <time>2026-01-01T08:03:21Z</time>
      </trkpt>
      <trkpt lat="42.346855" lon="-2.403987">
        <ele>586.8</ele>
        <time>2026-01-01T08:03:39Z</time>
      </trkpt>
      <trkpt lat="42.346973" lon="-2.404280">
        <ele>592.7</ele>
        <time>2026-01-01T08:04:12Z</time>
      </trkpt>
      <trkpt lat="42.347161" lon="-2.404640">
        <ele>591.4</ele>
        <time>2026-01-01T08:04:38Z</time>
      </trkpt>
      <trkpt lat="42.347329" lon="-2.404894">
        <ele>591.6</ele>
        <time>2026-01-01T08:05:12Z</time>
      </trkpt>
      <trkpt lat="42.347211" lon="-2.405120">
        <ele>593.7</ele>
        <time>2026-01-01T08:05:39Z</time>
      </trkpt>
      <trkpt lat="42.347162" lon="-2.405467">
        <ele>601.5</ele>
        <time>2026-01-01T08:06:14Z</time>
      </trkpt>
      <trkpt lat="42.347103" lon="-2.405907">
        <ele>603.2</ele>
        <time>2026-01-01T08:06:58Z</time>
      </trkpt>
      <trkpt lat="42.347093" lon="-2.406307">
        <ele>609.3</ele>
        <time>2026-01-01T08:07:37Z</time>
      </trkpt>
      <trkpt lat="42.347113" lon="-2.406680">
        <ele>614.2</ele>
        <time>2026-01-01T08:08:14Z</time>
      </trkpt>
      <trkpt lat="42.347172" lon="-2.406987">
        <ele>615.7</ele>
        <time>2026-01-01T08:08:45Z</time>
      </trkpt>
      <trkpt lat="42.347024" lon="-2.407107">
        <ele>614.8</ele>
        <time>2026-01-01T08:08:59Z</time>
      </trkpt>
      <trkpt lat="42.346867" lon="-2.407107">
        <ele>615.6</ele>
        <time>2026-01-01T08:09:20Z</time>
      </trkpt>
      <trkpt lat="42.346798" lon="-2.407254">
        <ele>616.8</ele>
        <time>2026-01-01T08:09:37Z</time>
      </trkpt>
      <trkpt lat="42.346789" lon="-2.407534">
        <ele>618.6</ele>
        <time>2026-01-01T08:10:05Z</time>
      </trkpt>
      <trkpt lat="42.346779" lon="-2.407840">
        <ele>620.2</ele>
        <time>2026-01-01T08:10:35Z</time>
      </trkpt>
      <trkpt lat="42.346681" lon="-2.408107">
        <ele>619.2</ele>
        <time>2026-01-01T08:10:53Z</time>
      </trkpt>
      <trkpt lat="42.346710" lon="-2.408481">
        <ele>620.4</ele>
        <time>2026-01-01T08:11:30Z</time>
      </trkpt>
      <trkpt lat="42.346750" lon="-2.408907">
        <ele>620.6</ele>
        <time>2026-01-01T08:12:12Z</time>
      </trkpt>
      <trkpt lat="42.346790" lon="-2.409347">
        <ele>620.4</ele>
        <time>2026-01-01T08:12:38Z</time>
      </trkpt>
      <trkpt lat="42.346810" lon="-2.409827">
        <ele>623.2</ele>
        <time>2026-01-01T08:13:26Z</time>
      </trkpt>
      <trkpt lat="42.346761" lon="-2.410174">
        <ele>620.6</ele>
        <time>2026-01-01T08:13:47Z</time>
      </trkpt>
      <trkpt lat="42.347027" lon="-2.410494">
        <ele>627.7</ele>
        <time>2026-01-01T08:14:34Z</time>
      </trkpt>
      <trkpt lat="42.347264" lon="-2.410587">
        <ele>629.6</ele>
        <time>2026-01-01T08:15:07Z</time>
      </trkpt>
      <trkpt lat="42.347570" lon="-2.410574">
        <ele>632.4</ele>
        <time>2026-01-01T08:15:48Z</time>
      </trkpt>
      <trkpt lat="42.347865" lon="-2.410654">
        <ele>635.2</ele>
        <time>2026-01-01T08:16:28Z</time>
      </trkpt>
      <trkpt lat="42.347767" lon="-2.410814">
        <ele>636.0</ele>
        <time>2026-01-01T08:16:49Z</time>
      </trkpt>
      <trkpt lat="42.347481" lon="-2.410840">
        <ele>632.6</ele>
        <time>2026-01-01T08:17:12Z</time>
      </trkpt>
      <trkpt lat="42.347186" lon="-2.410907">
        <ele>630.6</ele>
        <time>2026-01-01T08:17:36Z</time>
      </trkpt>
      <trkpt lat="42.347038" lon="-2.411054">
        <ele>633.0</ele>
        <time>2026-01-01T08:18:00Z</time>
      </trkpt>
      <trkpt lat="42.346851" lon="-2.411174">
        <ele>639.5</ele>
        <time>2026-01-01T08:18:28Z</time>
      </trkpt>
      <trkpt lat="42.346782" lon="-2.411387">
        <ele>645.7</ele>
        <time>2026-01-01T08:18:51Z</time>
      </trkpt>
      <trkpt lat="42.346763" lon="-2.411827">
        <ele>656.9</ele>
        <time>2026-01-01T08:19:34Z</time>
      </trkpt>
      <trkpt lat="42.347000" lon="-2.411827">
        <ele>668.5</ele>
        <time>2026-01-01T08:20:06Z</time>
      </trkpt>
      <trkpt lat="42.347098" lon="-2.412014">
        <ele>675.5</ele>
        <time>2026-01-01T08:20:28Z</time>
      </trkpt>
      <trkpt lat="42.347148" lon="-2.412294">
        <ele>687.1</ele>
        <time>2026-01-01T08:20:57Z</time>
      </trkpt>
      <trkpt lat="42.347187" lon="-2.412574">
        <ele>697.2</ele>
        <time>2026-01-01T08:21:25Z</time>
      </trkpt>
      <trkpt lat="42.347375" lon="-2.412613">
        <ele>700.7</ele>
        <time>2026-01-01T08:21:50Z</time>
      </trkpt>
      <trkpt lat="42.347592" lon="-2.412693">
        <ele>715.2</ele>
        <time>2026-01-01T08:22:20Z</time>
      </trkpt>
      <trkpt lat="42.347642" lon="-2.412960">
        <ele>717.6</ele>
        <time>2026-01-01T08:22:47Z</time>
      </trkpt>
      <trkpt lat="42.347603" lon="-2.413240">
        <ele>726.4</ele>
        <time>2026-01-01T08:23:16Z</time>
      </trkpt>
      <trkpt lat="42.347485" lon="-2.413547">
        <ele>728.5</ele>
        <time>2026-01-01T08:23:50Z</time>
      </trkpt>
      <trkpt lat="42.347603" lon="-2.413240">
        <ele>726.4</ele>
        <time>2026-01-01T08:24:10Z</time>
      </trkpt>
      <trkpt lat="42.347642" lon="-2.412960">
        <ele>717.6</ele>
        <time>2026-01-01T08:24:27Z</time>
      </trkpt>
      <trkpt lat="42.347592" lon="-2.412693">
        <ele>715.2</ele>
        <time>2026-01-01T08:24:43Z</time>
      </trkpt>
      <trkpt lat="42.347375" lon="-2.412613">
        <ele>700.7</ele>
        <time>2026-01-01T08:25:01Z</time>
      </trkpt>
      <trkpt lat="42.347187" lon="-2.412574">
        <ele>697.2</ele>
        <time>2026-01-01T08:25:17Z</time>
      </trkpt>
      <trkpt lat="42.347148" lon="-2.412294">
        <ele>687.1</ele>
        <time>2026-01-01T08:25:33Z</time>
      </trkpt>
      <trkpt lat="42.347098" lon="-2.412014">
        <ele>675.5</ele>
        <time>2026-01-01T08:25:50Z</time>
      </trkpt>
      <trkpt lat="42.347000" lon="-2.411827">
        <ele>668.5</ele>
        <time>2026-01-01T08:26:04Z</time>
      </trkpt>
      <trkpt lat="42.346763" lon="-2.411827">
        <ele>656.9</ele>
        <time>2026-01-01T08:26:23Z</time>
      </trkpt>
      <trkpt lat="42.346782" lon="-2.411387">
        <ele>645.7</ele>
        <time>2026-01-01T08:26:49Z</time>
      </trkpt>
      <trkpt lat="42.346851" lon="-2.411174">
        <ele>639.5</ele>
        <time>2026-01-01T08:27:03Z</time>
      </trkpt>
      <trkpt lat="42.347038" lon="-2.411054">
        <ele>633.0</ele>
        <time>2026-01-01T08:27:19Z</time>
      </trkpt>
      <trkpt lat="42.347186" lon="-2.410907">
        <ele>630.6</ele>
        <time>2026-01-01T08:27:34Z</time>
      </trkpt>
      <trkpt lat="42.347481" lon="-2.410840">
        <ele>632.6</ele>
        <time>2026-01-01T08:28:14Z</time>
      </trkpt>
      <trkpt lat="42.347767" lon="-2.410814">
        <ele>636.0</ele>
        <time>2026-01-01T08:28:52Z</time>
      </trkpt>
      <trkpt lat="42.347865" lon="-2.410654">
        <ele>635.2</ele>
        <time>2026-01-01T08:29:05Z</time>
      </trkpt>
      <trkpt lat="42.347570" lon="-2.410574">
        <ele>632.4</ele>
        <time>2026-01-01T08:29:29Z</time>
      </trkpt>
      <trkpt lat="42.347264" lon="-2.410587">
        <ele>629.6</ele>
        <time>2026-01-01T08:29:53Z</time>
      </trkpt>
      <trkpt lat="42.347027" lon="-2.410494">
        <ele>627.7</ele>
        <time>2026-01-01T08:30:13Z</time>
      </trkpt>
      <trkpt lat="42.346761" lon="-2.410174">
        <ele>620.6</ele>
        <time>2026-01-01T08:30:41Z</time>
      </trkpt>
      <trkpt lat="42.346810" lon="-2.409827">
        <ele>623.2</ele>
        <time>2026-01-01T08:31:16Z</time>
      </trkpt>
      <trkpt lat="42.346790" lon="-2.409347">
        <ele>620.4</ele>
        <time>2026-01-01T08:31:45Z</time>
      </trkpt>
      <trkpt lat="42.346750" lon="-2.408907">
        <ele>620.6</ele>
        <time>2026-01-01T08:32:28Z</time>
      </trkpt>
      <trkpt lat="42.346710" lon="-2.408481">
        <ele>620.4</ele>
        <time>2026-01-01T08:32:54Z</time>
      </trkpt>
      <trkpt lat="42.346681" lon="-2.408107">
        <ele>619.2</ele>
        <time>2026-01-01T08:33:16Z</time>
      </trkpt>
      <trkpt lat="42.346779" lon="-2.407840">
        <ele>620.2</ele>
        <time>2026-01-01T08:33:45Z</time>
      </trkpt>
      <trkpt lat="42.346789" lon="-2.407534">
        <ele>618.6</ele>
        <time>2026-01-01T08:34:04Z</time>
      </trkpt>
      <trkpt lat="42.346798" lon="-2.407254">
        <ele>616.8</ele>
        <time>2026-01-01T08:34:20Z</time>
      </trkpt>
      <trkpt lat="42.346867" lon="-2.407107">
        <ele>615.6</ele>
        <time>2026-01-01T08:34:30Z</time>
      </trkpt>
      <trkpt lat="42.347024" lon="-2.407107">
        <ele>614.8</ele>
        <time>2026-01-01T08:34:43Z</time>
      </trkpt>
      <trkpt lat="42.347172" lon="-2.406987">
        <ele>615.7</ele>
        <time>2026-01-01T08:35:06Z</time>
      </trkpt>
      <trkpt lat="42.347113" lon="-2.406680">
        <ele>614.2</ele>
        <time>2026-01-01T08:35:25Z</time>
      </trkpt>
      <trkpt lat="42.347093" lon="-2.406307">
        <ele>609.3</ele>
        <time>2026-01-01T08:35:47Z</time>
      </trkpt>
      <trkpt lat="42.347103" lon="-2.405907">
        <ele>603.2</ele>
        <time>2026-01-01T08:36:11Z</time>
      </trkpt>
      <trkpt lat="42.347162" lon="-2.405467">
        <ele>601.5</ele>
        <time>2026-01-01T08:36:37Z</time>
      </trkpt>
      <trkpt lat="42.347211" lon="-2.405120">
        <ele>593.7</ele>
        <time>2026-01-01T08:36:58Z</time>
      </trkpt>
      <trkpt lat="42.347329" lon="-2.404894">
        <ele>591.6</ele>
        <time>2026-01-01T08:37:14Z</time>
      </trkpt>
      <trkpt lat="42.347161" lon="-2.404640">
        <ele>591.4</ele>
        <time>2026-01-01T08:37:35Z</time>
      </trkpt>
      <trkpt lat="42.346973" lon="-2.404280">
        <ele>592.7</ele>
        <time>2026-01-01T08:38:18Z</time>
      </trkpt>
      <trkpt lat="42.346855" lon="-2.403987">
        <ele>586.8</ele>
        <time>2026-01-01T08:38:38Z</time>
      </trkpt>
      <trkpt lat="42.346885" lon="-2.403694">
        <ele>587.9</ele>
        <time>2026-01-01T08:39:07Z</time>
      </trkpt>
      <trkpt lat="42.346766" lon="-2.403480">
        <ele>584.2</ele>
        <time>2026-01-01T08:39:23Z</time>
      </trkpt>
      <trkpt lat="42.346578" lon="-2.403174">
        <ele>579.0</ele>
        <time>2026-01-01T08:39:46Z</time>
      </trkpt>
      <trkpt lat="42.346430" lon="-2.402827">
        <ele>578.2</ele>
        <time>2026-01-01T08:40:10Z</time>
      </trkpt>
      <trkpt lat="42.346243" lon="-2.402494">
        <ele>574.2</ele>
        <time>2026-01-01T08:40:35Z</time>
      </trkpt>
      <trkpt lat="42.345957" lon="-2.402085">
        <ele>563.6</ele>
        <time>2026-01-01T08:41:08Z</time>
      </trkpt>
    </trkseg>
  </trk>
</gpx>
