<?xml version="1.0" encoding="UTF-8" standalone="no" ?>
<gpx xmlns="http://www.topografix.com/GPX/1/1" creator="CompeGPS" version="1.1" xmlns:xsi="http://www.w3.org/2001/XMLSchema-instance" xsi:schemaLocation="http://www.topografix.com/GPX/1/1 http://www.topografix.com/GPX/1/1/gpx.xsd">
  <metadata>
    <time>2026-01-01T08:00:00Z</time>
    <bounds maxlat="42.116848" maxlon="-2.868054" minlat="42.080632" minlon="-2.873331"/>
  </metadata>
  <trk>
    <name>paraiso (ida y vuelta)</name>
    <trkseg>
      <trkpt lat="42.116847" lon="-2.868486">
        <ele>1021.9</ele>
        <time>2026-01-01T08:00:00Z</time>
      </trkpt>
      <trkpt lat="42.116693" lon="-2.868481">
        <ele>1020.0</ele>
        <time>2026-01-01T08:00:12Z</time>
      </trkpt>
      <trkpt lat="42.116580" lon="-2.868547">
        <ele>1020.1</ele>
        <time>2026-01-01T08:00:28Z</time>
      </trkpt>
      <trkpt lat="42.116395" lon="-2.868540">
        <ele>1022.1</ele>
        <time>2026-01-01T08:00:53Z</time>
      </trkpt>
      <trkpt lat="42.116175" lon="-2.868448">
        <ele>1024.7</ele>
        <time>2026-01-01T08:01:24Z</time>
      </trkpt>
      <trkpt lat="42.115922" lon="-2.868408">
        <ele>1025.8</ele>
        <time>2026-01-01T08:01:58Z</time>
      </trkpt>
      <trkpt lat="42.115673" lon="-2.868270">
        <ele>1026.8</ele>
        <time>2026-01-01T08:02:34Z</time>
      </trkpt>
      <trkpt lat="42.115414" lon="-2.868290">
        <ele>1027.6</ele>
        <time>2026-01-01T08:03:08Z</time>
      </trkpt>
      <trkpt lat="42.115141" lon="-2.868421">
        <ele>1026.6</ele>
        <time>2026-01-01T08:03:31Z</time>
      </trkpt>
      <trkpt lat="42.114848" lon="-2.868434">
        <ele>1029.7</ele>
        <time>2026-01-01T08:04:11Z</time>
      </trkpt>
      <trkpt lat="42.114575" lon="-2.868447">
        <ele>1036.6</ele>
        <time>2026-01-01T08:04:47Z</time>
      </trkpt>
      <trkpt lat="42.114287" lon="-2.868552">
        <ele>1042.5</ele>
        <time>2026-01-01T08:05:27Z</time>
      </trkpt>
      <trkpt lat="42.114034" lon="-2.868888">
        <ele>1040.6</ele>
        <time>2026-01-01T08:05:55Z</time>
      </trkpt>
      <trkpt lat="42.113892" lon="-2.869217">
        <ele>1043.1</ele>
        <time>2026-01-01T08:06:33Z</time>
      </trkpt>
      <trkpt lat="42.113785" lon="-2.869566">
        <ele>1041.8</ele>
        <time>2026-01-01T08:06:55Z</time>
      </trkpt>
      <trkpt lat="42.113556" lon="-2.869579">
        <ele>1048.7</ele>
        <time>2026-01-01T08:07:26Z</time>
      </trkpt>
      <trkpt lat="42.113312" lon="-2.869592">
        <ele>1050.6</ele>
        <time>2026-01-01T08:07:59Z</time>
      </trkpt>
      <trkpt lat="42.113009" lon="-2.869770">
        <ele>1052.3</ele>
        <time>2026-01-01T08:08:43Z</time>
      </trkpt>
      <trkpt lat="42.112711" lon="-2.870059">
        <ele>1056.6</ele>
        <time>2026-01-01T08:09:32Z</time>
      </trkpt>
      <trkpt lat="42.112536" lon="-2.870204">
        <ele>1057.3</ele>
        <time>2026-01-01T08:09:59Z</time>
      </trkpt>
      <trkpt lat="42.112287" lon="-2.870263">
        <ele>1056.5</ele>
        <time>2026-01-01T08:10:19Z</time>
      </trkpt>
      <trkpt lat="42.112033" lon="-2.870316">
        <ele>1059.2</ele>
        <time>2026-01-01T08:10:54Z</time>
      </trkpt>
      <trkpt lat="42.111818" lon="-2.870414">
        <ele>1060.0</ele>
        <time>2026-01-01T08:11:24Z</time>
      </trkpt>
      <trkpt lat="42.111574" lon="-2.870513">
        <ele>1063.6</ele>
        <time>2026-01-01T08:11:58Z</time>
      </trkpt>
      <trkpt lat="42.111340" lon="-2.870625">
        <ele>1063.4</ele>
        <time>2026-01-01T08:12:18Z</time>
      </trkpt>
      <trkpt lat="42.111155" lon="-2.870552">
        <ele>1061.2</ele>
        <time>2026-01-01T08:12:33Z</time>
      </trkpt>
      <trkpt lat="42.110911" lon="-2.870342">
        <ele>1062.7</ele>
        <time>2026-01-01T08:13:12Z</time>
      </trkpt>
      <trkpt lat="42.110725" lon="-2.870282">
        <ele>1065.5</ele>
        <time>2026-01-01T08:13:37Z</time>
      </trkpt>
      <trkpt lat="42.110486" lon="-2.870447">
        <ele>1063.1</ele>
        <time>2026-01-01T08:13:59Z</time>
      </trkpt>
      <trkpt lat="42.110194" lon="-2.870644">
        <ele>1059.2</ele>
        <time>2026-01-01T08:14:25Z</time>
      </trkpt>
      <trkpt lat="42.109876" lon="-2.870664">
        <ele>1057.4</ele>
        <time>2026-01-01T08:14:50Z</time>
      </trkpt>
      <trkpt lat="42.109588" lon="-2.870538">
        <ele>1059.3</ele>
        <time>2026-01-01T08:15:31Z</time>
      </trkpt>
      <trkpt lat="42.109349" lon="-2.870492">
        <ele>1058.8</ele>
        <time>2026-01-01T08:15:50Z</time>
      </trkpt>
      <trkpt lat="42.109032" lon="-2.870558">
        <ele>1059.1</ele>
        <time>2026-01-01T08:16:33Z</time>
      </trkpt>
      <trkpt lat="42.108666" lon="-2.870736">
        <ele>1057.4</ele>
        <time>2026-01-01T08:17:04Z</time>
      </trkpt>
      <trkpt lat="42.108285" lon="-2.870946">
        <ele>1058.9</ele>
        <time>2026-01-01T08:17:59Z</time>
      </trkpt>
      <trkpt lat="42.108085" lon="-2.871196">
        <ele>1060.6</ele>
        <time>2026-01-01T08:18:35Z</time>
      </trkpt>
      <trkpt lat="42.107973" lon="-2.871532">
        <ele>1060.8</ele>
        <time>2026-01-01T08:19:12Z</time>
      </trkpt>
      <trkpt lat="42.107734" lon="-2.871624">
        <ele>1063.5</ele>
        <time>2026-01-01T08:19:45Z</time>
      </trkpt>
      <trkpt lat="42.107514" lon="-2.871538">
        <ele>1066.8</ele>
        <time>2026-01-01T08:20:16Z</time>
      </trkpt>
      <trkpt lat="42.107299" lon="-2.871499">
        <ele>1068.1</ele>
        <time>2026-01-01T08:20:45Z</time>
      </trkpt>
      <trkpt lat="42.107040" lon="-2.871512">
        <ele>1070.1</ele>
        <time>2026-01-01T08:21:19Z</time>
      </trkpt>
      <trkpt lat="42.106772" lon="-2.871571">
        <ele>1069.3</ele>
        <time>2026-01-01T08:21:41Z</time>
      </trkpt>
      <trkpt lat="42.106479" lon="-2.871610">
        <ele>1067.5</ele>
        <time>2026-01-01T08:22:04Z</time>
      </trkpt>
      <trkpt lat="42.106206" lon="-2.871577">
        <ele>1067.4</ele>
        <time>2026-01-01T08:22:26Z</time>
      </trkpt>
      <trkpt lat="42.105952" lon="-2.871650">
        <ele>1067.0</ele>
        <time>2026-01-01T08:22:47Z</time>
      </trkpt>
      <trkpt lat="42.105737" lon="-2.871768">
        <ele>1067.5</ele>
        <time>2026-01-01T08:23:18Z</time>
      </trkpt>
      <trkpt lat="42.105474" lon="-2.871978">
        <ele>1067.7</ele>
        <time>2026-01-01T08:23:59Z</time>
      </trkpt>
      <trkpt lat="42.105127" lon="-2.872229">
        <ele>1072.3</ele>
        <time>2026-01-01T08:24:51Z</time>
      </trkpt>
      <trkpt lat="42.104888" lon="-2.872433">
        <ele>1069.8</ele>
        <time>2026-01-01T08:25:14Z</time>
      </trkpt>
      <trkpt lat="42.104595" lon="-2.872505">
        <ele>1068.5</ele>
        <time>2026-01-01T08:25:38Z</time>
      </trkpt>
      <trkpt lat="42.104253" lon="-2.872531">
        <ele>1070.0</ele>
        <time>2026-01-01T08:26:24Z</time>
      </trkpt>
      <trkpt lat="42.103824" lon="-2.872531">
        <ele>1070.0</ele>
        <time>2026-01-01T08:27:21Z</time>
      </trkpt>
      <trkpt lat="42.103458" lon="-2.872564">
        <ele>1072.4</ele>
        <time>2026-01-01T08:28:10Z</time>
      </trkpt>
      <trkpt lat="42.103096" lon="-2.872722">
        <ele>1071.1</ele>
        <time>2026-01-01T08:28:40Z</time>
      </trkpt>
      <trkpt lat="42.102808" lon="-2.872755">
        <ele>1072.3</ele>
        <time>2026-01-01T08:29:19Z</time>
      </trkpt>
      <trkpt lat="42.102559" lon="-2.872689">
        <ele>1075.0</ele>
        <time>2026-01-01T08:29:53Z</time>
      </trkpt>
      <trkpt lat="42.102281" lon="-2.872695">
        <ele>1075.0</ele>
        <time>2026-01-01T08:30:30Z</time>
      </trkpt>
      <trkpt lat="42.101993" lon="-2.872662">
        <ele>1075.0</ele>
        <time>2026-01-01T08:31:08Z</time>
      </trkpt>
      <trkpt lat="42.101715" lon="-2.872590">
        <ele>1076.2</ele>
        <time>2026-01-01T08:31:46Z</time>
      </trkpt>
      <trkpt lat="42.101426" lon="-2.872702">
        <ele>1076.6</ele>
        <time>2026-01-01T08:32:26Z</time>
      </trkpt>
      <trkpt lat="42.101133" lon="-2.872879">
        <ele>1079.7</ele>
        <time>2026-01-01T08:33:09Z</time>
      </trkpt>
      <trkpt lat="42.100811" lon="-2.873070">
        <ele>1080.0</ele>
        <time>2026-01-01T08:33:56Z</time>
      </trkpt>
      <trkpt lat="42.100523" lon="-2.873208">
        <ele>1080.6</ele>
        <time>2026-01-01T08:34:37Z</time>
      </trkpt>
      <trkpt lat="42.100235" lon="-2.873294">
        <ele>1081.2</ele>
        <time>2026-01-01T08:35:16Z</time>
      </trkpt>
      <trkpt lat="42.099933" lon="-2.873228">
        <ele>1082.5</ele>
        <time>2026-01-01T08:35:57Z</time>
      </trkpt>
      <trkpt lat="42.099620" lon="-2.873122">
        <ele>1085.0</ele>
        <time>2026-01-01T08:36:40Z</time>
      </trkpt>
      <trkpt lat="42.099337" lon="-2.872918">
        <ele>1086.5</ele>
        <time>2026-01-01T08:37:23Z</time>
      </trkpt>
      <trkpt lat="42.099059" lon="-2.872615">
        <ele>1089.6</ele>
        <time>2026-01-01T08:38:11Z</time>
      </trkpt>
      <trkpt lat="42.098776" lon="-2.872483">
        <ele>1088.4</ele>
        <time>2026-01-01T08:38:35Z</time>
      </trkpt>
      <trkpt lat="42.098487" lon="-2.872437">
        <ele>1089.3</ele>
        <time>2026-01-01T08:39:14Z</time>
      </trkpt>
      <trkpt lat="42.098214" lon="-2.872418">
        <ele>1090.1</ele>
        <time>2026-01-01T08:39:50Z</time>
      </trkpt>
      <trkpt lat="42.098038" lon="-2.872641">
        <ele>1090.3</ele>
        <time>2026-01-01T08:40:22Z</time>
      </trkpt>
      <trkpt lat="42.097809" lon="-2.872806">
        <ele>1090.5</ele>
        <time>2026-01-01T08:40:57Z</time>
      </trkpt>
      <trkpt lat="42.097531" lon="-2.872931">
        <ele>1092.4</ele>
        <time>2026-01-01T08:41:36Z</time>
      </trkpt>
      <trkpt lat="42.097248" lon="-2.873036">
        <ele>1095.2</ele>
        <time>2026-01-01T08:42:15Z</time>
      </trkpt>
      <trkpt lat="42.096960" lon="-2.873141">
        <ele>1096.3</ele>
        <time>2026-01-01T08:42:55Z</time>
      </trkpt>
      <trkpt lat="42.096677" lon="-2.873259">
        <ele>1096.3</ele>
        <time>2026-01-01T08:43:34Z</time>
      </trkpt>
      <trkpt lat="42.096408" lon="-2.873305">
        <ele>1097.1</ele>
        <time>2026-01-01T08:44:11Z</time>
      </trkpt>
      <trkpt lat="42.096232" lon="-2.873239">
        <ele>1098.7</ele>
        <time>2026-01-01T08:44:35Z</time>
      </trkpt>
      <trkpt lat="42.095939" lon="-2.873331">
        <ele>1097.4</ele>
        <time>2026-01-01T08:44:59Z</time>
      </trkpt>
      <trkpt lat="42.095603" lon="-2.873259">
        <ele>1098.3</ele>
        <time>2026-01-01T08:45:45Z</time>
      </trkpt>
      <trkpt lat="42.095212" lon="-2.872969">
        <ele>1102.9</ele>
        <time>2026-01-01T08:46:44Z</time>
      </trkpt>
      <trkpt lat="42.094841" lon="-2.872535">
        <ele>1108.0</ele>
        <time>2026-01-01T08:47:50Z</time>
      </trkpt>
      <trkpt lat="42.094490" lon="-2.872172">
        <ele>1112.0</ele>
        <time>2026-01-01T08:48:49Z</time>
      </trkpt>
      <trkpt lat="42.093957" lon="-2.872060">
        <ele>1106.1</ele>
        <time>2026-01-01T08:49:32Z</time>
      </trkpt>
      <trkpt lat="42.093596" lon="-2.872146">
        <ele>1105.4</ele>
        <time>2026-01-01T08:50:01Z</time>
      </trkpt>
      <trkpt lat="42.093196" lon="-2.872231">
        <ele>1105.6</ele>
        <time>2026-01-01T08:50:55Z</time>
      </trkpt>
      <trkpt lat="42.092830" lon="-2.872343">
        <ele>1107.4</ele>
        <time>2026-01-01T08:51:45Z</time>
      </trkpt>
      <trkpt lat="42.092497" lon="-2.872225">
        <ele>1109.9</ele>
        <time>2026-01-01T08:52:31Z</time>
      </trkpt>
      <trkpt lat="42.092214" lon="-2.871764">
        <ele>1111.5</ele>
        <time>2026-01-01T08:53:30Z</time>
      </trkpt>
      <trkpt lat="42.092073" lon="-2.871467">
        <ele>1113.2</ele>
        <time>2026-01-01T08:54:05Z</time>
      </trkpt>
      <trkpt lat="42.091804" lon="-2.871256">
        <ele>1113.7</ele>
        <time>2026-01-01T08:54:47Z</time>
      </trkpt>
      <trkpt lat="42.091458" lon="-2.871263">
        <ele>1113.0</ele>
        <time>2026-01-01T08:55:15Z</time>
      </trkpt>
      <trkpt lat="42.091111" lon="-2.871296">
        <ele>1115.4</ele>
        <time>2026-01-01T08:56:01Z</time>
      </trkpt>
      <trkpt lat="42.090843" lon="-2.871098">
        <ele>1116.2</ele>
        <time>2026-01-01T08:56:42Z</time>
      </trkpt>
      <trkpt lat="42.090701" lon="-2.870795">
        <ele>1117.7</ele>
        <time>2026-01-01T08:57:17Z</time>
      </trkpt>
      <trkpt lat="42.090594" lon="-2.870400">
        <ele>1119.5</ele>
        <time>2026-01-01T08:57:59Z</time>
      </trkpt>
      <trkpt lat="42.090447" lon="-2.870071">
        <ele>1120.4</ele>
        <time>2026-01-01T08:58:37Z</time>
      </trkpt>
      <trkpt lat="42.090281" lon="-2.869689">
        <ele>1122.2</ele>
        <time>2026-01-01T08:59:21Z</time>
      </trkpt>
      <trkpt lat="42.090028" lon="-2.869531">
        <ele>1123.0</ele>
        <time>2026-01-01T08:59:58Z</time>
      </trkpt>
      <trkpt lat="42.089827" lon="-2.869531">
        <ele>1126.5</ele>
        <time>2026-01-01T09:00:25Z</time>
      </trkpt>
      <trkpt lat="42.089593" lon="-2.869801">
        <ele>1125.9</ele>
        <time>2026-01-01T09:00:50Z</time>
      </trkpt>
      <trkpt lat="42.089344" lon="-2.870084">
        <ele>1126.9</ele>
        <time>2026-01-01T09:01:33Z</time>
      </trkpt>
      <trkpt lat="42.089139" lon="-2.870182">
        <ele>1128.2</ele>
        <time>2026-01-01T09:02:02Z</time>
      </trkpt>
      <trkpt lat="42.088851" lon="-2.870156">
        <ele>1126.7</ele>
        <time>2026-01-01T09:02:25Z</time>
      </trkpt>
      <trkpt lat="42.088612" lon="-2.870077">
        <ele>1128.9</ele>
        <time>2026-01-01T09:02:58Z</time>
      </trkpt>
      <trkpt lat="42.088280" lon="-2.869859">
        <ele>1130.7</ele>
        <time>2026-01-01T09:03:47Z</time>
      </trkpt>
      <trkpt lat="42.088114" lon="-2.869728">
        <ele>1133.1</ele>
        <time>2026-01-01T09:04:13Z</time>
      </trkpt>
      <trkpt lat="42.087933" lon="-2.869820">
        <ele>1132.0</ele>
        <time>2026-01-01T09:04:28Z</time>
      </trkpt>
      <trkpt lat="42.087762" lon="-2.869833">
        <ele>1132.1</ele>
        <time>2026-01-01T09:04:51Z</time>
      </trkpt>
      <trkpt lat="42.087528" lon="-2.869688">
        <ele>1133.6</ele>
        <time>2026-01-01T09:05:26Z</time>
      </trkpt>
      <trkpt lat="42.087220" lon="-2.869609">
        <ele>1133.4</ele>
        <time>2026-01-01T09:05:51Z</time>
      </trkpt>
      <trkpt lat="42.086903" lon="-2.869437">
        <ele>1137.3</ele>
        <time>2026-01-01T09:06:36Z</time>
      </trkpt>
      <trkpt lat="42.086556" lon="-2.869312">
        <ele>1141.2</ele>
        <time>2026-01-01T09:07:24Z</time>
      </trkpt>
      <trkpt lat="42.086229" lon="-2.869339">
        <ele>1139.3</ele>
        <time>2026-01-01T09:07:50Z</time>
      </trkpt>
      <trkpt lat="42.085853" lon="-2.869161">
        <ele>1143.2</ele>
        <time>2026-01-01T09:08:44Z</time>
      </trkpt>
      <trkpt lat="42.085404" lon="-2.868924">
        <ele>1148.3</ele>
        <time>2026-01-01T09:09:48Z</time>
      </trkpt>
      <trkpt lat="42.084930" lon="-2.868700">
        <ele>1150.4</ele>
        <time>2026-01-01T09:10:55Z</time>
      </trkpt>
      <trkpt lat="42.084363" lon="-2.868449">
        <ele>1149.4</ele>
        <time>2026-01-01T09:11:43Z</time>
      </trkpt>
      <trkpt lat="42.083816" lon="-2.868160">
        <ele>1157.8</ele>
        <time>2026-01-01T09:13:01Z</time>
      </trkpt>
      <trkpt lat="42.083260" lon="-2.868080">
        <ele>1161.6</ele>
        <time>2026-01-01T09:14:16Z</time>
      </trkpt>
      <trkpt lat="42.082756" lon="-2.868054">
        <ele>1165.0</ele>
        <time>2026-01-01T09:15:23Z</time>
      </trkpt>
      <trkpt lat="42.082263" lon="-2.868139">
        <ele>1171.9</ele>
        <time>2026-01-01T09:16:29Z</time>
      </trkpt>
      <trkpt lat="42.081985" lon="-2.868343">
        <ele>1170.7</ele>
        <time>2026-01-01T09:16:55Z</time>
      </trkpt>
      <trkpt lat="42.081746" lon="-2.868672">
        <ele>1169.3</ele>
        <time>2026-01-01T09:17:22Z</time>
      </trkpt>
      <trkpt lat="42.081438" lon="-2.868738">
        <ele>1171.1</ele>
        <time>2026-01-01T09:18:04Z</time>
      </trkpt>
      <trkpt lat="42.081140" lon="-2.868830">
        <ele>1169.6</ele>
        <time>2026-01-01T09:18:28Z</time>
      </trkpt>
      <trkpt lat="42.080920" lon="-2.869074">
        <ele>1163.8</ele>
        <time>2026-01-01T09:18:51Z</time>
      </trkpt>
      <trkpt lat="42.080632" lon="-2.869297">
        <ele>1159.8</ele>
        <time>2026-01-01T09:19:18Z</time>
      </trkpt>
      <trkpt lat="42.080920" lon="-2.869074">
        <ele>1163.8</ele>
        <time>2026-01-01T09:20:02Z</time>
      </trkpt>
      <trkpt lat="42.081140" lon="-2.868830">
        <ele>1169.6</ele>
        <time>2026-01-01T09:20:40Z</time>
      </trkpt>
      <trkpt lat="42.081438" lon="-2.868738">
        <ele>1171.1</ele>
        <time>2026-01-01T09:21:21Z</time>
      </trkpt>
      <trkpt lat="42.081746" lon="-2.868672">
        <ele>1169.3</ele>
        <time>2026-01-01T09:21:46Z</time>
      </trkpt>
      <trkpt lat="42.081985" lon="-2.868343">
        <ele>1170.7</ele>
        <time>2026-01-01T09:22:31Z</time>
      </trkpt>
      <trkpt lat="42.082263" lon="-2.868139">
        <ele>1171.9</ele>
        <time>2026-01-01T09:23:14Z</time>
      </trkpt>
      <trkpt lat="42.082756" lon="-2.868054">
        <ele>1165.0</ele>
        <time>2026-01-01T09:23:53Z</time>
      </trkpt>
      <trkpt lat="42.083260" lon="-2.868080">
        <ele>1161.6</ele>
        <time>2026-01-01T09:24:34Z</time>
      </trkpt>
      <trkpt lat="42.083816" lon="-2.868160">
        <ele>1157.8</ele>
        <time>2026-01-01T09:25:18Z</time>
      </trkpt>
      <trkpt lat="42.084363" lon="-2.868449">
        <ele>1149.4</ele>
        <time>2026-01-01T09:26:06Z</time>
      </trkpt>
      <trkpt lat="42.084930" lon="-2.868700">
        <ele>1150.4</ele>
        <time>2026-01-01T09:27:25Z</time>
      </trkpt>
      <trkpt lat="42.085404" lon="-2.868924">
        <ele>1148.3</ele>
        <time>2026-01-01T09:28:05Z</time>
      </trkpt>
      <trkpt lat="42.085853" lon="-2.869161">
        <ele>1143.2</ele>
        <time>2026-01-01T09:28:44Z</time>
      </trkpt>
      <trkpt lat="42.086229" lon="-2.869339">
        <ele>1139.3</ele>
        <time>2026-01-01T09:29:16Z</time>
      </trkpt>
      <trkpt lat="42.086556" lon="-2.869312">
        <ele>1141.2</ele>
        <time>2026-01-01T09:30:00Z</time>
      </trkpt>
      <trkpt lat="42.086903" lon="-2.869437">
        <ele>1137.3</ele>
        <time>2026-01-01T09:30:28Z</time>
      </trkpt>
      <trkpt lat="42.087220" lon="-2.869609">
        <ele>1133.4</ele>
        <time>2026-01-01T09:30:56Z</time>
      </trkpt>
      <trkpt lat="42.087528" lon="-2.869688">
        <ele>1133.6</ele>
        <time>2026-01-01T09:31:38Z</time>
      </trkpt>
      <trkpt lat="42.087762" lon="-2.869833">
        <ele>1132.1</ele>
        <time>2026-01-01T09:31:58Z</time>
      </trkpt>
      <trkpt lat="42.087933" lon="-2.869820">
        <ele>1132.0</ele>
        <time>2026-01-01T09:32:12Z</time>
      </trkpt>
      <trkpt lat="42.088114" lon="-2.869728">
        <ele>1133.1</ele>
        <time>2026-01-01T09:32:38Z</time>
      </trkpt>
      <trkpt lat="42.088280" lon="-2.869859">
        <ele>1130.7</ele>
        <time>2026-01-01T09:32:53Z</time>
      </trkpt>
      <trkpt lat="42.088612" lon="-2.870077">
        <ele>1128.9</ele>
        <time>2026-01-01T09:33:23Z</time>
      </trkpt>
      <trkpt lat="42.088851" lon="-2.870156">
        <ele>1126.7</ele>
        <time>2026-01-01T09:33:42Z</time>
      </trkpt>
      <trkpt lat="42.089139" lon="-2.870182">
        <ele>1128.2</ele>
        <time>2026-01-01T09:34:21Z</time>
      </trkpt>
      <trkpt lat="42.089344" lon="-2.870084">
        <ele>1126.9</ele>
        <time>2026-01-01T09:34:38Z</time>
      </trkpt>
      <trkpt lat="42.089593" lon="-2.869801">
        <ele>1125.9</ele>
        <time>2026-01-01T09:35:04Z</time>
      </trkpt>
      <trkpt lat="42.089827" lon="-2.869531">
        <ele>1126.5</ele>
        <time>2026-01-01T09:35:45Z</time>
      </trkpt>
      <trkpt lat="42.090028" lon="-2.869531">
        <ele>1123.0</ele>
        <time>2026-01-01T09:36:02Z</time>
      </trkpt>
      <trkpt lat="42.090281" lon="-2.869689">
        <ele>1122.2</ele>
        <time>2026-01-01T09:36:24Z</time>
      </trkpt>
      <trkpt lat="42.090447" lon="-2.870071">
        <ele>1120.4</ele>
        <time>2026-01-01T09:36:50Z</time>
      </trkpt>
      <trkpt lat="42.090594" lon="-2.870400">
        <ele>1119.5</ele>
        <time>2026-01-01T09:37:13Z</time>
      </trkpt>
      <trkpt lat="42.090701" lon="-2.870795">
        <ele>1117.7</ele>
        <time>2026-01-01T09:37:38Z</time>
      </trkpt>
      <trkpt lat="42.090843" lon="-2.871098">
        <ele>1116.2</ele>
        <time>2026-01-01T09:37:59Z</time>
      </trkpt>
      <trkpt lat="42.091111" lon="-2.871296">
        <ele>1115.4</ele>
        <time>2026-01-01T09:38:24Z</time>
      </trkpt>
      <trkpt lat="42.091458" lon="-2.871263">
        <ele>1113.0</ele>
        <time>2026-01-01T09:38:52Z</time>
      </trkpt>
      <trkpt lat="42.091804" lon="-2.871256">
        <ele>1113.7</ele>
        <time>2026-01-01T09:39:38Z</time>
      </trkpt>
      <trkpt lat="42.092073" lon="-2.871467">
        <ele>1113.2</ele>
        <time>2026-01-01T09:40:03Z</time>
      </trkpt>
      <trkpt lat="42.092214" lon="-2.871764">
        <ele>1111.5</ele>
        <time>2026-01-01T09:40:24Z</time>
      </trkpt>
      <trkpt lat="42.092497" lon="-2.872225">
        <ele>1109.9</ele>
        <time>2026-01-01T09:40:59Z</time>
      </trkpt>
      <trkpt lat="42.092830" lon="-2.872343">
        <ele>1107.4</ele>
        <time>2026-01-01T09:41:27Z</time>
      </trkpt>
      <trkpt lat="42.093196" lon="-2.872231">
        <ele>1105.6</ele>
        <time>2026-01-01T09:41:57Z</time>
      </trkpt>
      <trkpt lat="42.093596" lon="-2.872146">
        <ele>1105.4</ele>
        <time>2026-01-01T09:42:29Z</time>
      </trkpt>
      <trkpt lat="42.093957" lon="-2.872060">
        <ele>1106.1</ele>
        <time>2026-01-01T09:43:18Z</time>
      </trkpt>
      <trkpt lat="42.094490" lon="-2.872172">
        <ele>1112.0</ele>
        <time>2026-01-01T09:44:30Z</time>
      </trkpt>
      <trkpt lat="42.094841" lon="-2.872535">
        <ele>1108.0</ele>
        <time>2026-01-01T09:45:06Z</time>
      </trkpt>
      <trkpt lat="42.095212" lon="-2.872969">
        <ele>1102.9</ele>
        <time>2026-01-01T09:45:45Z</time>
      </trkpt>
      <trkpt lat="42.095603" lon="-2.873259">
        <ele>1098.3</ele>
        <time>2026-01-01T09:46:21Z</time>
      </trkpt>
      <trkpt lat="42.095939" lon="-2.873331">
        <ele>1097.4</ele>
        <time>2026-01-01T09:46:48Z</time>
      </trkpt>
      <trkpt lat="42.096232" lon="-2.873239">
        <ele>1098.7</ele>
        <time>2026-01-01T09:47:28Z</time>
      </trkpt>
      <trkpt lat="42.096408" lon="-2.873305">
        <ele>1097.1</ele>
        <time>2026-01-01T09:47:43Z</time>
      </trkpt>
      <trkpt lat="42.096677" lon="-2.873259">
        <ele>1096.3</ele>
        <time>2026-01-01T09:48:04Z</time>
      </trkpt>
      <trkpt lat="42.096960" lon="-2.873141">
        <ele>1096.3</ele>
        <time>2026-01-01T09:48:44Z</time>
      </trkpt>
      <trkpt lat="42.097248" lon="-2.873036">
        <ele>1095.2</ele>
        <time>2026-01-01T09:49:08Z</time>
      </trkpt>
      <trkpt lat="42.097531" lon="-2.872931">
        <ele>1092.4</ele>
        <time>2026-01-01T09:49:31Z</time>
      </trkpt>
      <trkpt lat="42.097809" lon="-2.872806">
        <ele>1090.5</ele>
        <time>2026-01-01T09:49:55Z</time>
      </trkpt>
      <trkpt lat="42.098038" lon="-2.872641">
        <ele>1090.3</ele>
        <time>2026-01-01T09:50:15Z</time>
      </trkpt>
      <trkpt lat="42.098214" lon="-2.872418">
        <ele>1090.1</ele>
        <time>2026-01-01T09:50:35Z</time>
      </trkpt>
      <trkpt lat="42.098487" lon="-2.872437">
        <ele>1089.3</ele>
        <time>2026-01-01T09:50:57Z</time>
      </trkpt>
      <trkpt lat="42.098776" lon="-2.872483">
        <ele>1088.4</ele>
        <time>2026-01-01T09:51:20Z</time>
      </trkpt>
      <trkpt lat="42.099059" lon="-2.872615">
        <ele>1089.6</ele>
        <time>2026-01-01T09:52:00Z</time>
      </trkpt>
      <trkpt lat="42.099337" lon="-2.872918">
        <ele>1086.5</ele>
        <time>2026-01-01T09:52:29Z</time>
      </trkpt>
      <trkpt lat="42.099620" lon="-2.873122">
        <ele>1085.0</ele>
        <time>2026-01-01T09:52:54Z</time>
      </trkpt>
      <trkpt lat="42.099933" lon="-2.873228">
        <ele>1082.5</ele>
        <time>2026-01-01T09:53:20Z</time>
      </trkpt>
      <trkpt lat="42.100235" lon="-2.873294">
        <ele>1081.2</ele>
        <time>2026-01-01T09:53:45Z</time>
      </trkpt>
      <trkpt lat="42.100523" lon="-2.873208">
        <ele>1080.6</ele>
        <time>2026-01-01T09:54:08Z</time>
      </trkpt>
      <trkpt lat="42.100811" lon="-2.873070">
        <ele>1080.0</ele>
        <time>2026-01-01T09:54:33Z</time>
      </trkpt>
      <trkpt lat="42.101133" lon="-2.872879">
        <ele>1079.7</ele>
        <time>2026-01-01T09:55:01Z</time>
      </trkpt>
      <trkpt lat="42.101426" lon="-2.872702">
        <ele>1076.6</ele>
        <time>2026-01-01T09:55:27Z</time>
      </trkpt>
      <trkpt lat="42.101715" lon="-2.872590">
        <ele>1076.2</ele>
        <time>2026-01-01T09:55:51Z</time>
      </trkpt>
      <trkpt lat="42.101993" lon="-2.872662">
        <ele>1075.0</ele>
        <time>2026-01-01T09:56:13Z</time>
      </trkpt>
      <trkpt lat="42.102281" lon="-2.872695">
        <ele>1075.0</ele>
        <time>2026-01-01T09:56:52Z</time>
      </trkpt>
      <trkpt lat="42.102559" lon="-2.872689">
        <ele>1075.0</ele>
        <time>2026-01-01T09:57:29Z</time>
      </trkpt>
      <trkpt lat="42.102808" lon="-2.872755">
        <ele>1072.3</ele>
        <time>2026-01-01T09:57:49Z</time>
      </trkpt>
      <trkpt lat="42.103096" lon="-2.872722">
        <ele>1071.1</ele>
        <time>2026-01-01T09:58:12Z</time>
      </trkpt>
      <trkpt lat="42.103458" lon="-2.872564">
        <ele>1072.4</ele>
        <time>2026-01-01T09:59:03Z</time>
      </trkpt>
      <trkpt lat="42.103824" lon="-2.872531">
        <ele>1070.0</ele>
        <time>2026-01-01T09:59:33Z</time>
      </trkpt>
      <trkpt lat="42.104253" lon="-2.872531">
        <ele>1070.0</ele>
        <time>2026-01-01T10:00:30Z</time>
      </trkpt>
      <trkpt lat="42.104595" lon="-2.872505">
        <ele>1068.5</ele>
        <time>2026-01-01T10:00:57Z</time>
      </trkpt>
      <trkpt lat="42.104888" lon="-2.872433">
        <ele>1069.8</ele>
        <time>2026-01-01T10:01:37Z</time>
      </trkpt>
      <trkpt lat="42.105127" lon="-2.872229">
        <ele>1072.3</ele>
        <time>2026-01-01T10:02:15Z</time>
      </trkpt>
      <trkpt lat="42.105474" lon="-2.871978">
        <ele>1067.7</ele>
        <time>2026-01-01T10:02:46Z</time>
      </trkpt>
      <trkpt lat="42.105737" lon="-2.871768">
        <ele>1067.5</ele>
        <time>2026-01-01T10:03:11Z</time>
      </trkpt>
      <trkpt lat="42.105952" lon="-2.871650">
        <ele>1067.0</ele>
        <time>2026-01-01T10:03:29Z</time>
      </trkpt>
      <trkpt lat="42.106206" lon="-2.871577">
        <ele>1067.4</ele>
        <time>2026-01-01T10:04:04Z</time>
      </trkpt>
      <trkpt lat="42.106479" lon="-2.871610">
        <ele>1067.5</ele>
        <time>2026-01-01T10:04:41Z</time>
      </trkpt>
      <trkpt lat="42.106772" lon="-2.871571">
        <ele>1069.3</ele>
        <time>2026-01-01T10:05:20Z</time>
      </trkpt>
      <trkpt lat="42.107040" lon="-2.871512">
        <ele>1070.1</ele>
        <time>2026-01-01T10:05:56Z</time>
      </trkpt>
      <trkpt lat="42.107299" lon="-2.871499">
        <ele>1068.1</ele>
        <time>2026-01-01T10:06:17Z</time>
      </trkpt>
      <trkpt lat="42.107514" lon="-2.871538">
        <ele>1066.8</ele>
        <time>2026-01-01T10:06:34Z</time>
      </trkpt>
      <trkpt lat="42.107734" lon="-2.871624">
        <ele>1063.5</ele>
        <time>2026-01-01T10:06:53Z</time>
      </trkpt>
      <trkpt lat="42.107973" lon="-2.871532">
        <ele>1060.8</ele>
        <time>2026-01-01T10:07:12Z</time>
      </trkpt>
      <trkpt lat="42.108085" lon="-2.871196">
        <ele>1060.6</ele>
        <time>2026-01-01T10:07:34Z</time>
      </trkpt>
      <trkpt lat="42.108285" lon="-2.870946">
        <ele>1058.9</ele>
        <time>2026-01-01T10:07:56Z</time>
      </trkpt>
      <trkpt lat="42.108666" lon="-2.870736">
        <ele>1057.4</ele>
        <time>2026-01-01T10:08:29Z</time>
      </trkpt>
      <trkpt lat="42.109032" lon="-2.870558">
        <ele>1059.1</ele>
        <time>2026-01-01T10:09:21Z</time>
      </trkpt>
      <trkpt lat="42.109349" lon="-2.870492">
        <ele>1058.8</ele>
        <time>2026-01-01T10:09:47Z</time>
      </trkpt>
      <trkpt lat="42.109588" lon="-2.870538">
        <ele>1059.3</ele>
        <time>2026-01-01T10:10:19Z</time>
      </trkpt>
      <trkpt lat="42.109876" lon="-2.870664">
        <ele>1057.4</ele>
        <time>2026-01-01T10:10:43Z</time>
      </trkpt>
      <trkpt lat="42.110194" lon="-2.870644">
        <ele>1059.2</ele>
        <time>2026-01-01T10:11:26Z</time>
      </trkpt>
      <trkpt lat="42.110486" lon="-2.870447">
        <ele>1063.1</ele>
        <time>2026-01-01T10:12:09Z</time>
      </trkpt>
      <trkpt lat="42.110725" lon="-2.870282">
        <ele>1065.5</ele>
        <time>2026-01-01T10:12:45Z</time>
      </trkpt>
      <trkpt lat="42.110911" lon="-2.870342">
        <ele>1062.7</ele>
        <time>2026-01-01T10:13:00Z</time>
      </trkpt>
      <trkpt lat="42.111155" lon="-2.870552">
        <ele>1061.2</ele>
        <time>2026-01-01T10:13:24Z</time>
      </trkpt>
      <trkpt lat="42.111340" lon="-2.870625">
        <ele>1063.4</ele>
        <time>2026-01-01T10:13:49Z</time>
      </trkpt>
      <trkpt lat="42.111574" lon="-2.870513">
        <ele>1063.6</ele>
        <time>2026-01-01T10:14:22Z</time>
      </trkpt>
      <trkpt lat="42.111818" lon="-2.870414">
        <ele>1060.0</ele>
        <time>2026-01-01T10:14:43Z</time>
      </trkpt>
      <trkpt lat="42.112033" lon="-2.870316">
        <ele>1059.2</ele>
        <time>2026-01-01T10:15:01Z</time>
      </trkpt>
      <trkpt lat="42.112287" lon="-2.870263">
        <ele>1056.5</ele>
        <time>2026-01-01T10:15:22Z</time>
      </trkpt>
      <trkpt lat="42.112536" lon="-2.870204">
        <ele>1057.3</ele>
        <time>2026-01-01T10:15:55Z</time>
      </trkpt>
      <trkpt lat="42.112711" lon="-2.870059">
        <ele>1056.6</ele>
        <time>2026-01-01T10:16:12Z</time>
      </trkpt>
      <trkpt lat="42.113009" lon="-2.869770">
        <ele>1052.3</ele>
        <time>2026-01-01T10:16:41Z</time>
      </trkpt>
      <trkpt lat="42.113312" lon="-2.869592">
        <ele>1050.6</ele>
        <time>2026-01-01T10:17:08Z</time>
      </trkpt>
      <trkpt lat="42.113556" lon="-2.869579">
        <ele>1048.7</ele>
        <time>2026-01-01T10:17:27Z</time>
      </trkpt>
      <trkpt lat="42.113785" lon="-2.869566">
        <ele>1041.8</ele>
        <time>2026-01-01T10:17:45Z</time>
      </trkpt>
      <trkpt lat="42.113892" lon="-2.869217">
        <ele>1043.1</ele>
        <time>2026-01-01T10:18:23Z</time>
      </trkpt>
      <trkpt lat="42.114034" lon="-2.868888">
        <ele>1040.6</ele>
        <time>2026-01-01T10:18:45Z</time>
      </trkpt>
      <trkpt lat="42.114287" lon="-2.868552">
        <ele>1042.5</ele>
        <time>2026-01-01T10:19:33Z</time>
      </trkpt>
      <trkpt lat="42.114575" lon="-2.868447">
        <ele>1036.6</ele>
        <time>2026-01-01T10:19:57Z</time>
      </trkpt>
      <trkpt lat="42.114848" lon="-2.868434">
        <ele>1029.7</ele>
        <time>2026-01-01T10:20:19Z</time>
      </trkpt>
      <trkpt lat="42.115141" lon="-2.868421">
        <ele>1026.6</ele>
        <time>2026-01-01T10:20:42Z</time>
      </trkpt>
      <trkpt lat="42.115414" lon="-2.868290">
        <ele>1027.6</ele>
        <time>2026-01-01T10:21:21Z</time>
      </trkpt>
      <trkpt lat="42.115673" lon="-2.868270">
        <ele>1026.8</ele>
        <time>2026-01-01T10:21:42Z</time>
      </trkpt>
      <trkpt lat="42.115922" lon="-2.868408">
        <ele>1025.8</ele>
        <time>2026-01-01T10:22:03Z</time>
      </trkpt>
      <trkpt lat="42.116175" lon="-2.868448">
        <ele>1024.7</ele>
        <time>2026-01-01T10:22:23Z</time>
      </trkpt>
      <trkpt lat="42.116395" lon="-2.868540">
        <ele>1022.1</ele>
        <time>2026-01-01T10:22:42Z</time>
      </trkpt>
      <trkpt lat="42.116580" lon="-2.868547">
        <ele>1020.1</ele>
        <time>2026-01-01T10:22:57Z</time>
      </trkpt>
      <trkpt lat="42.116693" lon="-2.868481">
        <ele>1020.0</ele>
        <time>2026-01-01T10:23:07Z</time>
      </trkpt>
      <trkpt lat="42.116847" lon="-2.868486">
        <ele>1021.9</ele>
        <time>2026-01-01T10:23:27Z</time>
      </trkpt>
    </trkseg>
  </trk>
</gpx>
